{"_id":"1a0266bdd68f0644a6d748f784000c74","_rev":"1-20bf3ca0356ef30fd409fc450f6750c7","Location":"Gdansk-Rebiechowo, Poland (EPGD) 54-23N 018-28E 138M","Date":"Jan 23, 2012 - 12:00 PM EST / 2012.01.23 1700 UTC","Wind":"from the W (280 degrees) at 8 MPH (7 KT):0","Visibility":"greater than 7 mile(s):0","Sky conditions":"mostly cloudy","Temperature":"33 F (1 C)","Windchill":"26 F (-3 C):1","Dew Point":"32 F (0 C)","Relative Humidity":"93%","Pressure (altimeter)":"29.68 in. Hg (1005 hPa)","ob":"EPGD 231700Z 28007KT 9999 BKN007 01/M00 Q1005","cycle":"17"},
{"_id":"1a0266bdd68f0644a6d748f7840018f3","_rev":"1-13b1bff28719a73f0757a763b188e902","Location":"Gdansk-Rebiechowo, Poland (EPGD) 54-23N 018-28E 138M","Date":"Jan 09, 2012 - 01:00 PM EST / 2012.01.09 1800 UTC","Wind":"Calm:0","Visibility":"greater than 7 mile(s):0","Sky conditions":"mostly cloudy","Temperature":"30 F (-1 C)","Dew Point":"23 F (-5 C)","Relative Humidity":"74%","Pressure (altimeter)":"30.09 in. Hg (1019 hPa)","ob":"EPGD 091800Z 00000KT 9999 BKN033 M01/M05 Q1019 R11/290095","cycle":"18"},
{"_id":"1a0266bdd68f0644a6d748f7840027cb","_rev":"1-f936fb9ae9478e1f09eeb5b55867b4b6","Location":"Gdansk-Rebiechowo, Poland (EPGD) 54-23N 018-28E 138M","Date":"Dec 18, 2011 - 05:00 PM EST / 2011.12.18 2200 UTC","Wind":"from the SW (230 degrees) at 13 MPH (11 KT) (direction variable):0","Visibility":"2 mile(s):0","Sky conditions":"mostly cloudy","Weather":"light snow showers; Cumulonimbus clouds observed","Temperature":"33 F (1 C)","Windchill":"23 F (-5 C):1","Dew Point":"30 F (-1 C)","Relative Humidity":"86%","Pressure (altimeter)":"29.50 in. Hg (0999 hPa)","ob":"EPGD 182200Z 23011KT 200V270 4000 -SHSN SCT009CB BKN016 01/M01 Q0999 R11/690061","cycle":"22"},
{"_id":"1a0266bdd68f0644a6d748f784002d87","_rev":"1-9b4891ad701d0dce60517fc3a27a2eeb","Location":"Gdansk-Rebiechowo, Poland (EPGD) 54-23N 018-28E 138M","Date":"Jan 20, 2012 - 08:00 AM EST / 2012.01.20 1300 UTC","Wind":"from the WSW (250 degrees) at 8 MPH (7 KT) (direction variable):0","Visibility":"greater than 7 mile(s):0","Sky conditions":"mostly clear","Temperature":"35 F (2 C)","Windchill":"28 F (-2 C):1","Dew Point":"30 F (-1 C)","Relative Humidity":"80%","Pressure (altimeter)":"29.53 in. Hg (1000 hPa)","ob":"EPGD 201300Z 25007KT 220V280 9999 FEW013 02/M01 Q1000 R11/290095","cycle":"13"},
{"_id":"1a0266bdd68f0644a6d748f784003ad2","_rev":"1-741744510862352cbd86ebf6ed30e5bb","Location":"Gdansk-Rebiechowo, Poland (EPGD) 54-23N 018-28E 138M","Date":"Dec 29, 2011 - 10:00 AM EST / 2011.12.29 1500 UTC","Wind":"from the WSW (250 degrees) at 14 MPH (12 KT) (direction variable):0","Visibility":"2 mile(s):0","Sky conditions":"mostly cloudy","Weather":"rain showers; Cumulonimbus clouds observed","Temperature":"39 F (4 C)","Dew Point":"35 F (2 C)","Relative Humidity":"86%","Pressure (altimeter)":"29.65 in. Hg (1004 hPa)","ob":"EPGD 291500Z 25012KT 220V280 4000 SHRA FEW005 SCT020CB BKN025 04/02 Q1004","cycle":"15"},
{"_id":"1a0266bdd68f0644a6d748f7840044b7","_rev":"1-adadc0b6227fa713be0892215c6bad77","Location":"Gdansk-Rebiechowo, Poland (EPGD) 54-23N 018-28E 138M","Date":"Jan 15, 2012 - 10:00 AM EST / 2012.01.15 1500 UTC","Wind":"from the N (350 degrees) at 9 MPH (8 KT):0","Visibility":"greater than 7 mile(s):0","Sky conditions":"mostly cloudy","Weather":"Cumulonimbus clouds observed","Temperature":"30 F (-1 C)","Windchill":"21 F (-6 C):1","Dew Point":"26 F (-3 C)","Relative Humidity":"86%","Pressure (altimeter)":"30.09 in. Hg (1019 hPa)","ob":"EPGD 151500Z 35008KT 9999 FEW006 FEW015CB BKN027 M01/M03 Q1019 R11/590142","cycle":"15"},
{"_id":"1a0266bdd68f0644a6d748f784004865","_rev":"1-6eec4eaeee14ed334a8ba42c223b6823","Location":"Gdansk-Rebiechowo, Poland (EPGD) 54-23N 018-28E 138M","Date":"Feb 06, 2012 - 12:00 PM EST / 2012.02.06 1700 UTC","Wind":"from the ENE (070 degrees) at 5 MPH (4 KT):0","Visibility":"3 mile(s):0","Sky conditions":"mostly cloudy","Weather":"light snow","Temperature":"14 F (-10 C)","Windchill":"6 F (-14 C):1","Dew Point":"8 F (-13 C)","Relative Humidity":"78%","Pressure (altimeter)":"30.59 in. Hg (1036 hPa)","ob":"EPGD 061700Z 07004KT 6000 -SN BKN007 M10/M13 Q1036 R11/490152","cycle":"17"},
{"_id":"1a0266bdd68f0644a6d748f784004a39","_rev":"1-9d94b1dc944aa987fd274ff017886ad5","Location":"Gdansk-Rebiechowo, Poland (EPGD) 54-23N 018-28E 138M","Date":"Jan 31, 2012 - 09:00 PM EST / 2012.02.01 0200 UTC","Wind":"Calm:0","Visibility":"greater than 7 mile(s):0","Temperature":"5 F (-15 C)","Dew Point":"-2 F (-19 C)","Relative Humidity":"71%","Pressure (altimeter)":"30.68 in. Hg (1039 hPa)","ob":"EPGD 010200Z 00000KT CAVOK M15/M19 Q1039 R11/190095","cycle":"2"},
{"_id":"1a0266bdd68f0644a6d748f784005082","_rev":"1-1e2ca556bdb3e1e6375ec2f295c2c722","Location":"Gdansk-Rebiechowo, Poland (EPGD) 54-23N 018-28E 138M","Date":"Dec 17, 2011 - 05:00 PM EST / 2011.12.17 2200 UTC","Wind":"from the W (270 degrees) at 15 MPH (13 KT) gusting to 26 MPH (23 KT):0","Visibility":"4 mile(s):0","Sky conditions":"mostly cloudy","Weather":"light rain","Temperature":"35 F (2 C)","Windchill":"24 F (-4 C):1","Dew Point":"33 F (1 C)","Relative Humidity":"93%","Pressure (altimeter)":"29.12 in. Hg (0986 hPa)","ob":"EPGD 172200Z 27013G23KT 8000 -RA SCT008 BKN011 02/01 Q0986 R11/290064","cycle":"22"},
{"_id":"1a0266bdd68f0644a6d748f7840053a4","_rev":"1-2eab90222c82cc480df6085fb64ca66e","Location":"Gdansk-Rebiechowo, Poland (EPGD) 54-23N 018-28E 138M","Date":"Feb 11, 2012 - 07:00 AM EST / 2012.02.11 1200 UTC","Wind":"from the W (270 degrees) at 7 MPH (6 KT) (direction variable):0","Visibility":"3 mile(s):0","Sky conditions":"mostly cloudy","Weather":"light snow","Temperature":"21 F (-6 C)","Windchill":"12 F (-11 C):1","Dew Point":"15 F (-9 C)","Relative Humidity":"79%","Pressure (altimeter)":"30.56 in. Hg (1035 hPa)","ob":"EPGD 111200Z 27006KT 220V290 6000 -SN FEW007 BKN016 M06/M09 Q1035 R11/090095","cycle":"12"},
{"_id":"1a0266bdd68f0644a6d748f784006273","_rev":"1-29f2b04b2df443b4fb9fe290fa0c5244","Location":"Gdansk-Rebiechowo, Poland (EPGD) 54-23N 018-28E 138M","Date":"Jan 28, 2012 - 01:00 AM EST / 2012.01.28 0600 UTC","Wind":"from the ESE (120 degrees) at 8 MPH (7 KT):0","Visibility":"greater than 7 mile(s):0","Temperature":"8 F (-13 C)","Windchill":"-4 F (-20 C):1","Dew Point":"3 F (-16 C)","Relative Humidity":"78%","Pressure (altimeter)":"30.56 in. Hg (1035 hPa)","ob":"EPGD 280600Z 12007KT CAVOK M13/M16 Q1035 R11/190095","cycle":"6"},
{"_id":"1a0266bdd68f0644a6d748f784006579","_rev":"1-c0e4a9be84b859234d94493d60338ff5","Location":"Gdansk-Rebiechowo, Poland (EPGD) 54-23N 018-28E 138M","Date":"Jan 20, 2012 - 10:00 PM EST / 2012.01.21 0300 UTC","Wind":"from the WNW (290 degrees) at 13 MPH (11 KT):0","Visibility":"greater than 7 mile(s):0","Sky conditions":"mostly cloudy","Temperature":"32 F (0 C)","Windchill":"23 F (-5 C):1","Dew Point":"28 F (-2 C)","Relative Humidity":"86%","Pressure (altimeter)":"29.71 in. Hg (1006 hPa)","ob":"EPGD 210300Z 29011KT 9999 BKN009 00/M02 Q1006 R11/190095","cycle":"3"},
{"_id":"1a0266bdd68f0644a6d748f784006d7a","_rev":"1-0b9ed099324aab2a0389ab5cbcc89b9e","Location":"Gdansk-Rebiechowo, Poland (EPGD) 54-23N 018-28E 138M","Date":"Dec 30, 2011 - 01:00 PM EST / 2011.12.30 1800 UTC","Wind":"from the W (280 degrees) at 7 MPH (6 KT):0","Visibility":"greater than 7 mile(s):0","Sky conditions":"mostly cloudy","Temperature":"35 F (2 C)","Windchill":"28 F (-2 C):1","Dew Point":"33 F (1 C)","Relative Humidity":"93%","Pressure (altimeter)":"29.59 in. Hg (1002 hPa)","ob":"EPGD 301800Z 28006KT 9999 SCT007 BKN033 02/01 Q1002","cycle":"18"},
{"_id":"1a0266bdd68f0644a6d748f784006fd8","_rev":"1-b7c982c4c178851c134934f51ca0ccb5","Location":"Gdansk-Rebiechowo, Poland (EPGD) 54-23N 018-28E 138M","Date":"Feb 10, 2012 - 08:00 AM EST / 2012.02.10 1300 UTC","Wind":"from the ESE (120 degrees) at 3 MPH (3 KT):0","Visibility":"greater than 7 mile(s):0","Sky conditions":"mostly cloudy","Temperature":"15 F (-9 C)","Dew Point":"12 F (-11 C)","Relative Humidity":"85%","Pressure (altimeter)":"30.71 in. Hg (1040 hPa)","ob":"EPGD 101300Z 12003KT 9999 BKN009 M09/M11 Q1040 R11/090095","cycle":"13"},
{"_id":"1a0266bdd68f0644a6d748f7840072df","_rev":"1-3bb4ec1d12db49ef03e2fd81a5cb8808","Location":"Gdansk-Rebiechowo, Poland (EPGD) 54-23N 018-28E 138M","Date":"Jan 09, 2012 - 04:00 AM EST / 2012.01.09 0900 UTC","Wind":"from the W (280 degrees) at 10 MPH (9 KT):0","Visibility":"greater than 7 mile(s):0","Sky conditions":"mostly cloudy","Temperature":"33 F (1 C)","Windchill":"24 F (-4 C):1","Dew Point":"28 F (-2 C)","Relative Humidity":"80%","Pressure (altimeter)":"30.06 in. Hg (1018 hPa)","ob":"EPGD 090900Z 28009KT 9999 BKN020 01/M02 Q1018 R11/290095","cycle":"9"},
{"_id":"1a0266bdd68f0644a6d748f784007b7c","_rev":"1-cc2de733241870f87bc764de5a8e02ca","Location":"Gdansk-Rebiechowo, Poland (EPGD) 54-23N 018-28E 138M","Date":"Feb 12, 2012 - 11:00 AM EST / 2012.02.12 1600 UTC","Wind":"from the SSW (210 degrees) at 6 MPH (5 KT) (direction variable):0","Visibility":"less than 1 mile:0","Sky conditions":"partly cloudy","Weather":"snow","Temperature":"19 F (-7 C)","Windchill":"10 F (-12 C):1","Dew Point":"15 F (-9 C)","Relative Humidity":"85%","Pressure (altimeter)":"30.15 in. Hg (1021 hPa)","ob":"EPGD 121600Z 21005KT 180V250 1200 R29/P2000 SN FEW005 SCT033 M07/M09 Q1021 R11/490233","cycle":"16"},
{"_id":"1a0266bdd68f0644a6d748f7840085e4","_rev":"1-78cea0deeacf4f506672eee128eb1a54","Location":"Gdansk-Rebiechowo, Poland (EPGD) 54-23N 018-28E 138M","Date":"Feb 12, 2012 - 03:00 AM EST / 2012.02.12 0800 UTC","Wind":"from the SW (230 degrees) at 7 MPH (6 KT) (direction variable):0","Visibility":"greater than 7 mile(s):0","Temperature":"17 F (-8 C)","Windchill":"6 F (-14 C):1","Dew Point":"12 F (-11 C)","Relative Humidity":"78%","Pressure (altimeter)":"30.30 in. Hg (1026 hPa)","ob":"EPGD 120800Z 23006KT 190V270 CAVOK M08/M11 Q1026 R11/450195","cycle":"8"},
{"_id":"1a0266bdd68f0644a6d748f784008e4e","_rev":"1-fdc1f41079d3a1331819ee569af49368","Location":"Gdansk-Rebiechowo, Poland (EPGD) 54-23N 018-28E 138M","Date":"Jan 29, 2012 - 01:00 AM EST / 2012.01.29 0600 UTC","Wind":"from the ESE (110 degrees) at 10 MPH (9 KT):0","Visibility":"greater than 7 mile(s):0","Temperature":"6 F (-14 C)","Windchill":"-7 F (-22 C):2","Dew Point":"0 F (-18 C)","Relative Humidity":"71%","Pressure (altimeter)":"30.71 in. Hg (1040 hPa)","ob":"EPGD 290600Z 11009KT CAVOK M14/M18 Q1040","cycle":"6"},
{"_id":"1a0266bdd68f0644a6d748f784009c8a","_rev":"1-a03473803cc69e1f8ef96af90cd4f38c","Location":"Gdansk-Rebiechowo, Poland (EPGD) 54-23N 018-28E 138M","Date":"Feb 16, 2012 - 05:00 PM EST / 2012.02.16 2200 UTC","Wind":"from the SSW (200 degrees) at 3 MPH (3 KT) (direction variable):0","Visibility":"greater than 7 mile(s):0","Sky conditions":"partly cloudy","Temperature":"28 F (-2 C)","Dew Point":"23 F (-5 C)","Relative Humidity":"79%","Pressure (altimeter)":"29.94 in. Hg (1014 hPa)","ob":"EPGD 162200Z 20003KT 140V260 9999 SCT040 M02/M05 Q1014 R11/090095","cycle":"22"},
{"_id":"1a0266bdd68f0644a6d748f78400a361","_rev":"1-28ab1889d8f8d58b5565f2154b7f7e02","Location":"Gdansk-Rebiechowo, Poland (EPGD) 54-23N 018-28E 138M","Date":"Feb 01, 2012 - 04:00 AM EST / 2012.02.01 0900 UTC","Wind":"from the ESE (110 degrees) at 6 MPH (5 KT):0","Visibility":"1 mile(s):0","Sky conditions":"mostly cloudy","Weather":"light snow showers; mist","Temperature":"6 F (-14 C)","Windchill":"-4 F (-20 C):1","Dew Point":"1 F (-17 C)","Relative Humidity":"77%","Pressure (altimeter)":"30.74 in. Hg (1041 hPa)","ob":"EPGD 010900Z 11005KT 3000 -SHSN BR BKN005 M14/M17 Q1041 R11/490142","cycle":"9"},
{"_id":"1a0266bdd68f0644a6d748f78400adab","_rev":"1-3d8a04a42f29346a2a021f55c006dd01","Location":"Gdansk-Rebiechowo, Poland (EPGD) 54-23N 018-28E 138M","Date":"Jan 27, 2012 - 09:00 PM EST / 2012.01.28 0200 UTC","Wind":"from the ESE (120 degrees) at 8 MPH (7 KT):0","Visibility":"greater than 7 mile(s):0","Temperature":"8 F (-13 C)","Windchill":"-4 F (-20 C):1","Dew Point":"3 F (-16 C)","Relative Humidity":"78%","Pressure (altimeter)":"30.53 in. Hg (1034 hPa)","ob":"EPGD 280200Z 12007KT CAVOK M13/M16 Q1034 R11/190095","cycle":"2"},
{"_id":"1a0266bdd68f0644a6d748f78400b543","_rev":"1-acfa2ac52576737034cc45548a43767f","Location":"Gdansk-Rebiechowo, Poland (EPGD) 54-23N 018-28E 138M","Date":"Jan 02, 2012 - 01:00 AM EST / 2012.01.02 0600 UTC","Wind":"from the S (190 degrees) at 12 MPH (10 KT) (direction variable):0","Visibility":"1 mile(s):0","Sky conditions":"mostly cloudy","Weather":"light rain; mist","Temperature":"46 F (8 C)","Dew Point":"44 F (7 C)","Relative Humidity":"93%","Pressure (altimeter)":"29.56 in. Hg (1001 hPa)","ob":"EPGD 020600Z 19010KT 150V220 2500 -RA BR BKN005 08/07 Q1001","cycle":"6"},
{"_id":"1a0266bdd68f0644a6d748f78400bdb9","_rev":"1-e863f7e99547c31ee2b545a52c1f4706","Location":"Gdansk-Rebiechowo, Poland (EPGD) 54-23N 018-28E 138M","Date":"Jan 02, 2012 - 05:00 AM EST / 2012.01.02 1000 UTC","Wind":"from the SW (220 degrees) at 10 MPH (9 KT) (direction variable):0","Visibility":"greater than 7 mile(s):0","Sky conditions":"mostly cloudy","Weather":"light rain","Temperature":"50 F (10 C)","Dew Point":"48 F (9 C)","Relative Humidity":"93%","Pressure (altimeter)":"29.56 in. Hg (1001 hPa)","ob":"EPGD 021000Z 22009KT 180V260 9999 -RA BKN008 10/09 Q1001","cycle":"10"},
{"_id":"1a0266bdd68f0644a6d748f78400c1af","_rev":"1-e72eca896ed0dcc2a71306d0961f17b9","Location":"Gdansk-Rebiechowo, Poland (EPGD) 54-23N 018-28E 138M","Date":"Jan 20, 2012 - 06:00 AM EST / 2012.01.20 1100 UTC","Wind":"from the W (270 degrees) at 9 MPH (8 KT):0","Visibility":"greater than 7 mile(s):0","Sky conditions":"mostly cloudy","Temperature":"35 F (2 C)","Windchill":"28 F (-2 C):1","Dew Point":"32 F (0 C)","Relative Humidity":"86%","Pressure (altimeter)":"29.50 in. Hg (0999 hPa)","ob":"EPGD 201100Z 27008KT 9999 BKN011 02/M00 Q0999 R11/290095","cycle":"11"},
{"_id":"1a0266bdd68f0644a6d748f78400d0b2","_rev":"1-af9ff25086682c732601fbda7d171c2f","Location":"Gdansk-Rebiechowo, Poland (EPGD) 54-23N 018-28E 138M","Date":"Jan 10, 2012 - 04:00 AM EST / 2012.01.10 0900 UTC","Wind":"from the SE (140 degrees) at 3 MPH (3 KT) (direction variable):0","Visibility":"less than 1 mile:0","Sky conditions":"obscured","Weather":"freezing fog","Temperature":"32 F (0 C)","Dew Point":"30 F (-1 C)","Relative Humidity":"92%","Pressure (altimeter)":"30.09 in. Hg (1019 hPa)","ob":"EPGD 100900Z 14003KT 110V180 0600 R29/0650 FZFG VV002 M00/M01 Q1019 R11/610259","cycle":"9"},
{"_id":"1a0266bdd68f0644a6d748f78400d5ec","_rev":"1-d2605f2549183fcad675ea43d77a1bb0","Location":"Gdansk-Rebiechowo, Poland (EPGD) 54-23N 018-28E 138M","Date":"Jan 10, 2012 - 08:00 PM EST / 2012.01.11 0100 UTC","Wind":"from the WSW (250 degrees) at 9 MPH (8 KT) (direction variable):0","Visibility":"4 mile(s):0","Sky conditions":"mostly cloudy","Temperature":"35 F (2 C)","Windchill":"28 F (-2 C):1","Dew Point":"33 F (1 C)","Relative Humidity":"93%","Pressure (altimeter)":"30.24 in. Hg (1024 hPa)","ob":"EPGD 110100Z 25008KT 210V270 7000 BKN003 02/01 Q1024 R11/290060","cycle":"1"},
{"_id":"1a0266bdd68f0644a6d748f78400e182","_rev":"1-bff9557984a8e24807f9a87409c8c7aa","Location":"Gdansk-Rebiechowo, Poland (EPGD) 54-23N 018-28E 138M","Date":"Jan 03, 2012 - 12:00 AM EST / 2012.01.03 0500 UTC","Wind":"from the W (260 degrees) at 12 MPH (10 KT):0","Visibility":"greater than 7 mile(s):0","Sky conditions":"mostly cloudy","Temperature":"41 F (5 C)","Dew Point":"35 F (2 C)","Relative Humidity":"80%","Pressure (altimeter)":"29.85 in. Hg (1011 hPa)","ob":"EPGD 030500Z 26010KT 9999 BKN028 05/02 Q1011","cycle":"5"},
{"_id":"1a0266bdd68f0644a6d748f78400f002","_rev":"1-ec2677e9522e059e571756be61545758","Location":"Gdansk-Rebiechowo, Poland (EPGD) 54-23N 018-28E 138M","Date":"Jan 18, 2012 - 06:00 AM EST / 2012.01.18 1100 UTC","Wind":"from the WSW (240 degrees) at 5 MPH (4 KT) (direction variable):0","Visibility":"2 mile(s):0","Sky conditions":"mostly cloudy","Weather":"light rain","Temperature":"33 F (1 C)","Windchill":"28 F (-2 C):1","Dew Point":"32 F (0 C)","Relative Humidity":"93%","Pressure (altimeter)":"30.15 in. Hg (1021 hPa)","ob":"EPGD 181100Z 24004KT 200V280 4000 -RA FEW004 BKN007 01/00 Q1021 R11/290095","cycle":"11"},
{"_id":"1a0266bdd68f0644a6d748f78400fce0","_rev":"1-875fc62f223512af7ad0079681d1f096","Location":"Gdansk-Rebiechowo, Poland (EPGD) 54-23N 018-28E 138M","Date":"Jan 23, 2012 - 07:00 PM EST / 2012.01.24 0000 UTC","Wind":"from the NW (320 degrees) at 5 MPH (4 KT):0","Visibility":"greater than 7 mile(s):0","Sky conditions":"mostly cloudy","Weather":"light snow grains","Temperature":"32 F (0 C)","Windchill":"26 F (-3 C):1","Dew Point":"32 F (0 C)","Relative Humidity":"100%","Pressure (altimeter)":"29.77 in. Hg (1008 hPa)","ob":"EPGD 240000Z 32004KT 9999 -SG BKN003 00/M00 Q1008","cycle":"0"},
{"_id":"1a0266bdd68f0644a6d748f784010891","_rev":"1-794fc1418e6c72633f73d4e9f112da00","Location":"Gdansk-Rebiechowo, Poland (EPGD) 54-23N 018-28E 138M","Date":"Feb 03, 2012 - 11:00 AM EST / 2012.02.03 1600 UTC","Wind":"from the S (190 degrees) at 5 MPH (4 KT) (direction variable):0","Visibility":"1 mile(s):0","Sky conditions":"mostly cloudy","Weather":"light snow; mist","Temperature":"12 F (-11 C)","Windchill":"3 F (-16 C):1","Dew Point":"8 F (-13 C)","Relative Humidity":"85%","Pressure (altimeter)":"30.50 in. Hg (1033 hPa)","ob":"EPGD 031600Z 19004KT 160V230 2500 -SN BR BKN009 M11/M13 Q1033","cycle":"16"},
{"_id":"1a0266bdd68f0644a6d748f78401149d","_rev":"1-a3b4d94c741ba500d909a4941d3397a7","Location":"Gdansk-Rebiechowo, Poland (EPGD) 54-23N 018-28E 138M","Date":"Jan 19, 2012 - 11:00 AM EST / 2012.01.19 1600 UTC","Wind":"from the SW (220 degrees) at 7 MPH (6 KT) (direction variable):0","Visibility":"3 mile(s):0","Sky conditions":"mostly cloudy","Temperature":"35 F (2 C)","Windchill":"28 F (-2 C):1","Dew Point":"33 F (1 C)","Relative Humidity":"93%","Pressure (altimeter)":"29.59 in. Hg (1002 hPa)","ob":"EPGD 191600Z 22006KT 170V260 6000 BKN008 02/01 Q1002 R11/290095","cycle":"16"},
{"_id":"4495a8a111ec85eb6d2389a681cd2216","_rev":"1-0f5eebcdaa7c0f1199d1cf9c0cc1b170","Location":"Gdansk-Rebiechowo, Poland (EPGD) 54-23N 018-28E 138M","Date":"Feb 13, 2012 - 10:00 AM EST / 2012.02.13 1500 UTC","Wind":"from the W (270 degrees) at 6 MPH (5 KT):0","Visibility":"greater than 7 mile(s):0","Sky conditions":"mostly cloudy","Temperature":"30 F (-1 C)","Windchill":"23 F (-5 C):1","Dew Point":"24 F (-4 C)","Relative Humidity":"80%","Pressure (altimeter)":"29.97 in. Hg (1015 hPa)","ob":"EPGD 131500Z 27005KT 9999 BKN026 M01/M04 Q1015 R11/190095","cycle":"15"},
{"_id":"4495a8a111ec85eb6d2389a681cd2981","_rev":"1-1d0705a7a822b33e3b9e32ac914c9d94","Location":"Gdansk-Rebiechowo, Poland (EPGD) 54-23N 018-28E 138M","Date":"Feb 14, 2012 - 02:00 PM EST / 2012.02.14 1900 UTC","Wind":"from the SSW (210 degrees) at 13 MPH (11 KT):0","Visibility":"greater than 7 mile(s):0","Temperature":"26 F (-3 C)","Windchill":"14 F (-10 C):1","Dew Point":"19 F (-7 C)","Relative Humidity":"73%","Pressure (altimeter)":"29.59 in. Hg (1002 hPa)","ob":"EPGD 141900Z 21011KT CAVOK M03/M07 Q1002 R29/190095","cycle":"19"},
{"_id":"4495a8a111ec85eb6d2389a681cd33bb","_rev":"1-13ab68327baa85eeefc1df3a5f6560a9","Location":"Gdansk-Rebiechowo, Poland (EPGD) 54-23N 018-28E 138M","Date":"Jan 12, 2012 - 09:00 AM EST / 2012.01.12 1400 UTC","Wind":"from the WSW (240 degrees) at 21 MPH (18 KT) gusting to 38 MPH (33 KT) (direction variable):0","Visibility":"greater than 7 mile(s):0","Sky conditions":"mostly cloudy","Weather":"light rain","Temperature":"46 F (8 C)","Dew Point":"41 F (5 C)","Relative Humidity":"81%","Pressure (altimeter)":"29.47 in. Hg (0998 hPa)","ob":"EPGD 121400Z 24018G33KT 200V260 9999 -RA BKN014 08/05 Q0998","cycle":"14"},
{"_id":"4495a8a111ec85eb6d2389a681cd42bb","_rev":"1-5647ea739ccb82dc13a5311f468a8d38","Location":"Gdansk-Rebiechowo, Poland (EPGD) 54-23N 018-28E 138M","Date":"Feb 06, 2012 - 03:00 AM EST / 2012.02.06 0800 UTC","Wind":"Variable at 1 MPH (1 KT):0","Visibility":"2 mile(s):0","Sky conditions":"partly cloudy","Weather":"mist","Temperature":"3 F (-16 C)","Dew Point":"-4 F (-20 C)","Relative Humidity":"71%","Pressure (altimeter)":"30.68 in. Hg (1039 hPa)","ob":"EPGD 060800Z VRB01KT 3500 BR SCT009 M16/M20 Q1039 R/490152","cycle":"8"},
{"_id":"4495a8a111ec85eb6d2389a681cd4ff6","_rev":"1-3e3618264cf5c359fadd6a52765d9d6c","Location":"Gdansk-Rebiechowo, Poland (EPGD) 54-23N 018-28E 138M","Date":"Jan 25, 2012 - 04:00 PM EST / 2012.01.25 2100 UTC","Wind":"from the ENE (060 degrees) at 7 MPH (6 KT) (direction variable):0","Visibility":"greater than 7 mile(s):0","Sky conditions":"partly cloudy","Weather":"light snow showers; Towering cumulus clouds observed","Temperature":"30 F (-1 C)","Windchill":"23 F (-5 C):1","Dew Point":"26 F (-3 C)","Relative Humidity":"86%","Pressure (altimeter)":"30.24 in. Hg (1024 hPa)","ob":"EPGD 252100Z 06006KT 030V100 9999 -SHSN SCT005TCU SCT008 M01/M03 Q1024 R11/290095","cycle":"21"},
{"_id":"4495a8a111ec85eb6d2389a681cd5791","_rev":"1-a2cad87c9ed85c2558b4374a9c6baaaf","Location":"Gdansk-Rebiechowo, Poland (EPGD) 54-23N 018-28E 138M","Date":"Jan 21, 2012 - 10:00 PM EST / 2012.01.22 0300 UTC","Wind":"from the SW (230 degrees) at 6 MPH (5 KT) (direction variable):0","Visibility":"4 mile(s):0","Sky conditions":"mostly cloudy","Temperature":"33 F (1 C)","Windchill":"26 F (-3 C):1","Dew Point":"32 F (0 C)","Relative Humidity":"93%","Pressure (altimeter)":"29.21 in. Hg (0989 hPa)","ob":"EPGD 220300Z 23005KT 190V270 8000 FEW006 BKN009 01/00 Q0989 R11/590342","cycle":"3"},
{"_id":"4495a8a111ec85eb6d2389a681cd63dd","_rev":"1-980b80eaa80a6b13887eff304c40ee84","Location":"Gdansk-Rebiechowo, Poland (EPGD) 54-23N 018-28E 138M","Date":"Feb 15, 2012 - 10:00 AM EST / 2012.02.15 1500 UTC","Wind":"from the N (010 degrees) at 10 MPH (9 KT) (direction variable):0","Visibility":"1 mile(s):0","Sky conditions":"mostly cloudy","Weather":"light snow; mist","Temperature":"26 F (-3 C)","Windchill":"15 F (-9 C):1","Dew Point":"24 F (-4 C)","Relative Humidity":"92%","Pressure (altimeter)":"29.23 in. Hg (0990 hPa)","ob":"EPGD 151500Z 01009KT 340V040 3000 -SN BR SCT005 BKN007 M03/M04 Q0990 R11/490157","cycle":"15"},
{"_id":"4495a8a111ec85eb6d2389a681cd63ff","_rev":"1-eb6e895addbf9b767c0792cf883c1774","Location":"Gdansk-Rebiechowo, Poland (EPGD) 54-23N 018-28E 138M","Date":"Jan 22, 2012 - 12:00 PM EST / 2012.01.22 1700 UTC","Wind":"from the WSW (250 degrees) at 7 MPH (6 KT) (direction variable):0","Visibility":"greater than 7 mile(s):0","Sky conditions":"mostly cloudy","Temperature":"35 F (2 C)","Windchill":"28 F (-2 C):1","Dew Point":"33 F (1 C)","Relative Humidity":"93%","Pressure (altimeter)":"29.26 in. Hg (0991 hPa)","ob":"EPGD 221700Z 25006KT 210V280 9999 BKN007 02/01 Q0991 R11/290066","cycle":"17"},
{"_id":"4495a8a111ec85eb6d2389a681cd72ed","_rev":"1-ff35b664fe052ea41db734f68facd594","Location":"Gdansk-Rebiechowo, Poland (EPGD) 54-23N 018-28E 138M","Date":"Dec 27, 2011 - 08:00 AM EST / 2011.12.27 1300 UTC","Wind":"from the W (270 degrees) at 18 MPH (16 KT) gusting to 31 MPH (27 KT):0","Visibility":"1 mile(s):0","Sky conditions":"mostly cloudy","Weather":"light rain; mist","Temperature":"46 F (8 C)","Dew Point":"42 F (6 C)","Relative Humidity":"87%","Pressure (altimeter)":"30.24 in. Hg (1024 hPa)","ob":"EPGD 271300Z 27016G27KT 1800 -RA BR FEW007 BKN011 08/06 Q1024","cycle":"13"},
{"_id":"4495a8a111ec85eb6d2389a681cd7a40","_rev":"1-3e8f0ad1d31749d21bb20b00d5db65cf","Location":"Gdansk-Rebiechowo, Poland (EPGD) 54-23N 018-28E 138M","Date":"Dec 17, 2011 - 06:00 AM EST / 2011.12.17 1100 UTC","Wind":"from the WSW (240 degrees) at 13 MPH (11 KT) (direction variable):0","Visibility":"greater than 7 mile(s):0","Sky conditions":"mostly cloudy","Temperature":"35 F (2 C)","Windchill":"26 F (-3 C):1","Dew Point":"33 F (1 C)","Relative Humidity":"93%","Pressure (altimeter)":"28.79 in. Hg (0975 hPa)","ob":"EPGD 171100Z 24011KT 200V270 9999 BKN006 02/01 Q0975 R11/290064","cycle":"11"},
{"_id":"4495a8a111ec85eb6d2389a681cd82a7","_rev":"1-343a0d9e2f8d4c359ab596750a57e358","Location":"Gdansk-Rebiechowo, Poland (EPGD) 54-23N 018-28E 138M","Date":"Jan 15, 2012 - 07:00 AM EST / 2012.01.15 1200 UTC","Wind":"from the N (360 degrees) at 7 MPH (6 KT) (direction variable):0","Visibility":"greater than 7 mile(s):0","Sky conditions":"mostly cloudy","Weather":"light snow showers","Temperature":"32 F (0 C)","Windchill":"24 F (-4 C):1","Dew Point":"28 F (-2 C)","Relative Humidity":"86%","Pressure (altimeter)":"30.06 in. Hg (1018 hPa)","ob":"EPGD 151200Z 36006KT 320V050 9999 -SHSN FEW011 BKN019 M00/M02 Q1018 R11/590142","cycle":"12"},
{"_id":"4495a8a111ec85eb6d2389a681cd8cc8","_rev":"1-5d65a33790355ecc8b2763e7a34f76b1","Location":"Gdansk-Rebiechowo, Poland (EPGD) 54-23N 018-28E 138M","Date":"Jan 07, 2012 - 04:00 AM EST / 2012.01.07 0900 UTC","Wind":"from the WSW (250 degrees) at 10 MPH (9 KT):0","Visibility":"greater than 7 mile(s):0","Sky conditions":"mostly cloudy","Temperature":"35 F (2 C)","Windchill":"26 F (-3 C):1","Dew Point":"32 F (0 C)","Relative Humidity":"86%","Pressure (altimeter)":"29.65 in. Hg (1004 hPa)","ob":"EPGD 070900Z 25009KT 9999 BKN008 02/00 Q1004 R11/190095","cycle":"9"},
{"_id":"4495a8a111ec85eb6d2389a681cd969c","_rev":"1-edb77e1ab5a186398f424ec604abc6a5","Location":"Gdansk-Rebiechowo, Poland (EPGD) 54-23N 018-28E 138M","Date":"Jan 05, 2012 - 03:00 AM EST / 2012.01.05 0800 UTC","Wind":"from the S (170 degrees) at 12 MPH (10 KT) (direction variable):0","Visibility":"1 mile(s):0","Sky conditions":"mostly cloudy","Weather":"snow","Temperature":"33 F (1 C)","Windchill":"24 F (-4 C):1","Dew Point":"32 F (0 C)","Relative Humidity":"93%","Pressure (altimeter)":"28.85 in. Hg (0977 hPa)","ob":"EPGD 050800Z 17010KT 130V200 2500 SN FEW003 BKN005 01/M00 Q0977","cycle":"8"},
{"_id":"4495a8a111ec85eb6d2389a681cda56e","_rev":"1-8623d626b00a850e95b6584498641aaf","Location":"Gdansk-Rebiechowo, Poland (EPGD) 54-23N 018-28E 138M","Date":"Dec 21, 2011 - 12:00 PM EST / 2011.12.21 1700 UTC","Wind":"Calm:0","Visibility":"1 mile(s):0","Weather":"mist","Temperature":"23 F (-5 C)","Dew Point":"21 F (-6 C)","Relative Humidity":"92%","Pressure (altimeter)":"29.91 in. Hg (1013 hPa)","ob":"EPGD 211700Z 00000KT 2500 BR NSC M05/M06 Q1013 R11/190095","cycle":"17"},
{"_id":"4495a8a111ec85eb6d2389a681cdb2de","_rev":"1-397d33586495d7720eb172be8a14ac03","Location":"Gdansk-Rebiechowo, Poland (EPGD) 54-23N 018-28E 138M","Date":"Jan 14, 2012 - 11:00 AM EST / 2012.01.14 1600 UTC","Wind":"from the NW (310 degrees) at 22 MPH (19 KT):0","Visibility":"4 mile(s):0","Sky conditions":"partly cloudy","Weather":"light snow showers; low drifting snow; Towering cumulus clouds observed","Temperature":"32 F (0 C)","Windchill":"19 F (-7 C):1","Dew Point":"23 F (-5 C)","Relative Humidity":"69%","Pressure (altimeter)":"29.83 in. Hg (1010 hPa)","ob":"EPGD 141600Z 31019KT 8000 -SHSN DRSN FEW009 SCT015TCU SCT028 M00/M05 Q1010 R11/590237","cycle":"16"},
{"_id":"4495a8a111ec85eb6d2389a681cdb97b","_rev":"1-9dbdf2c813f17c99a7bf56b405f54edd","Location":"Gdansk-Rebiechowo, Poland (EPGD) 54-23N 018-28E 138M","Date":"Feb 10, 2012 - 03:00 PM EST / 2012.02.10 2000 UTC","Wind":"from the SE (130 degrees) at 5 MPH (4 KT) (direction variable):0","Visibility":"greater than 7 mile(s):0","Sky conditions":"mostly cloudy","Temperature":"10 F (-12 C)","Windchill":"1 F (-17 C):1","Dew Point":"6 F (-14 C)","Relative Humidity":"85%","Pressure (altimeter)":"30.68 in. Hg (1039 hPa)","ob":"EPGD 102000Z 13004KT 110V170 9999 BKN011 M12/M14 Q1039 R11/090095","cycle":"20"},
{"_id":"4495a8a111ec85eb6d2389a681cdc92e","_rev":"1-bc4eebac07068ab7347bf3c5ad86ba30","Location":"Gdansk-Rebiechowo, Poland (EPGD) 54-23N 018-28E 138M","Date":"Dec 19, 2011 - 02:00 AM EST / 2011.12.19 0700 UTC","Wind":"from the SW (230 degrees) at 16 MPH (14 KT) gusting to 29 MPH (25 KT) (direction variable):0","Visibility":"greater than 7 mile(s):0","Sky conditions":"mostly cloudy","Temperature":"35 F (2 C)","Windchill":"24 F (-4 C):1","Dew Point":"30 F (-1 C)","Relative Humidity":"80%","Pressure (altimeter)":"29.68 in. Hg (1005 hPa)","ob":"EPGD 190700Z 23014G25KT 190V260 9999 BKN014 02/M01 Q1005 R11/290062","cycle":"7"},
{"_id":"4495a8a111ec85eb6d2389a681cdd78b","_rev":"1-1f378c8198b49e2f1af5d91a67741c06","Location":"Gdansk-Rebiechowo, Poland (EPGD) 54-23N 018-28E 138M","Date":"Jan 05, 2012 - 08:00 AM EST / 2012.01.05 1300 UTC","Wind":"from the WSW (240 degrees) at 14 MPH (12 KT) gusting to 25 MPH (22 KT) (direction variable):0","Visibility":"greater than 7 mile(s):0","Sky conditions":"mostly cloudy","Temperature":"39 F (4 C)","Dew Point":"35 F (2 C)","Relative Humidity":"86%","Pressure (altimeter)":"28.67 in. Hg (0971 hPa)","ob":"EPGD 051300Z 24012G22KT 200V260 9999 FEW010 BKN040 04/02 Q0971","cycle":"13"},
{"_id":"4495a8a111ec85eb6d2389a681cdda88","_rev":"1-e549e7120e379d311b77a53a74c6b492","Location":"Gdansk-Rebiechowo, Poland (EPGD) 54-23N 018-28E 138M","Date":"Jan 09, 2012 - 12:00 AM EST / 2012.01.09 0500 UTC","Wind":"from the NW (310 degrees) at 14 MPH (12 KT):0","Visibility":"2 mile(s):0","Sky conditions":"mostly cloudy","Weather":"rain, snow","Temperature":"33 F (1 C)","Windchill":"23 F (-5 C):1","Dew Point":"32 F (0 C)","Relative Humidity":"93%","Pressure (altimeter)":"30.00 in. Hg (1016 hPa)","ob":"EPGD 090500Z 31012KT 4000 RASN SCT006 BKN010 01/M00 Q1016","cycle":"5"},
{"_id":"4495a8a111ec85eb6d2389a681cddc0e","_rev":"1-ba3554e6ca65931acced4e69f9865ca2","Location":"Gdansk-Rebiechowo, Poland (EPGD) 54-23N 018-28E 138M","Date":"Jan 07, 2012 - 01:00 AM EST / 2012.01.07 0600 UTC","Wind":"from the WSW (240 degrees) at 12 MPH (10 KT):0","Visibility":"3 mile(s):0","Sky conditions":"mostly cloudy","Weather":"light snow showers; Towering cumulus clouds observed","Temperature":"33 F (1 C)","Windchill":"24 F (-4 C):1","Dew Point":"32 F (0 C)","Relative Humidity":"93%","Pressure (altimeter)":"29.68 in. Hg (1005 hPa)","ob":"EPGD 070600Z 24010KT 5000 -SHSN BKN007 FEW015TCU 01/M00 Q1005 RESHSN R11/190095","cycle":"6"},
{"_id":"4495a8a111ec85eb6d2389a681cde554","_rev":"1-b5eb965f7d70d38d6841669f785a2dfc","Location":"Gdansk-Rebiechowo, Poland (EPGD) 54-23N 018-28E 138M","Date":"Jan 19, 2012 - 09:00 AM EST / 2012.01.19 1400 UTC","Wind":"from the SSW (210 degrees) at 8 MPH (7 KT) (direction variable):0","Visibility":"greater than 7 mile(s):0","Sky conditions":"mostly cloudy","Temperature":"37 F (3 C)","Dew Point":"32 F (0 C)","Relative Humidity":"80%","Pressure (altimeter)":"29.65 in. Hg (1004 hPa)","ob":"EPGD 191400Z 21007KT 180V250 9999 BKN011 03/00 Q1004 R11/290095","cycle":"14"},
{"_id":"4495a8a111ec85eb6d2389a681cdea31","_rev":"1-1fba5bcb158abbc5cf6ac5fef59d9758","Location":"Gdansk-Rebiechowo, Poland (EPGD) 54-23N 018-28E 138M","Date":"Feb 06, 2012 - 05:00 AM EST / 2012.02.06 1000 UTC","Wind":"from the E (090 degrees) at 10 MPH (9 KT):0","Visibility":"2 mile(s):0","Sky conditions":"mostly cloudy","Weather":"light snow; mist","Temperature":"12 F (-11 C)","Windchill":"0 F (-18 C):1","Dew Point":"5 F (-15 C)","Relative Humidity":"72%","Pressure (altimeter)":"30.65 in. Hg (1038 hPa)","ob":"EPGD 061000Z 09009KT 4500 -SN BR BKN007 M11/M15 Q1038 R11/490152","cycle":"10"},
{"_id":"4495a8a111ec85eb6d2389a681cdf26a","_rev":"1-c9a91f432166b32c9dbcd1b21f7c7b3c","Location":"Gdansk-Rebiechowo, Poland (EPGD) 54-23N 018-28E 138M","Date":"Jan 27, 2012 - 09:00 AM EST / 2012.01.27 1400 UTC","Wind":"from the ESE (120 degrees) at 10 MPH (9 KT) (direction variable):0","Visibility":"4 mile(s):0","Temperature":"15 F (-9 C)","Windchill":"3 F (-16 C):1","Dew Point":"10 F (-12 C)","Relative Humidity":"78%","Pressure (altimeter)":"30.47 in. Hg (1032 hPa)","ob":"EPGD 271400Z 12009KT 100V160 8000 NSC M09/M12 Q1032 R11/190095","cycle":"14"},
{"_id":"4495a8a111ec85eb6d2389a681ce00d0","_rev":"1-03727256962c4844f98eb266aeea6b88","Location":"Gdansk-Rebiechowo, Poland (EPGD) 54-23N 018-28E 138M","Date":"Feb 08, 2012 - 10:00 AM EST / 2012.02.08 1500 UTC","Wind":"from the W (260 degrees) at 5 MPH (4 KT):0","Visibility":"3 mile(s):0","Sky conditions":"mostly cloudy","Weather":"light snow","Temperature":"26 F (-3 C)","Windchill":"19 F (-7 C):1","Dew Point":"19 F (-7 C)","Relative Humidity":"73%","Pressure (altimeter)":"30.59 in. Hg (1036 hPa)","ob":"EPGD 081500Z 26004KT 6000 -SN BKN015 M03/M07 Q1036 R11/190095","cycle":"15"},
{"_id":"4495a8a111ec85eb6d2389a681ce0340","_rev":"1-b147428e232249bfa33ee1020bca20c9","Location":"Gdansk-Rebiechowo, Poland (EPGD) 54-23N 018-28E 138M","Date":"Jan 12, 2012 - 05:00 PM EST / 2012.01.12 2200 UTC","Wind":"from the W (280 degrees) at 21 MPH (18 KT):0","Visibility":"greater than 7 mile(s):0","Sky conditions":"mostly clear","Temperature":"35 F (2 C)","Windchill":"23 F (-5 C):1","Dew Point":"30 F (-1 C)","Relative Humidity":"80%","Pressure (altimeter)":"29.47 in. Hg (0998 hPa)","ob":"EPGD 122200Z 28018KT 9999 FEW020 02/M01 Q0998","cycle":"22"},
{"_id":"4495a8a111ec85eb6d2389a681ce0cb5","_rev":"1-be64a86b30c8238fa90e83a225ea83a9","Location":"Gdansk-Rebiechowo, Poland (EPGD) 54-23N 018-28E 138M","Date":"Feb 09, 2012 - 12:00 AM EST / 2012.02.09 0500 UTC","Wind":"from the E (100 degrees) at 16 MPH (14 KT):0","Visibility":"1 mile(s):0","Sky conditions":"mostly cloudy","Weather":"light snow; mist","Temperature":"17 F (-8 C)","Windchill":"1 F (-17 C):1","Dew Point":"14 F (-10 C)","Relative Humidity":"85%","Pressure (altimeter)":"30.45 in. Hg (1031 hPa)","ob":"EPGD 090500Z 10014KT 2500 -SN BR BKN006 M08/M10 Q1031 R11/490333","cycle":"5"},
{"_id":"4495a8a111ec85eb6d2389a681ce13a5","_rev":"1-8b958716be1f19854cae412a1ba51f6c","Location":"Gdansk-Rebiechowo, Poland (EPGD) 54-23N 018-28E 138M","Date":"Jan 07, 2012 - 07:00 PM EST / 2012.01.08 0000 UTC","Wind":"from the W (260 degrees) at 8 MPH (7 KT):0","Visibility":"greater than 7 mile(s):0","Sky conditions":"partly cloudy","Temperature":"37 F (3 C)","Dew Point":"35 F (2 C)","Relative Humidity":"93%","Pressure (altimeter)":"29.53 in. Hg (1000 hPa)","ob":"EPGD 080000Z 26007KT 9999 SCT013 03/02 Q1000","cycle":"0"},
{"_id":"4495a8a111ec85eb6d2389a681ce2284","_rev":"1-5f91b27bc445c39a600416d3b588ccac","Location":"Gdansk-Rebiechowo, Poland (EPGD) 54-23N 018-28E 138M","Date":"Dec 28, 2011 - 04:00 PM EST / 2011.12.28 2100 UTC","Wind":"from the SW (220 degrees) at 10 MPH (9 KT) (direction variable):0","Visibility":"greater than 7 mile(s):0","Sky conditions":"mostly cloudy","Temperature":"42 F (6 C)","Dew Point":"37 F (3 C)","Relative Humidity":"81%","Pressure (altimeter)":"29.91 in. Hg (1013 hPa)","ob":"EPGD 282100Z 22009KT 170V260 9999 BKN014 06/03 Q1013","cycle":"21"},
{"_id":"4495a8a111ec85eb6d2389a681ce2a84","_rev":"1-cbbcdaefd49b8db6fc6f3a78c0ef306f","Location":"Gdansk-Rebiechowo, Poland (EPGD) 54-23N 018-28E 138M","Date":"Feb 19, 2012 - 07:00 PM EST / 2012.02.20 0000 UTC","Wind":"from the WSW (250 degrees) at 15 MPH (13 KT):0","Visibility":"greater than 7 mile(s):0","Sky conditions":"mostly clear","Temperature":"32 F (0 C)","Windchill":"21 F (-6 C):1","Dew Point":"26 F (-3 C)","Relative Humidity":"80%","Pressure (altimeter)":"29.94 in. Hg (1014 hPa)","ob":"EPGD 200000Z 25013KT 9999 FEW019 00/M03 Q1014 R11/290095","cycle":"0"},
{"_id":"4495a8a111ec85eb6d2389a681ce2b72","_rev":"1-000e61e46f07491b0dabfd773a914f01","Location":"Gdansk-Rebiechowo, Poland (EPGD) 54-23N 018-28E 138M","Date":"Jan 15, 2012 - 11:00 AM EST / 2012.01.15 1600 UTC","Wind":"from the N (010 degrees) at 6 MPH (5 KT) (direction variable):0","Visibility":"greater than 7 mile(s):0","Sky conditions":"mostly cloudy","Weather":"light snow showers; Cumulonimbus clouds observed","Temperature":"30 F (-1 C)","Windchill":"23 F (-5 C):1","Dew Point":"28 F (-2 C)","Relative Humidity":"92%","Pressure (altimeter)":"30.09 in. Hg (1019 hPa)","ob":"EPGD 151600Z 01005KT 340V040 9999 -SHSN SCT009 BKN018CB M01/M02 Q1019 R11/590142","cycle":"16"},
{"_id":"4495a8a111ec85eb6d2389a681ce3498","_rev":"1-97649a0b109c6dba170c115af5526987","Location":"Gdansk-Rebiechowo, Poland (EPGD) 54-23N 018-28E 138M","Date":"Dec 21, 2011 - 10:00 AM EST / 2011.12.21 1500 UTC","Wind":"Calm:0","Visibility":"1 mile(s):0","Weather":"mist","Temperature":"24 F (-4 C)","Dew Point":"23 F (-5 C)","Relative Humidity":"92%","Pressure (altimeter)":"29.85 in. Hg (1011 hPa)","ob":"EPGD 211500Z 00000KT 3000 BR NSC M04/M05 Q1011 R11/190095","cycle":"15"},
{"_id":"4495a8a111ec85eb6d2389a681ce37e5","_rev":"1-77ff2e7c9928db32711c7e7b9448c511","Location":"Gdansk-Rebiechowo, Poland (EPGD) 54-23N 018-28E 138M","Date":"Dec 21, 2011 - 03:00 PM EST / 2011.12.21 2000 UTC","Wind":"Calm:0","Visibility":"1 mile(s):0","Sky conditions":"overcast","Weather":"mist","Temperature":"21 F (-6 C)","Dew Point":"19 F (-7 C)","Relative Humidity":"92%","Pressure (altimeter)":"29.97 in. Hg (1015 hPa)","ob":"EPGD 212000Z 00000KT 2000 BR OVC023 M06/M07 Q1015 R11/190095","cycle":"20"},
{"_id":"4495a8a111ec85eb6d2389a681ce3a27","_rev":"1-8aaf22c877084cd881886cccaa85d041","Location":"Gdansk-Rebiechowo, Poland (EPGD) 54-23N 018-28E 138M","Date":"Feb 03, 2012 - 02:00 AM EST / 2012.02.03 0700 UTC","Wind":"from the WSW (240 degrees) at 7 MPH (6 KT):0","Visibility":"1 mile(s):0","Weather":"mist","Temperature":"0 F (-18 C)","Windchill":"-13 F (-25 C):2","Dew Point":"-5 F (-21 C)","Relative Humidity":"77%","Pressure (altimeter)":"30.47 in. Hg (1032 hPa)","ob":"EPGD 030700Z 24006KT 3000 BR NSC M18/M21 Q1032 R11/190095","cycle":"7"},
{"_id":"4495a8a111ec85eb6d2389a681ce3d18","_rev":"1-6b6c16e17e2c191b45d623abad87204a","Location":"Gdansk-Rebiechowo, Poland (EPGD) 54-23N 018-28E 138M","Date":"Feb 02, 2012 - 02:00 PM EST / 2012.02.02 1900 UTC","Wind":"from the SE (130 degrees) at 1 MPH (1 KT):0","Visibility":"1 mile(s):0","Weather":"mist","Temperature":"-2 F (-19 C)","Dew Point":"-7 F (-22 C)","Relative Humidity":"77%","Pressure (altimeter)":"30.53 in. Hg (1034 hPa)","ob":"EPGD 021900Z 13001KT 3000 BR NSC M19/M22 Q1034 R11/190095","cycle":"19"},
{"_id":"4495a8a111ec85eb6d2389a681ce3e3f","_rev":"1-3273cf43980d19b1fe0a43b4cbcbc4f0","Location":"Gdansk-Rebiechowo, Poland (EPGD) 54-23N 018-28E 138M","Date":"Jan 24, 2012 - 12:00 AM EST / 2012.01.24 0500 UTC","Wind":"from the NW (320 degrees) at 3 MPH (3 KT):0","Visibility":"greater than 7 mile(s):0","Sky conditions":"mostly cloudy","Weather":"light snow","Temperature":"32 F (0 C)","Dew Point":"30 F (-1 C)","Relative Humidity":"92%","Pressure (altimeter)":"29.85 in. Hg (1011 hPa)","ob":"EPGD 240500Z 32003KT 9999 -SN BKN010 00/M01 Q1011 R11/690252","cycle":"5"},
{"_id":"4495a8a111ec85eb6d2389a681ce4dc7","_rev":"1-fdad2f53b608cb72c85711e88fc76b6c","Location":"Gdansk-Rebiechowo, Poland (EPGD) 54-23N 018-28E 138M","Date":"Jan 07, 2012 - 11:00 PM EST / 2012.01.08 0400 UTC","Wind":"from the W (270 degrees) at 10 MPH (9 KT):0","Visibility":"greater than 7 mile(s):0","Sky conditions":"mostly cloudy","Temperature":"39 F (4 C)","Dew Point":"37 F (3 C)","Relative Humidity":"93%","Pressure (altimeter)":"29.59 in. Hg (1002 hPa)","ob":"EPGD 080400Z 27009KT 9999 BKN011 04/03 Q1002","cycle":"4"},
{"_id":"4495a8a111ec85eb6d2389a681ce5bb0","_rev":"1-3f9534e568af355e7f189864f5330831","Location":"Gdansk-Rebiechowo, Poland (EPGD) 54-23N 018-28E 138M","Date":"Dec 20, 2011 - 12:00 AM EST / 2011.12.20 0500 UTC","Wind":"from the SW (220 degrees) at 5 MPH (4 KT) (direction variable):0","Visibility":"greater than 7 mile(s):0","Sky conditions":"mostly cloudy","Temperature":"33 F (1 C)","Windchill":"28 F (-2 C):1","Dew Point":"30 F (-1 C)","Relative Humidity":"86%","Pressure (altimeter)":"29.88 in. Hg (1012 hPa)","ob":"EPGD 200500Z 22004KT 180V280 9999 BKN009 01/M01 Q1012 R11/290095","cycle":"5"},
{"_id":"4495a8a111ec85eb6d2389a681ce5be6","_rev":"1-ee57917b742dfe4037899f2f7795fd28","Location":"Gdansk-Rebiechowo, Poland (EPGD) 54-23N 018-28E 138M","Date":"Feb 05, 2012 - 04:00 PM EST / 2012.02.05 2100 UTC","Wind":"from the WNW (290 degrees) at 2 MPH (2 KT):0","Visibility":"3 mile(s):0","Weather":"mist","Temperature":"-11 F (-24 C)","Dew Point":"-16 F (-27 C)","Relative Humidity":"76%","Pressure (altimeter)":"30.71 in. Hg (1040 hPa)","ob":"EPGD 052100Z 29002KT 5000 BR NSC M24/M27 Q1040 R11/190095","cycle":"21"},
{"_id":"4495a8a111ec85eb6d2389a681ce6a4d","_rev":"1-d9ebd22224adb3114bd5313dddbcc139","Location":"Gdansk-Rebiechowo, Poland (EPGD) 54-23N 018-28E 138M","Date":"Jan 08, 2012 - 02:00 PM EST / 2012.01.08 1900 UTC","Wind":"from the W (280 degrees) at 8 MPH (7 KT):0","Visibility":"4 mile(s):0","Sky conditions":"mostly cloudy","Temperature":"35 F (2 C)","Windchill":"28 F (-2 C):1","Dew Point":"33 F (1 C)","Relative Humidity":"93%","Pressure (altimeter)":"29.83 in. Hg (1010 hPa)","ob":"EPGD 081900Z 28007KT 8000 BKN007 02/01 Q1010","cycle":"19"},
{"_id":"4495a8a111ec85eb6d2389a681ce6ac6","_rev":"1-15604280e40c8d047683bc34e2434992","Location":"Gdansk-Rebiechowo, Poland (EPGD) 54-23N 018-28E 138M","Date":"Jan 03, 2012 - 02:00 AM EST / 2012.01.03 0700 UTC","Wind":"from the WSW (250 degrees) at 9 MPH (8 KT) (direction variable):0","Visibility":"greater than 7 mile(s):0","Sky conditions":"partly cloudy","Temperature":"39 F (4 C)","Dew Point":"33 F (1 C)","Relative Humidity":"80%","Pressure (altimeter)":"29.91 in. Hg (1013 hPa)","ob":"EPGD 030700Z 25008KT 190V280 9999 FEW017 SCT042 04/01 Q1013","cycle":"7"},
{"_id":"4495a8a111ec85eb6d2389a681ce7694","_rev":"1-012f81417f7b216280c9b03882508893","Location":"Gdansk-Rebiechowo, Poland (EPGD) 54-23N 018-28E 138M","Date":"Jan 09, 2012 - 08:00 PM EST / 2012.01.10 0100 UTC","Wind":"from the SSE (150 degrees) at 5 MPH (4 KT) (direction variable):0","Visibility":"1 mile(s):0","Sky conditions":"mostly cloudy","Weather":"snow","Temperature":"30 F (-1 C)","Windchill":"24 F (-4 C):1","Dew Point":"28 F (-2 C)","Relative Humidity":"92%","Pressure (altimeter)":"30.00 in. Hg (1016 hPa)","ob":"EPGD 100100Z 15004KT 080V180 2000 SN SCT005 BKN030 M01/M02 Q1016 R11/290095","cycle":"1"},
{"_id":"4495a8a111ec85eb6d2389a681ce7ec1","_rev":"1-8065cccca09b733933b79e3617e03ee0","Location":"Gdansk-Rebiechowo, Poland (EPGD) 54-23N 018-28E 138M","Date":"Feb 18, 2012 - 06:00 PM EST / 2012.02.18 2300 UTC","Wind":"from the S (180 degrees) at 7 MPH (6 KT) (direction variable):0","Visibility":"4 mile(s):0","Sky conditions":"mostly cloudy","Temperature":"35 F (2 C)","Windchill":"28 F (-2 C):1","Dew Point":"33 F (1 C)","Relative Humidity":"93%","Pressure (altimeter)":"29.71 in. Hg (1006 hPa)","ob":"EPGD 182300Z 18006KT 140V220 8000 FEW005 BKN007 02/01 Q1006 R11/290095","cycle":"23"},
{"_id":"4495a8a111ec85eb6d2389a681ce89b8","_rev":"1-721271e8fc2acc1debdb8526a05785c4","Location":"Gdansk-Rebiechowo, Poland (EPGD) 54-23N 018-28E 138M","Date":"Jan 14, 2012 - 03:00 PM EST / 2012.01.14 2000 UTC","Wind":"from the NNW (340 degrees) at 20 MPH (17 KT):0","Visibility":"greater than 7 mile(s):0","Sky conditions":"partly cloudy","Temperature":"32 F (0 C)","Windchill":"19 F (-7 C):1","Dew Point":"21 F (-6 C)","Relative Humidity":"63%","Pressure (altimeter)":"29.88 in. Hg (1012 hPa)","ob":"EPGD 142000Z 34017KT 9999 SCT036 00/M06 Q1012 R11/590239","cycle":"20"},
{"_id":"4495a8a111ec85eb6d2389a681ce907a","_rev":"1-69f28e5d9dec0210cf9bd91aa1b51770","Location":"Gdansk-Rebiechowo, Poland (EPGD) 54-23N 018-28E 138M","Date":"Jan 29, 2012 - 04:00 AM EST / 2012.01.29 0900 UTC","Wind":"from the ESE (120 degrees) at 12 MPH (10 KT):0","Visibility":"greater than 7 mile(s):0","Temperature":"10 F (-12 C)","Windchill":"-4 F (-20 C):1","Dew Point":"1 F (-17 C)","Relative Humidity":"66%","Pressure (altimeter)":"30.74 in. Hg (1041 hPa)","ob":"EPGD 290900Z 12010KT CAVOK M12/M17 Q1041 R11/190095","cycle":"9"},
{"_id":"4495a8a111ec85eb6d2389a681ce916d","_rev":"1-ec7252a822bed4f0841d8107fed7efaf","Location":"Gdansk-Rebiechowo, Poland (EPGD) 54-23N 018-28E 138M","Date":"Feb 01, 2012 - 01:00 AM EST / 2012.02.01 0600 UTC","Wind":"Calm:0","Visibility":"4 mile(s):0","Sky conditions":"mostly cloudy","Weather":"light snow","Temperature":"0 F (-18 C)","Dew Point":"-4 F (-20 C)","Relative Humidity":"84%","Pressure (altimeter)":"30.71 in. Hg (1040 hPa)","ob":"EPGD 010600Z 00000KT 8000 -SN FEW004 BKN007 M18/M20 Q1040 R11/190095","cycle":"6"},
{"_id":"4495a8a111ec85eb6d2389a681ce9285","_rev":"1-d9357b4ee2f1347edb95e4cabad64f18","Location":"Gdansk-Rebiechowo, Poland (EPGD) 54-23N 018-28E 138M","Date":"Feb 09, 2012 - 12:00 PM EST / 2012.02.09 1700 UTC","Wind":"from the E (080 degrees) at 8 MPH (7 KT):0","Visibility":"greater than 7 mile(s):0","Sky conditions":"mostly cloudy","Weather":"light snow","Temperature":"17 F (-8 C)","Windchill":"6 F (-14 C):1","Dew Point":"14 F (-10 C)","Relative Humidity":"85%","Pressure (altimeter)":"30.65 in. Hg (1038 hPa)","ob":"EPGD 091700Z 08007KT 9999 -SN BKN013 M08/M10 Q1038 R11/490295","cycle":"17"},
{"_id":"4495a8a111ec85eb6d2389a681ce96f9","_rev":"1-ca1a57c8d3dc1b7db02e924edb5323af","Location":"Gdansk-Rebiechowo, Poland (EPGD) 54-23N 018-28E 138M","Date":"Jan 22, 2012 - 05:00 PM EST / 2012.01.22 2200 UTC","Wind":"from the WSW (240 degrees) at 3 MPH (3 KT) (direction variable):0","Visibility":"greater than 7 mile(s):0","Sky conditions":"mostly cloudy","Temperature":"32 F (0 C)","Dew Point":"30 F (-1 C)","Relative Humidity":"92%","Pressure (altimeter)":"29.32 in. Hg (0993 hPa)","ob":"EPGD 222200Z 24003KT 200V260 9999 BKN010 00/M01 Q0993 R11/290066","cycle":"22"},
{"_id":"4495a8a111ec85eb6d2389a681cea1d4","_rev":"1-d93cfa6379950882e6156f9bf24ddd67","Location":"Gdansk-Rebiechowo, Poland (EPGD) 54-23N 018-28E 138M","Date":"Jan 02, 2012 - 09:00 AM EST / 2012.01.02 1400 UTC","Wind":"from the W (280 degrees) at 10 MPH (9 KT):0","Visibility":"greater than 7 mile(s):0","Sky conditions":"partly cloudy","Temperature":"46 F (8 C)","Dew Point":"42 F (6 C)","Relative Humidity":"87%","Pressure (altimeter)":"29.62 in. Hg (1003 hPa)","ob":"EPGD 021400Z 28009KT 9999 SCT013 SCT033 08/06 Q1003","cycle":"14"},
{"_id":"4495a8a111ec85eb6d2389a681cea6b0","_rev":"1-0ef9ce72f39b0056ef745aa84d5f84b4","Location":"Gdansk-Rebiechowo, Poland (EPGD) 54-23N 018-28E 138M","Date":"Jan 18, 2012 - 03:00 AM EST / 2012.01.18 0800 UTC","Wind":"from the WNW (290 degrees) at 9 MPH (8 KT):0","Visibility":"3 mile(s):0","Sky conditions":"mostly cloudy","Weather":"light drizzle; mist","Temperature":"33 F (1 C)","Windchill":"24 F (-4 C):1","Dew Point":"32 F (0 C)","Relative Humidity":"93%","Pressure (altimeter)":"30.18 in. Hg (1022 hPa)","ob":"EPGD 180800Z 29008KT 5000 -DZ BR BKN007 01/00 Q1022 R11/290095","cycle":"8"},
{"_id":"4495a8a111ec85eb6d2389a681ceb253","_rev":"1-c2b2fca702bc5fe9559434c3b45dd0a5","Location":"Gdansk-Rebiechowo, Poland (EPGD) 54-23N 018-28E 138M","Date":"Feb 18, 2012 - 04:00 PM EST / 2012.02.18 2100 UTC","Wind":"from the S (190 degrees) at 10 MPH (9 KT) (direction variable):0","Visibility":"4 mile(s):0","Sky conditions":"mostly cloudy","Weather":"light rain","Temperature":"35 F (2 C)","Windchill":"26 F (-3 C):1","Dew Point":"32 F (0 C)","Relative Humidity":"86%","Pressure (altimeter)":"29.77 in. Hg (1008 hPa)","ob":"EPGD 182100Z 19009KT 160V230 8000 -RA BKN007 02/00 Q1008 R11/290095","cycle":"21"},
{"_id":"4495a8a111ec85eb6d2389a681cebbcf","_rev":"1-87c15c8435eeb14c08e1a5c04af193f7","Location":"Gdansk-Rebiechowo, Poland (EPGD) 54-23N 018-28E 138M","Date":"Dec 13, 2011 - 07:00 PM EST / 2011.12.14 0000 UTC","Wind":"from the SSW (210 degrees) at 12 MPH (10 KT) (direction variable):0","Visibility":"greater than 7 mile(s):0","Sky conditions":"mostly cloudy","Temperature":"41 F (5 C)","Dew Point":"37 F (3 C)","Relative Humidity":"86%","Pressure (altimeter)":"29.53 in. Hg (1000 hPa)","ob":"EPGD 140000Z 21010KT 170V240 9999 BKN007 05/03 Q1000","cycle":"0"},
{"_id":"4495a8a111ec85eb6d2389a681cebfc4","_rev":"1-c99626daf6da8057d0b5d21078e8d935","Location":"Gdansk-Rebiechowo, Poland (EPGD) 54-23N 018-28E 138M","Date":"Jan 10, 2012 - 01:00 PM EST / 2012.01.10 1800 UTC","Wind":"from the WNW (290 degrees) at 6 MPH (5 KT):0","Visibility":"3 mile(s):0","Sky conditions":"mostly cloudy","Weather":"mist","Temperature":"33 F (1 C)","Windchill":"26 F (-3 C):1","Dew Point":"32 F (0 C)","Relative Humidity":"93%","Pressure (altimeter)":"30.24 in. Hg (1024 hPa)","ob":"EPGD 101800Z 29005KT 5000 BR BKN014 01/00 Q1024 R11/290060","cycle":"18"},
{"_id":"4495a8a111ec85eb6d2389a681cec6ab","_rev":"1-ff8a60623c2107a31eed4c1e0bba01bc","Location":"Gdansk-Rebiechowo, Poland (EPGD) 54-23N 018-28E 138M","Date":"Jan 04, 2012 - 06:00 AM EST / 2012.01.04 1100 UTC","Wind":"from the WSW (240 degrees) at 20 MPH (17 KT) gusting to 39 MPH (34 KT):0","Visibility":"greater than 7 mile(s):0","Sky conditions":"mostly cloudy","Temperature":"41 F (5 C)","Dew Point":"30 F (-1 C)","Relative Humidity":"65%","Pressure (altimeter)":"29.41 in. Hg (0996 hPa)","ob":"EPGD 041100Z 24017G34KT 9999 BKN030 05/M01 Q0996","cycle":"11"},
{"_id":"4495a8a111ec85eb6d2389a681ced045","_rev":"1-337edcdf472c7b908328edb3cc034bea","Location":"Gdansk-Rebiechowo, Poland (EPGD) 54-23N 018-28E 138M","Date":"Jan 02, 2012 - 02:00 AM EST / 2012.01.02 0700 UTC","Wind":"from the SSW (200 degrees) at 10 MPH (9 KT) (direction variable):0","Visibility":"1 mile(s):0","Sky conditions":"mostly cloudy","Weather":"mist","Temperature":"48 F (9 C)","Dew Point":"46 F (8 C)","Relative Humidity":"93%","Pressure (altimeter)":"29.56 in. Hg (1001 hPa)","ob":"EPGD 020700Z 20009KT 170V230 3000 BR BKN006 09/08 Q1001","cycle":"7"},
{"_id":"4495a8a111ec85eb6d2389a681cedff1","_rev":"1-f256ef30ddf887f74ab8c5407b2d79d9","Location":"Gdansk-Rebiechowo, Poland (EPGD) 54-23N 018-28E 138M","Date":"Jan 04, 2012 - 08:00 AM EST / 2012.01.04 1300 UTC","Wind":"from the WSW (240 degrees) at 21 MPH (18 KT) (direction variable):0","Visibility":"greater than 7 mile(s):0","Sky conditions":"mostly cloudy","Temperature":"41 F (5 C)","Dew Point":"30 F (-1 C)","Relative Humidity":"65%","Pressure (altimeter)":"29.41 in. Hg (0996 hPa)","ob":"EPGD 041300Z 24018KT 210V270 9999 BKN033 05/M01 Q0996","cycle":"13"},
{"_id":"4495a8a111ec85eb6d2389a681ceedb8","_rev":"1-a9c07a42fce59dba932dbd1820673e5d","Location":"Gdansk-Rebiechowo, Poland (EPGD) 54-23N 018-28E 138M","Date":"Feb 16, 2012 - 04:00 AM EST / 2012.02.16 0900 UTC","Wind":"from the ENE (070 degrees) at 5 MPH (4 KT):0","Visibility":"greater than 7 mile(s):0","Sky conditions":"mostly cloudy","Temperature":"28 F (-2 C)","Windchill":"23 F (-5 C):1","Dew Point":"23 F (-5 C)","Relative Humidity":"79%","Pressure (altimeter)":"29.94 in. Hg (1014 hPa)","ob":"EPGD 160900Z 07004KT 9999 BKN012 M02/M05 Q1014 R11/490075","cycle":"9"},
{"_id":"4495a8a111ec85eb6d2389a681cefa13","_rev":"1-1c55d6abaec7ba413655ef0dcc2ab3b4","Location":"Gdansk-Rebiechowo, Poland (EPGD) 54-23N 018-28E 138M","Date":"Jan 02, 2012 - 06:00 PM EST / 2012.01.02 2300 UTC","Wind":"from the W (270 degrees) at 9 MPH (8 KT):0","Visibility":"greater than 7 mile(s):0","Sky conditions":"mostly cloudy","Temperature":"42 F (6 C)","Dew Point":"39 F (4 C)","Relative Humidity":"86%","Pressure (altimeter)":"29.77 in. Hg (1008 hPa)","ob":"EPGD 022300Z 27008KT 9999 BKN014 06/04 Q1008","cycle":"23"},
{"_id":"4495a8a111ec85eb6d2389a681ceffb6","_rev":"1-cee42b20bb24ee15f907aaf1a33c822f","Location":"Gdansk-Rebiechowo, Poland (EPGD) 54-23N 018-28E 138M","Date":"Jan 11, 2012 - 05:00 AM EST / 2012.01.11 1000 UTC","Wind":"from the WSW (250 degrees) at 13 MPH (11 KT) (direction variable):0","Visibility":"greater than 7 mile(s):0","Sky conditions":"mostly cloudy","Temperature":"41 F (5 C)","Dew Point":"35 F (2 C)","Relative Humidity":"80%","Pressure (altimeter)":"30.03 in. Hg (1017 hPa)","ob":"EPGD 111000Z 25011KT 220V280 9999 BKN015 05/02 Q1017 R11/290095","cycle":"10"},
{"_id":"4495a8a111ec85eb6d2389a681cf081e","_rev":"1-b3a49812cc1e6ff376de86a9f95c3b24","Location":"Gdansk-Rebiechowo, Poland (EPGD) 54-23N 018-28E 138M","Date":"Dec 22, 2011 - 09:00 AM EST / 2011.12.22 1400 UTC","Wind":"from the SW (220 degrees) at 7 MPH (6 KT) (direction variable):0","Visibility":"1 mile(s):0","Sky conditions":"mostly clear","Weather":"mist","Temperature":"24 F (-4 C)","Windchill":"15 F (-9 C):1","Dew Point":"21 F (-6 C)","Relative Humidity":"85%","Pressure (altimeter)":"30.09 in. Hg (1019 hPa)","ob":"EPGD 221400Z 22006KT 190V260 3000 BR FEW006 M04/M06 Q1019","cycle":"14"},
{"_id":"4495a8a111ec85eb6d2389a681cf146d","_rev":"1-42d414335186c3d244c3741624b7ed7b","Location":"Gdansk-Rebiechowo, Poland (EPGD) 54-23N 018-28E 138M","Date":"Jan 11, 2012 - 02:00 AM EST / 2012.01.11 0700 UTC","Wind":"from the WSW (240 degrees) at 10 MPH (9 KT) (direction variable):0","Visibility":"2 mile(s):0","Sky conditions":"mostly cloudy","Weather":"light drizzle; mist","Temperature":"37 F (3 C)","Dew Point":"35 F (2 C)","Relative Humidity":"93%","Pressure (altimeter)":"30.09 in. Hg (1019 hPa)","ob":"EPGD 110700Z 24009KT 200V270 4000 -DZ BR BKN007 03/02 Q1019 R11/290060","cycle":"7"},
{"_id":"4495a8a111ec85eb6d2389a681cf1ca0","_rev":"1-59a0bdea064b3d0059824ed24cc2b55f","Location":"Gdansk-Rebiechowo, Poland (EPGD) 54-23N 018-28E 138M","Date":"Jan 13, 2012 - 03:00 PM EST / 2012.01.13 2000 UTC","Wind":"from the NW (310 degrees) at 24 MPH (21 KT) gusting to 36 MPH (31 KT):0","Visibility":"greater than 7 mile(s):0","Sky conditions":"partly cloudy","Weather":"Cumulonimbus clouds observed","Temperature":"33 F (1 C)","Windchill":"19 F (-7 C):1","Dew Point":"24 F (-4 C)","Relative Humidity":"69%","Pressure (altimeter)":"29.53 in. Hg (1000 hPa)","ob":"EPGD 132000Z 31021G31KT 9999 FEW021CB SCT024 01/M04 Q1000 R11/590195","cycle":"20"},
{"_id":"4495a8a111ec85eb6d2389a681cf2a53","_rev":"1-b301d0e24984eef9e82b4caa04852706","Location":"Gdansk-Rebiechowo, Poland (EPGD) 54-23N 018-28E 138M","Date":"Feb 19, 2012 - 05:00 PM EST / 2012.02.19 2200 UTC","Wind":"from the W (260 degrees) at 17 MPH (15 KT):0","Visibility":"greater than 7 mile(s):0","Sky conditions":"mostly clear","Temperature":"33 F (1 C)","Windchill":"23 F (-5 C):1","Dew Point":"28 F (-2 C)","Relative Humidity":"80%","Pressure (altimeter)":"29.88 in. Hg (1012 hPa)","ob":"EPGD 192200Z 26015KT 9999 FEW021 01/M02 Q1012 R11/290095","cycle":"22"},
{"_id":"4495a8a111ec85eb6d2389a681cf2fc2","_rev":"1-1c01ba65c6c696306773574c6eeeaccf","Location":"Gdansk-Rebiechowo, Poland (EPGD) 54-23N 018-28E 138M","Date":"Dec 24, 2011 - 08:00 AM EST / 2011.12.24 1300 UTC","Wind":"from the WSW (240 degrees) at 5 MPH (4 KT) (direction variable):0","Visibility":"1 mile(s):0","Sky conditions":"mostly cloudy","Weather":"light rain; mist","Temperature":"41 F (5 C)","Dew Point":"39 F (4 C)","Relative Humidity":"93%","Pressure (altimeter)":"29.74 in. Hg (1007 hPa)","ob":"EPGD 241300Z 24004KT 210V270 2500 -RA BR BKN002 05/04 Q1007","cycle":"13"},
{"_id":"4495a8a111ec85eb6d2389a681cf3d81","_rev":"1-27d50ac729acd09d2226bcc4d9f15396","Location":"Gdansk-Rebiechowo, Poland (EPGD) 54-23N 018-28E 138M","Date":"Dec 15, 2011 - 04:00 AM EST / 2011.12.15 0900 UTC","Wind":"from the SW (220 degrees) at 14 MPH (12 KT) gusting to 25 MPH (22 KT) (direction variable):0","Visibility":"greater than 7 mile(s):0","Sky conditions":"mostly clear","Temperature":"39 F (4 C)","Dew Point":"33 F (1 C)","Relative Humidity":"80%","Pressure (altimeter)":"29.62 in. Hg (1003 hPa)","ob":"EPGD 150900Z 22012G22KT 190V260 9999 FEW011 04/01 Q1003","cycle":"9"},
{"_id":"4495a8a111ec85eb6d2389a681cf41aa","_rev":"1-4ad749e5f0d79afe907d3e6ce22c8983","Location":"Gdansk-Rebiechowo, Poland (EPGD) 54-23N 018-28E 138M","Date":"Feb 15, 2012 - 03:00 PM EST / 2012.02.15 2000 UTC","Wind":"from the NNE (030 degrees) at 12 MPH (10 KT) (direction variable):0","Visibility":"2 mile(s):0","Sky conditions":"mostly cloudy","Weather":"mist","Temperature":"26 F (-3 C)","Windchill":"15 F (-9 C):1","Dew Point":"21 F (-6 C)","Relative Humidity":"79%","Pressure (altimeter)":"29.50 in. Hg (0999 hPa)","ob":"EPGD 152000Z 03010KT 330V060 4000 BR BKN016 M03/M06 Q0999 R11/490339","cycle":"20"},
{"_id":"4495a8a111ec85eb6d2389a681cf43ab","_rev":"1-f3dda3d83041563ccd33128f464494ca","Location":"Gdansk-Rebiechowo, Poland (EPGD) 54-23N 018-28E 138M","Date":"Feb 16, 2012 - 12:00 PM EST / 2012.02.16 1700 UTC","Wind":"from the SE (140 degrees) at 3 MPH (3 KT):0","Visibility":"greater than 7 mile(s):0","Sky conditions":"partly cloudy","Temperature":"26 F (-3 C)","Dew Point":"21 F (-6 C)","Relative Humidity":"79%","Pressure (altimeter)":"30.00 in. Hg (1016 hPa)","ob":"EPGD 161700Z 14003KT 9999 SCT023 M03/M06 Q1016 R11/190095","cycle":"17"},
{"_id":"4495a8a111ec85eb6d2389a681cf446d","_rev":"1-2bf15b0151144eb20842449245121f62","Location":"Gdansk-Rebiechowo, Poland (EPGD) 54-23N 018-28E 138M","Date":"Jan 07, 2012 - 10:00 PM EST / 2012.01.08 0300 UTC","Wind":"from the W (270 degrees) at 8 MPH (7 KT):0","Visibility":"greater than 7 mile(s):0","Sky conditions":"mostly cloudy","Temperature":"39 F (4 C)","Dew Point":"37 F (3 C)","Relative Humidity":"93%","Pressure (altimeter)":"29.56 in. Hg (1001 hPa)","ob":"EPGD 080300Z 27007KT 9999 BKN009 04/03 Q1001","cycle":"3"},
{"_id":"4495a8a111ec85eb6d2389a681cf52fb","_rev":"1-15174e5d6376a9658fb311d25af2f58c","Location":"Gdansk-Rebiechowo, Poland (EPGD) 54-23N 018-28E 138M","Date":"Jan 16, 2012 - 11:00 AM EST / 2012.01.16 1600 UTC","Wind":"from the W (280 degrees) at 2 MPH (2 KT):0","Visibility":"greater than 7 mile(s):0","Temperature":"24 F (-4 C)","Dew Point":"21 F (-6 C)","Relative Humidity":"85%","Pressure (altimeter)":"30.12 in. Hg (1020 hPa)","ob":"EPGD 161600Z 28002KT CAVOK M04/M06 Q1020 R11/190095","cycle":"16"},
{"_id":"4495a8a111ec85eb6d2389a681cf5b76","_rev":"1-ea3f2ba64a6c9db614a97757769d6b97","Location":"Gdansk-Rebiechowo, Poland (EPGD) 54-23N 018-28E 138M","Date":"Feb 08, 2012 - 04:00 AM EST / 2012.02.08 0900 UTC","Wind":"from the W (270 degrees) at 2 MPH (2 KT):0","Visibility":"2 mile(s):0","Sky conditions":"partly cloudy","Weather":"mist","Temperature":"17 F (-8 C)","Dew Point":"14 F (-10 C)","Relative Humidity":"85%","Pressure (altimeter)":"30.74 in. Hg (1041 hPa)","ob":"EPGD 080900Z 27002KT 4000 BR SCT046 M08/M10 Q1041 R11/490143","cycle":"9"},
{"_id":"4495a8a111ec85eb6d2389a681cf6ab5","_rev":"1-782febbfd1a8c11783410df7b32b224a","Location":"Gdansk-Rebiechowo, Poland (EPGD) 54-23N 018-28E 138M","Date":"Jan 23, 2012 - 02:00 AM EST / 2012.01.23 0700 UTC","Wind":"from the WNW (290 degrees) at 8 MPH (7 KT):0","Visibility":"greater than 7 mile(s):0","Sky conditions":"mostly cloudy","Temperature":"33 F (1 C)","Windchill":"26 F (-3 C):1","Dew Point":"32 F (0 C)","Relative Humidity":"93%","Pressure (altimeter)":"29.50 in. Hg (0999 hPa)","ob":"EPGD 230700Z 29007KT 9999 BKN007 01/M00 Q0999","cycle":"7"},
{"_id":"4495a8a111ec85eb6d2389a681cf7975","_rev":"1-11269095664f8e8b71667197b18f4a52","Location":"Gdansk-Rebiechowo, Poland (EPGD) 54-23N 018-28E 138M","Date":"Jan 16, 2012 - 08:00 PM EST / 2012.01.17 0100 UTC","Wind":"Calm (direction variable):0","Visibility":"less than 1 mile:0","Sky conditions":"mostly cloudy","Weather":"freezing fog","Temperature":"28 F (-2 C)","Dew Point":"26 F (-3 C)","Relative Humidity":"92%","Pressure (altimeter)":"30.09 in. Hg (1019 hPa)","ob":"EPGD 170100Z 00000KT 0900 R29/1300V2000 FZFG BKN021 M02/M03 Q1019 R11/190095","cycle":"1"},
{"_id":"4495a8a111ec85eb6d2389a681cf7cee","_rev":"1-16e98b11b937d3de5164d18053d70af8","Location":"Gdansk-Rebiechowo, Poland (EPGD) 54-23N 018-28E 138M","Date":"Jan 05, 2012 - 02:00 AM EST / 2012.01.05 0700 UTC","Wind":"from the S (180 degrees) at 14 MPH (12 KT) (direction variable):0","Visibility":"greater than 7 mile(s):0","Sky conditions":"mostly cloudy","Weather":"light rain","Temperature":"35 F (2 C)","Windchill":"26 F (-3 C):1","Dew Point":"32 F (0 C)","Relative Humidity":"86%","Pressure (altimeter)":"28.91 in. Hg (0979 hPa)","ob":"EPGD 050700Z 18012KT 130V210 9999 -RA SCT007 BKN013 02/00 Q0979","cycle":"7"},
{"_id":"4495a8a111ec85eb6d2389a681cf8836","_rev":"1-5411a1f5353b4609f1ca605f93369195","Location":"Gdansk-Rebiechowo, Poland (EPGD) 54-23N 018-28E 138M","Date":"Jan 17, 2012 - 11:00 PM EST / 2012.01.18 0400 UTC","Wind":"from the W (270 degrees) at 7 MPH (6 KT):0","Visibility":"3 mile(s):0","Sky conditions":"mostly cloudy","Weather":"light drizzle","Temperature":"33 F (1 C)","Windchill":"26 F (-3 C):1","Dew Point":"32 F (0 C)","Relative Humidity":"93%","Pressure (altimeter)":"30.18 in. Hg (1022 hPa)","ob":"EPGD 180400Z 27006KT 6000 -DZ BKN005 01/00 Q1022 R11/290095","cycle":"4"},
{"_id":"4495a8a111ec85eb6d2389a681cf8887","_rev":"1-c857730fa0e6a676e65fe53819da8d6d","Location":"Gdansk-Rebiechowo, Poland (EPGD) 54-23N 018-28E 138M","Date":"Jan 10, 2012 - 07:00 AM EST / 2012.01.10 1200 UTC","Wind":"Calm:0","Visibility":"1 mile(s):0","Sky conditions":"mostly cloudy","Weather":"mist","Temperature":"32 F (0 C)","Dew Point":"32 F (0 C)","Relative Humidity":"100%","Pressure (altimeter)":"30.15 in. Hg (1021 hPa)","ob":"EPGD 101200Z 00000KT 2000 BR BKN003 00/M00 Q1021 R11/290060","cycle":"12"},
{"_id":"4495a8a111ec85eb6d2389a681cf9367","_rev":"1-e8fdd788f841246c163973fc60a02d14","Location":"Gdansk-Rebiechowo, Poland (EPGD) 54-23N 018-28E 138M","Date":"Jan 01, 2012 - 12:00 AM EST / 2012.01.01 0500 UTC","Wind":"from the SSE (160 degrees) at 3 MPH (3 KT) (direction variable):0","Visibility":"greater than 7 mile(s):0","Sky conditions":"mostly cloudy","Temperature":"28 F (-2 C)","Dew Point":"24 F (-4 C)","Relative Humidity":"86%","Pressure (altimeter)":"29.88 in. Hg (1012 hPa)","ob":"EPGD 010500Z 16003KT 110V200 9999 BKN021 M02/M04 Q1012","cycle":"5"},
{"_id":"4495a8a111ec85eb6d2389a681cf9eed","_rev":"1-e53d50fff92dc48888b321bcb7ff3db1","Location":"Gdansk-Rebiechowo, Poland (EPGD) 54-23N 018-28E 138M","Date":"Dec 24, 2011 - 02:00 PM EST / 2011.12.24 1900 UTC","Wind":"from the NW (310 degrees) at 17 MPH (15 KT):0","Visibility":"greater than 7 mile(s):0","Sky conditions":"mostly cloudy","Weather":"light rain","Temperature":"39 F (4 C)","Dew Point":"37 F (3 C)","Relative Humidity":"93%","Pressure (altimeter)":"29.88 in. Hg (1012 hPa)","ob":"EPGD 241900Z 31015KT 9999 -RA BKN007 04/03 Q1012","cycle":"19"},
{"_id":"4495a8a111ec85eb6d2389a681cfa396","_rev":"1-e8eb9cf6c84f206056172e6ab73a3c56","Location":"Gdansk-Rebiechowo, Poland (EPGD) 54-23N 018-28E 138M","Date":"Feb 06, 2012 - 10:00 PM EST / 2012.02.07 0300 UTC","Wind":"from the ENE (060 degrees) at 3 MPH (3 KT) (direction variable):0","Visibility":"2 mile(s):0","Sky conditions":"mostly cloudy","Weather":"mist","Temperature":"12 F (-11 C)","Dew Point":"8 F (-13 C)","Relative Humidity":"85%","Pressure (altimeter)":"30.65 in. Hg (1038 hPa)","ob":"EPGD 070300Z 06003KT 030V090 4000 BR BKN007 M11/M13 Q1038 R11/490152","cycle":"3"},
{"_id":"4495a8a111ec85eb6d2389a681cfad8b","_rev":"1-5d205d0e9392da6804c801399bb5db3b","Location":"Gdansk-Rebiechowo, Poland (EPGD) 54-23N 018-28E 138M","Date":"Dec 29, 2011 - 09:00 PM EST / 2011.12.30 0200 UTC","Wind":"from the SW (220 degrees) at 12 MPH (10 KT) (direction variable):0","Visibility":"greater than 7 mile(s):0","Sky conditions":"partly cloudy","Temperature":"37 F (3 C)","Dew Point":"30 F (-1 C)","Relative Humidity":"74%","Pressure (altimeter)":"29.50 in. Hg (0999 hPa)","ob":"EPGD 300200Z 22010KT 180V250 9999 FEW013 SCT029 03/M01 Q0999","cycle":"2"},
{"_id":"4495a8a111ec85eb6d2389a681cfb9d3","_rev":"1-db7c75ea94ca02ef640e19f798847617","Location":"Gdansk-Rebiechowo, Poland (EPGD) 54-23N 018-28E 138M","Date":"Jan 15, 2012 - 01:00 PM EST / 2012.01.15 1800 UTC","Wind":"from the NNW (340 degrees) at 6 MPH (5 KT):0","Visibility":"greater than 7 mile(s):0","Sky conditions":"mostly cloudy","Temperature":"28 F (-2 C)","Windchill":"21 F (-6 C):1","Dew Point":"26 F (-3 C)","Relative Humidity":"92%","Pressure (altimeter)":"30.12 in. Hg (1020 hPa)","ob":"EPGD 151800Z 34005KT 9999 SCT004 BKN036 M02/M03 Q1020 RESHSN R11/590142","cycle":"18"},
{"_id":"4495a8a111ec85eb6d2389a681cfbac2","_rev":"1-56a6de2aaa5ff7493e95e4f55a89a972","Location":"Gdansk-Rebiechowo, Poland (EPGD) 54-23N 018-28E 138M","Date":"Dec 24, 2011 - 02:00 AM EST / 2011.12.24 0700 UTC","Wind":"from the SW (230 degrees) at 5 MPH (4 KT) (direction variable):0","Visibility":"3 mile(s):0","Sky conditions":"mostly cloudy","Weather":"light rain","Temperature":"39 F (4 C)","Dew Point":"39 F (4 C)","Relative Humidity":"100%","Pressure (altimeter)":"29.74 in. Hg (1007 hPa)","ob":"EPGD 240700Z 23004KT 190V270 6000 -RA BKN004 04/04 Q1007","cycle":"7"},
{"_id":"4495a8a111ec85eb6d2389a681cfbd09","_rev":"1-4caad4f26e3c71a6fb63e572547b4738","Location":"Gdansk-Rebiechowo, Poland (EPGD) 54-23N 018-28E 138M","Date":"Jan 04, 2012 - 05:00 AM EST / 2012.01.04 1000 UTC","Wind":"from the SW (230 degrees) at 20 MPH (17 KT) gusting to 37 MPH (32 KT) (direction variable):0","Visibility":"greater than 7 mile(s):0","Sky conditions":"partly cloudy","Temperature":"41 F (5 C)","Dew Point":"30 F (-1 C)","Relative Humidity":"65%","Pressure (altimeter)":"29.41 in. Hg (0996 hPa)","ob":"EPGD 041000Z 23017G32KT 200V260 9999 SCT030 05/M01 Q0996","cycle":"10"},
{"_id":"4495a8a111ec85eb6d2389a681cfbf13","_rev":"1-b5997c62db4cf512ef6a4fbca5becca6","Location":"Gdansk-Rebiechowo, Poland (EPGD) 54-23N 018-28E 138M","Date":"Jan 13, 2012 - 07:00 PM EST / 2012.01.14 0000 UTC","Wind":"from the NW (320 degrees) at 20 MPH (17 KT):0","Visibility":"greater than 7 mile(s):0","Sky conditions":"partly cloudy","Weather":"light snow showers","Temperature":"32 F (0 C)","Windchill":"19 F (-7 C):1","Dew Point":"24 F (-4 C)","Relative Humidity":"74%","Pressure (altimeter)":"29.59 in. Hg (1002 hPa)","ob":"EPGD 140000Z 32017KT 9999 -SHSN FEW011 SCT027 00/M04 Q1002 R11/590195","cycle":"0"},
{"_id":"4495a8a111ec85eb6d2389a681cfc105","_rev":"1-3196ae3dc3f9ec26942a759c419d9925","Location":"Gdansk-Rebiechowo, Poland (EPGD) 54-23N 018-28E 138M","Date":"Dec 22, 2011 - 11:00 AM EST / 2011.12.22 1600 UTC","Wind":"from the S (180 degrees) at 3 MPH (3 KT) (direction variable):0","Visibility":"1 mile(s):0","Sky conditions":"mostly cloudy","Weather":"mist","Temperature":"24 F (-4 C)","Dew Point":"23 F (-5 C)","Relative Humidity":"92%","Pressure (altimeter)":"30.09 in. Hg (1019 hPa)","ob":"EPGD 221600Z 18003KT 090V230 2500 BR FEW006 BKN014 M04/M05 Q1019","cycle":"16"},
{"_id":"4495a8a111ec85eb6d2389a681cfccf5","_rev":"1-4a1133d0d250ff3a62aea3622691844d","Location":"Gdansk-Rebiechowo, Poland (EPGD) 54-23N 018-28E 138M","Date":"Feb 08, 2012 - 03:00 AM EST / 2012.02.08 0800 UTC","Wind":"Variable at 2 MPH (2 KT):0","Visibility":"2 mile(s):0","Weather":"mist","Temperature":"15 F (-9 C)","Dew Point":"12 F (-11 C)","Relative Humidity":"85%","Pressure (altimeter)":"30.74 in. Hg (1041 hPa)","ob":"EPGD 080800Z VRB02KT 3500 BR NSC M09/M11 Q1041 R11/490143","cycle":"8"},
{"_id":"4495a8a111ec85eb6d2389a681cfcfb6","_rev":"1-d986b915be290fe4768c38e917aa9025","Location":"Gdansk-Rebiechowo, Poland (EPGD) 54-23N 018-28E 138M","Date":"Jan 04, 2012 - 01:00 PM EST / 2012.01.04 1800 UTC","Wind":"from the WSW (250 degrees) at 22 MPH (19 KT) gusting to 36 MPH (31 KT):0","Visibility":"greater than 7 mile(s):0","Sky conditions":"mostly cloudy","Weather":"light rain showers","Temperature":"39 F (4 C)","Dew Point":"32 F (0 C)","Relative Humidity":"75%","Pressure (altimeter)":"29.47 in. Hg (0998 hPa)","ob":"EPGD 041800Z 25019G31KT 9999 -SHRA FEW009 BKN023 04/00 Q0998","cycle":"18"},
{"_id":"4495a8a111ec85eb6d2389a681cfdc87","_rev":"1-cc99c38881a3152fe37d0a2056f5c982","Location":"Gdansk-Rebiechowo, Poland (EPGD) 54-23N 018-28E 138M","Date":"Jan 06, 2012 - 11:00 AM EST / 2012.01.06 1600 UTC","Wind":"from the WNW (300 degrees) at 20 MPH (17 KT):0","Visibility":"greater than 7 mile(s):0","Sky conditions":"mostly cloudy","Weather":"light snow showers","Temperature":"33 F (1 C)","Windchill":"21 F (-6 C):1","Dew Point":"30 F (-1 C)","Relative Humidity":"86%","Pressure (altimeter)":"29.65 in. Hg (1004 hPa)","ob":"EPGD 061600Z 30017KT 9999 -SHSN FEW006 BKN013 01/M01 Q1004","cycle":"16"},
{"_id":"4495a8a111ec85eb6d2389a681cfe4de","_rev":"1-c2ea3ca27aaab0ef1759f077939ca513","Location":"Gdansk-Rebiechowo, Poland (EPGD) 54-23N 018-28E 138M","Date":"Jan 26, 2012 - 03:00 AM EST / 2012.01.26 0800 UTC","Wind":"from the SE (130 degrees) at 9 MPH (8 KT):0","Visibility":"1 mile(s):0","Sky conditions":"overcast","Weather":"mist","Temperature":"24 F (-4 C)","Windchill":"14 F (-10 C):1","Dew Point":"24 F (-4 C)","Relative Humidity":"100%","Pressure (altimeter)":"30.39 in. Hg (1029 hPa)","ob":"EPGD 260800Z 13008KT 2000 BR OVC003 M04/M04 Q1029 R11/290095","cycle":"8"},
{"_id":"4495a8a111ec85eb6d2389a681cfe98a","_rev":"1-591551e9282a3c1ad4746d0ef3d9b9df","Location":"Gdansk-Rebiechowo, Poland (EPGD) 54-23N 018-28E 138M","Date":"Dec 22, 2011 - 12:00 PM EST / 2011.12.22 1700 UTC","Wind":"Calm:0","Visibility":"1 mile(s):0","Sky conditions":"overcast","Weather":"mist","Temperature":"26 F (-3 C)","Dew Point":"23 F (-5 C)","Relative Humidity":"86%","Pressure (altimeter)":"30.12 in. Hg (1020 hPa)","ob":"EPGD 221700Z 00000KT 2500 BR OVC006 M03/M05 Q1020","cycle":"17"},
{"_id":"4495a8a111ec85eb6d2389a681cff156","_rev":"1-5439ec54392e0e2048ad16ae3bc815a3","Location":"Gdansk-Rebiechowo, Poland (EPGD) 54-23N 018-28E 138M","Date":"Feb 09, 2012 - 05:00 AM EST / 2012.02.09 1000 UTC","Wind":"from the E (080 degrees) at 14 MPH (12 KT):0","Visibility":"1 mile(s):0","Sky conditions":"mostly cloudy","Weather":"light snow; mist","Temperature":"17 F (-8 C)","Windchill":"3 F (-16 C):1","Dew Point":"12 F (-11 C)","Relative Humidity":"78%","Pressure (altimeter)":"30.59 in. Hg (1036 hPa)","ob":"EPGD 091000Z 08012KT 3000 -SN BR FEW006 BKN014 M08/M11 Q1036 R11/490333","cycle":"10"},
{"_id":"4495a8a111ec85eb6d2389a681cffd8e","_rev":"1-72d1746127e1b0a2b287b1a330c51606","Location":"Gdansk-Rebiechowo, Poland (EPGD) 54-23N 018-28E 138M","Date":"Jan 19, 2012 - 09:00 PM EST / 2012.01.20 0200 UTC","Wind":"from the WNW (290 degrees) at 12 MPH (10 KT):0","Visibility":"1 mile(s):0","Sky conditions":"mostly cloudy","Weather":"snow","Temperature":"32 F (0 C)","Windchill":"23 F (-5 C):1","Dew Point":"32 F (0 C)","Relative Humidity":"100%","Pressure (altimeter)":"29.38 in. Hg (0995 hPa)","ob":"EPGD 200200Z 29010KT 2000 SN BKN005 00/M00 Q0995","cycle":"2"},
{"_id":"4495a8a111ec85eb6d2389a681d0075f","_rev":"1-65abfd79812db92520a0e4a87d068037","Location":"Gdansk-Rebiechowo, Poland (EPGD) 54-23N 018-28E 138M","Date":"Dec 22, 2011 - 04:00 PM EST / 2011.12.22 2100 UTC","Wind":"from the SW (230 degrees) at 5 MPH (4 KT) (direction variable):0","Visibility":"1 mile(s):0","Sky conditions":"overcast","Weather":"mist","Temperature":"26 F (-3 C)","Windchill":"19 F (-7 C):1","Dew Point":"24 F (-4 C)","Relative Humidity":"92%","Pressure (altimeter)":"30.12 in. Hg (1020 hPa)","ob":"EPGD 222100Z 23004KT 190V280 2600 BR OVC003 M03/M04 Q1020","cycle":"21"},
{"_id":"4495a8a111ec85eb6d2389a681d00f26","_rev":"1-d800c759df17965976ec0072495a2c71","Location":"Gdansk-Rebiechowo, Poland (EPGD) 54-23N 018-28E 138M","Date":"Dec 17, 2011 - 11:00 AM EST / 2011.12.17 1600 UTC","Wind":"from the W (280 degrees) at 17 MPH (15 KT):0","Visibility":"greater than 7 mile(s):0","Sky conditions":"mostly cloudy","Temperature":"37 F (3 C)","Dew Point":"33 F (1 C)","Relative Humidity":"86%","Pressure (altimeter)":"28.97 in. Hg (0981 hPa)","ob":"EPGD 171600Z 28015KT 9999 BKN008 03/01 Q0981 R11/290064","cycle":"16"},
{"_id":"4495a8a111ec85eb6d2389a681d0130f","_rev":"1-ad0dc621cb6d8e412520a99841bc7909","Location":"Gdansk-Rebiechowo, Poland (EPGD) 54-23N 018-28E 138M","Date":"Feb 11, 2012 - 02:00 AM EST / 2012.02.11 0700 UTC","Wind":"from the WNW (290 degrees) at 3 MPH (3 KT):0","Visibility":"greater than 7 mile(s):0","Sky conditions":"mostly cloudy","Temperature":"6 F (-14 C)","Dew Point":"1 F (-17 C)","Relative Humidity":"77%","Pressure (altimeter)":"30.59 in. Hg (1036 hPa)","ob":"EPGD 110700Z 29003KT 9999 FEW014 BKN032 M14/M17 Q1036 R11/090095","cycle":"7"},
{"_id":"4495a8a111ec85eb6d2389a681d015d2","_rev":"1-1d233b051479671819a5883d0881b347","Location":"Gdansk-Rebiechowo, Poland (EPGD) 54-23N 018-28E 138M","Date":"Feb 10, 2012 - 12:00 AM EST / 2012.02.10 0500 UTC","Wind":"from the W (260 degrees) at 2 MPH (2 KT):0","Visibility":"greater than 7 mile(s):0","Sky conditions":"mostly cloudy","Temperature":"1 F (-17 C)","Dew Point":"-2 F (-19 C)","Relative Humidity":"84%","Pressure (altimeter)":"30.71 in. Hg (1040 hPa)","ob":"EPGD 100500Z 26002KT 9999 BKN020 M17/M19 Q1040 R11/090095","cycle":"5"},
{"_id":"4495a8a111ec85eb6d2389a681d022c8","_rev":"1-e650c2cd0894bc73aa904ecfdbbe63fb","Location":"Gdansk-Rebiechowo, Poland (EPGD) 54-23N 018-28E 138M","Date":"Feb 09, 2012 - 04:00 PM EST / 2012.02.09 2100 UTC","Wind":"from the SE (130 degrees) at 3 MPH (3 KT):0","Visibility":"greater than 7 mile(s):0","Sky conditions":"mostly cloudy","Weather":"light snow","Temperature":"14 F (-10 C)","Dew Point":"8 F (-13 C)","Relative Humidity":"78%","Pressure (altimeter)":"30.68 in. Hg (1039 hPa)","ob":"EPGD 092100Z 13003KT 9999 -SN FEW006 BKN017 M10/M13 Q1039 R11/090095","cycle":"21"},
{"_id":"4495a8a111ec85eb6d2389a681d02b94","_rev":"1-6e54450abf10924cb9b7d6beda3e3003","Location":"Gdansk-Rebiechowo, Poland (EPGD) 54-23N 018-28E 138M","Date":"Jan 02, 2012 - 10:00 PM EST / 2012.01.03 0300 UTC","Wind":"from the WSW (250 degrees) at 9 MPH (8 KT) (direction variable):0","Visibility":"greater than 7 mile(s):0","Sky conditions":"mostly clear","Temperature":"41 F (5 C)","Dew Point":"37 F (3 C)","Relative Humidity":"86%","Pressure (altimeter)":"29.85 in. Hg (1011 hPa)","ob":"EPGD 030300Z 25008KT 220V280 9999 FEW013 05/03 Q1011","cycle":"3"},
{"_id":"4495a8a111ec85eb6d2389a681d0312e","_rev":"1-c4894ae8f27a43b890e1c93bc45ec18c","Location":"Gdansk-Rebiechowo, Poland (EPGD) 54-23N 018-28E 138M","Date":"Feb 11, 2012 - 03:00 PM EST / 2012.02.11 2000 UTC","Wind":"from the W (260 degrees) at 5 MPH (4 KT):0","Visibility":"greater than 7 mile(s):0","Sky conditions":"mostly cloudy","Weather":"light snow","Temperature":"19 F (-7 C)","Windchill":"12 F (-11 C):1","Dew Point":"17 F (-8 C)","Relative Humidity":"92%","Pressure (altimeter)":"30.47 in. Hg (1032 hPa)","ob":"EPGD 112000Z 26004KT 9999 -SN FEW017 BKN037 M07/M08 Q1032 R29/490241","cycle":"20"},
{"_id":"4495a8a111ec85eb6d2389a681d03f1d","_rev":"1-ddf7f36bf86e6b798f5b1f30964cbd83","Location":"Gdansk-Rebiechowo, Poland (EPGD) 54-23N 018-28E 138M","Date":"Dec 21, 2011 - 12:00 AM EST / 2011.12.21 0500 UTC","Wind":"from the ESE (110 degrees) at 1 MPH (1 KT) (direction variable):0","Visibility":"less than 1 mile:0","Sky conditions":"obscured","Weather":"freezing fog","Temperature":"21 F (-6 C)","Dew Point":"19 F (-7 C)","Relative Humidity":"92%","Pressure (altimeter)":"29.80 in. Hg (1009 hPa)","ob":"EPGD 210500Z 11001KT 0400 R29/0275V0375 FZFG VV001 M06/M07 Q1009 R11/190095","cycle":"5"},
{"_id":"4495a8a111ec85eb6d2389a681d04dbb","_rev":"1-43f55ac2ca76f7739d067c67c884b8e8","Location":"Gdansk-Rebiechowo, Poland (EPGD) 54-23N 018-28E 138M","Date":"Jan 14, 2012 - 10:00 PM EST / 2012.01.15 0300 UTC","Wind":"from the NNW (340 degrees) at 17 MPH (15 KT):0","Visibility":"less than 1 mile:0","Sky conditions":"mostly cloudy","Weather":"snow showers; Cumulonimbus clouds observed","Temperature":"30 F (-1 C)","Windchill":"17 F (-8 C):1","Dew Point":"28 F (-2 C)","Relative Humidity":"92%","Pressure (altimeter)":"29.91 in. Hg (1013 hPa)","ob":"EPGD 150300Z 34015KT 1500 SHSN SCT004 BKN009CB M01/M02 Q1013 R11/590230","cycle":"3"},
{"_id":"4495a8a111ec85eb6d2389a681d05b2f","_rev":"1-799e64b977f8c84be0274583e0e716d7","Location":"Gdansk-Rebiechowo, Poland (EPGD) 54-23N 018-28E 138M","Date":"Feb 17, 2012 - 02:00 AM EST / 2012.02.17 0700 UTC","Wind":"from the SSW (210 degrees) at 7 MPH (6 KT) (direction variable):0","Visibility":"less than 1 mile:0","Sky conditions":"mostly cloudy","Weather":"snow; mist","Temperature":"28 F (-2 C)","Windchill":"21 F (-6 C):1","Dew Point":"26 F (-3 C)","Relative Humidity":"92%","Pressure (altimeter)":"29.71 in. Hg (1006 hPa)","ob":"EPGD 170700Z 21006KT 170V250 1100 R29/1900 SN BR SCT006 BKN013 M02/M03 Q1006 R29/490338","cycle":"7"},
{"_id":"4495a8a111ec85eb6d2389a681d060f3","_rev":"1-e23447a3eebf45371f8b97bd1849155d","Location":"Gdansk-Rebiechowo, Poland (EPGD) 54-23N 018-28E 138M","Date":"Jan 21, 2012 - 09:00 PM EST / 2012.01.22 0200 UTC","Wind":"from the SW (230 degrees) at 6 MPH (5 KT) (direction variable):0","Visibility":"greater than 7 mile(s):0","Sky conditions":"mostly cloudy","Weather":"light snow showers; Towering cumulus clouds observed","Temperature":"33 F (1 C)","Windchill":"26 F (-3 C):1","Dew Point":"32 F (0 C)","Relative Humidity":"93%","Pressure (altimeter)":"29.18 in. Hg (0988 hPa)","ob":"EPGD 220200Z 23005KT 190V260 9999 -SHSN BKN005TCU 01/00 Q0988 R11/590342","cycle":"2"},
{"_id":"4495a8a111ec85eb6d2389a681d06c46","_rev":"1-7ea403da7cc55722b8b8e653a388de47","Location":"Gdansk-Rebiechowo, Poland (EPGD) 54-23N 018-28E 138M","Date":"Feb 14, 2012 - 06:00 AM EST / 2012.02.14 1100 UTC","Wind":"from the SW (220 degrees) at 8 MPH (7 KT) (direction variable):0","Visibility":"3 mile(s):0","Temperature":"30 F (-1 C)","Windchill":"23 F (-5 C):1","Dew Point":"23 F (-5 C)","Relative Humidity":"74%","Pressure (altimeter)":"29.88 in. Hg (1012 hPa)","ob":"EPGD 141100Z 22007KT 180V250 6000 NSC M01/M05 Q1012 R29/190095","cycle":"11"},
{"_id":"4495a8a111ec85eb6d2389a681d06c81","_rev":"1-a3e3b3c47410af96872f9e5458548338","Location":"Gdansk-Rebiechowo, Poland (EPGD) 54-23N 018-28E 138M","Date":"Jan 22, 2012 - 10:00 PM EST / 2012.01.23 0300 UTC","Wind":"from the W (260 degrees) at 7 MPH (6 KT):0","Visibility":"greater than 7 mile(s):0","Sky conditions":"mostly cloudy","Temperature":"32 F (0 C)","Windchill":"24 F (-4 C):1","Dew Point":"30 F (-1 C)","Relative Humidity":"92%","Pressure (altimeter)":"29.41 in. Hg (0996 hPa)","ob":"EPGD 230300Z 26006KT 9999 BKN008 00/M01 Q0996 R11/290066","cycle":"3"},
{"_id":"4495a8a111ec85eb6d2389a681d07c4b","_rev":"1-1e8a191d53f57c85ab96ef475e9b7315","Location":"Gdansk-Rebiechowo, Poland (EPGD) 54-23N 018-28E 138M","Date":"Dec 22, 2011 - 08:00 PM EST / 2011.12.23 0100 UTC","Wind":"from the WSW (240 degrees) at 8 MPH (7 KT) (direction variable):0","Visibility":"1 mile(s):0","Sky conditions":"overcast","Weather":"mist","Temperature":"26 F (-3 C)","Windchill":"17 F (-8 C):1","Dew Point":"26 F (-3 C)","Relative Humidity":"100%","Pressure (altimeter)":"30.12 in. Hg (1020 hPa)","ob":"EPGD 230100Z 24007KT 190V270 2700 BR OVC002 M03/M03 Q1020","cycle":"1"},
{"_id":"4495a8a111ec85eb6d2389a681d0876a","_rev":"1-bd1c5112606f2f107eb5a72bdc87dfe8","Location":"Gdansk-Rebiechowo, Poland (EPGD) 54-23N 018-28E 138M","Date":"Feb 18, 2012 - 04:00 AM EST / 2012.02.18 0900 UTC","Wind":"from the W (260 degrees) at 10 MPH (9 KT):0","Visibility":"greater than 7 mile(s):0","Sky conditions":"mostly cloudy","Temperature":"33 F (1 C)","Windchill":"24 F (-4 C):1","Dew Point":"28 F (-2 C)","Relative Humidity":"80%","Pressure (altimeter)":"29.94 in. Hg (1014 hPa)","ob":"EPGD 180900Z 26009KT 9999 BKN008 01/M02 Q1014 R29/190095","cycle":"9"},
{"_id":"4495a8a111ec85eb6d2389a681d09735","_rev":"1-d6a4d31b49ce9c528f86d33a4fd22e10","Location":"Gdansk-Rebiechowo, Poland (EPGD) 54-23N 018-28E 138M","Date":"Dec 17, 2011 - 06:00 PM EST / 2011.12.17 2300 UTC","Wind":"from the W (270 degrees) at 14 MPH (12 KT):0","Visibility":"4 mile(s):0","Sky conditions":"mostly cloudy","Weather":"light rain","Temperature":"35 F (2 C)","Windchill":"26 F (-3 C):1","Dew Point":"33 F (1 C)","Relative Humidity":"93%","Pressure (altimeter)":"29.15 in. Hg (0987 hPa)","ob":"EPGD 172300Z 27012KT 7000 -RA SCT007 BKN011 02/01 Q0987 R11/290064","cycle":"23"},
{"_id":"4495a8a111ec85eb6d2389a681d09b70","_rev":"1-2b643cd7575763eb6696cc0b782523ee","Location":"Gdansk-Rebiechowo, Poland (EPGD) 54-23N 018-28E 138M","Date":"Dec 19, 2011 - 09:00 AM EST / 2011.12.19 1400 UTC","Wind":"from the SW (220 degrees) at 14 MPH (12 KT) gusting to 26 MPH (23 KT) (direction variable):0","Visibility":"greater than 7 mile(s):0","Sky conditions":"mostly cloudy","Temperature":"37 F (3 C)","Dew Point":"30 F (-1 C)","Relative Humidity":"74%","Pressure (altimeter)":"29.77 in. Hg (1008 hPa)","ob":"EPGD 191400Z 22012G23KT 180V260 9999 BKN020 03/M01 Q1008 R11/290095","cycle":"14"},
{"_id":"4495a8a111ec85eb6d2389a681d09d2a","_rev":"1-e90e5e00d633e27632531405ddab3c57","Location":"Gdansk-Rebiechowo, Poland (EPGD) 54-23N 018-28E 138M","Date":"Dec 16, 2011 - 08:00 PM EST / 2011.12.17 0100 UTC","Wind":"from the SE (140 degrees) at 10 MPH (9 KT) (direction variable):0","Visibility":"2 mile(s):0","Sky conditions":"mostly cloudy","Weather":"mist","Temperature":"39 F (4 C)","Dew Point":"37 F (3 C)","Relative Humidity":"93%","Pressure (altimeter)":"28.64 in. Hg (0970 hPa)","ob":"EPGD 170100Z 14009KT 110V180 4000 BR BKN004 04/03 Q0970 R11/290064","cycle":"1"},
{"_id":"4495a8a111ec85eb6d2389a681d0a72f","_rev":"1-2bac34df971fa1b2f4e8c07310bb1c86","Location":"Gdansk-Rebiechowo, Poland (EPGD) 54-23N 018-28E 138M","Date":"Feb 16, 2012 - 10:00 AM EST / 2012.02.16 1500 UTC","Wind":"Variable at 1 MPH (1 KT):0","Visibility":"greater than 7 mile(s):0","Sky conditions":"mostly clear","Temperature":"30 F (-1 C)","Dew Point":"19 F (-7 C)","Relative Humidity":"63%","Pressure (altimeter)":"30.00 in. Hg (1016 hPa)","ob":"EPGD 161500Z VRB01KT 9999 FEW033 M01/M07 Q1016 R11/190095","cycle":"15"},
{"_id":"4495a8a111ec85eb6d2389a681d0b4ac","_rev":"1-1662ab2a462abe7009ce7708430a9361","Location":"Gdansk-Rebiechowo, Poland (EPGD) 54-23N 018-28E 138M","Date":"Feb 07, 2012 - 08:00 AM EST / 2012.02.07 1300 UTC","Wind":"from the ENE (060 degrees) at 10 MPH (9 KT) (direction variable):0","Visibility":"greater than 7 mile(s):0","Sky conditions":"mostly cloudy","Temperature":"17 F (-8 C)","Windchill":"5 F (-15 C):1","Dew Point":"12 F (-11 C)","Relative Humidity":"78%","Pressure (altimeter)":"30.71 in. Hg (1040 hPa)","ob":"EPGD 071300Z 06009KT 020V080 9999 FEW009 BKN013 M08/M11 Q1040 R/490238","cycle":"13"},
{"_id":"4495a8a111ec85eb6d2389a681d0c22c","_rev":"1-d1c814464c3beac997c6cc370b11b34d","Location":"Gdansk-Rebiechowo, Poland (EPGD) 54-23N 018-28E 138M","Date":"Jan 09, 2012 - 03:00 AM EST / 2012.01.09 0800 UTC","Wind":"from the WNW (290 degrees) at 8 MPH (7 KT):0","Visibility":"greater than 7 mile(s):0","Sky conditions":"mostly cloudy","Temperature":"33 F (1 C)","Windchill":"26 F (-3 C):1","Dew Point":"28 F (-2 C)","Relative Humidity":"80%","Pressure (altimeter)":"30.06 in. Hg (1018 hPa)","ob":"EPGD 090800Z 29007KT 9999 BKN030 01/M02 Q1018 R11/290095","cycle":"8"},
{"_id":"4495a8a111ec85eb6d2389a681d0c915","_rev":"1-c141e283989ca244147e305938a6f56f","Location":"Gdansk-Rebiechowo, Poland (EPGD) 54-23N 018-28E 138M","Date":"Jan 25, 2012 - 10:00 AM EST / 2012.01.25 1500 UTC","Wind":"from the NW (310 degrees) at 8 MPH (7 KT):0","Visibility":"4 mile(s):0","Sky conditions":"mostly cloudy","Weather":"light snow showers; Towering cumulus clouds observed","Temperature":"30 F (-1 C)","Windchill":"23 F (-5 C):1","Dew Point":"28 F (-2 C)","Relative Humidity":"92%","Pressure (altimeter)":"30.18 in. Hg (1022 hPa)","ob":"EPGD 251500Z 31007KT 8000 -SHSN SCT006 BKN013TCU M01/M02 Q1022 R11/290095","cycle":"15"},
{"_id":"4495a8a111ec85eb6d2389a681d0d60d","_rev":"1-7ff11b24f6fe579ea9ab04717df85cb0","Location":"Gdansk-Rebiechowo, Poland (EPGD) 54-23N 018-28E 138M","Date":"Jan 10, 2012 - 08:00 AM EST / 2012.01.10 1300 UTC","Wind":"from the WNW (290 degrees) at 2 MPH (2 KT):0","Visibility":"1 mile(s):0","Sky conditions":"mostly cloudy","Weather":"mist","Temperature":"32 F (0 C)","Dew Point":"32 F (0 C)","Relative Humidity":"100%","Pressure (altimeter)":"30.15 in. Hg (1021 hPa)","ob":"EPGD 101300Z 29002KT 2000 BR BKN003 00/M00 Q1021 R11/290060","cycle":"13"},
{"_id":"4495a8a111ec85eb6d2389a681d0d81a","_rev":"1-6eb3617017e7111fdb26a0de401bb912","Location":"Gdansk-Rebiechowo, Poland (EPGD) 54-23N 018-28E 138M","Date":"Feb 14, 2012 - 11:00 AM EST / 2012.02.14 1600 UTC","Wind":"from the SSW (210 degrees) at 8 MPH (7 KT) (direction variable):0","Visibility":"greater than 7 mile(s):0","Temperature":"26 F (-3 C)","Windchill":"17 F (-8 C):1","Dew Point":"19 F (-7 C)","Relative Humidity":"73%","Pressure (altimeter)":"29.71 in. Hg (1006 hPa)","ob":"EPGD 141600Z 21007KT 170V270 CAVOK M03/M07 Q1006 R11/190095","cycle":"16"},
{"_id":"4495a8a111ec85eb6d2389a681d0e585","_rev":"1-02e6c6e5926165f0211b0eaaca075a60","Location":"Gdansk-Rebiechowo, Poland (EPGD) 54-23N 018-28E 138M","Date":"Jan 08, 2012 - 06:00 PM EST / 2012.01.08 2300 UTC","Wind":"from the NW (320 degrees) at 12 MPH (10 KT):0","Visibility":"greater than 7 mile(s):0","Sky conditions":"mostly cloudy","Temperature":"37 F (3 C)","Dew Point":"33 F (1 C)","Relative Humidity":"86%","Pressure (altimeter)":"29.91 in. Hg (1013 hPa)","ob":"EPGD 082300Z 32010KT 9999 BKN013 03/01 Q1013","cycle":"23"},
{"_id":"4495a8a111ec85eb6d2389a681d0f357","_rev":"1-5fbb66bd945e69f5236076a806c8c7e8","Location":"Gdansk-Rebiechowo, Poland (EPGD) 54-23N 018-28E 138M","Date":"Jan 02, 2012 - 05:00 PM EST / 2012.01.02 2200 UTC","Wind":"from the W (270 degrees) at 10 MPH (9 KT):0","Visibility":"greater than 7 mile(s):0","Sky conditions":"mostly cloudy","Temperature":"42 F (6 C)","Dew Point":"41 F (5 C)","Relative Humidity":"93%","Pressure (altimeter)":"29.74 in. Hg (1007 hPa)","ob":"EPGD 022200Z 27009KT 9999 BKN016 06/05 Q1007","cycle":"22"},
{"_id":"4495a8a111ec85eb6d2389a681d0f36a","_rev":"1-ffca98c6b7834c110968f47a041d22e1","Location":"Gdansk-Rebiechowo, Poland (EPGD) 54-23N 018-28E 138M","Date":"Jan 05, 2012 - 02:00 PM EST / 2012.01.05 1900 UTC","Wind":"from the SSW (200 degrees) at 9 MPH (8 KT) (direction variable):0","Visibility":"greater than 7 mile(s):0","Sky conditions":"mostly cloudy","Temperature":"37 F (3 C)","Dew Point":"33 F (1 C)","Relative Humidity":"86%","Pressure (altimeter)":"28.67 in. Hg (0971 hPa)","ob":"EPGD 051900Z 20008KT 160V270 9999 BKN013 03/01 Q0971","cycle":"19"},
{"_id":"4495a8a111ec85eb6d2389a681d0fc13","_rev":"1-6f6f27b9a9f138c33e21675dc38521e7","Location":"Gdansk-Rebiechowo, Poland (EPGD) 54-23N 018-28E 138M","Date":"Feb 11, 2012 - 07:00 PM EST / 2012.02.12 0000 UTC","Wind":"from the W (260 degrees) at 3 MPH (3 KT):0","Visibility":"greater than 7 mile(s):0","Sky conditions":"mostly cloudy","Weather":"light snow","Temperature":"19 F (-7 C)","Dew Point":"15 F (-9 C)","Relative Humidity":"85%","Pressure (altimeter)":"30.45 in. Hg (1031 hPa)","ob":"EPGD 120000Z 26003KT 9999 -SN FEW037 BKN042 M07/M09 Q1031 R29/490241","cycle":"0"},
{"_id":"4495a8a111ec85eb6d2389a681d10036","_rev":"1-c6380024d0f84024e861e5f6b08ed276","Location":"Gdansk-Rebiechowo, Poland (EPGD) 54-23N 018-28E 138M","Date":"Jan 21, 2012 - 03:00 AM EST / 2012.01.21 0800 UTC","Wind":"Variable at 1 MPH (1 KT):0","Visibility":"greater than 7 mile(s):0","Sky conditions":"partly cloudy","Temperature":"30 F (-1 C)","Dew Point":"26 F (-3 C)","Relative Humidity":"86%","Pressure (altimeter)":"29.74 in. Hg (1007 hPa)","ob":"EPGD 210800Z VRB01KT 9999 SCT023 M01/M03 Q1007 R11/290095","cycle":"8"},
{"_id":"4495a8a111ec85eb6d2389a681d108fe","_rev":"1-1a2949ac27913f0e8bbd3f9a104b860e","Location":"Gdansk-Rebiechowo, Poland (EPGD) 54-23N 018-28E 138M","Date":"Jan 13, 2012 - 02:00 PM EST / 2012.01.13 1900 UTC","Wind":"from the WNW (300 degrees) at 24 MPH (21 KT) gusting to 40 MPH (35 KT) (direction variable):0","Visibility":"greater than 7 mile(s):0","Sky conditions":"mostly cloudy","Weather":"light snow showers; Cumulonimbus clouds observed","Temperature":"32 F (0 C)","Windchill":"19 F (-7 C):1","Dew Point":"26 F (-3 C)","Relative Humidity":"80%","Pressure (altimeter)":"29.53 in. Hg (1000 hPa)","ob":"EPGD 131900Z 30021G35KT 270V330 9999 -SHSN SCT004 BKN026CB 00/M03 Q1000 REGS R11/590195","cycle":"19"},
{"_id":"4495a8a111ec85eb6d2389a681d11555","_rev":"1-7855cbf3fc408b89c9a5f941fc242203","Location":"Gdansk-Rebiechowo, Poland (EPGD) 54-23N 018-28E 138M","Date":"Jan 24, 2012 - 01:00 AM EST / 2012.01.24 0600 UTC","Wind":"from the NW (320 degrees) at 5 MPH (4 KT):0","Visibility":"4 mile(s):0","Sky conditions":"mostly cloudy","Weather":"light snow showers","Temperature":"32 F (0 C)","Windchill":"26 F (-3 C):1","Dew Point":"30 F (-1 C)","Relative Humidity":"92%","Pressure (altimeter)":"29.85 in. Hg (1011 hPa)","ob":"EPGD 240600Z 32004KT 7000 -SHSN FEW006 BKN011 00/M01 Q1011 R11/690252","cycle":"6"},
{"_id":"4495a8a111ec85eb6d2389a681d12330","_rev":"1-9dd570e790decfa773a571f55825f7c0","Location":"Gdansk-Rebiechowo, Poland (EPGD) 54-23N 018-28E 138M","Date":"Jan 14, 2012 - 09:00 PM EST / 2012.01.15 0200 UTC","Wind":"from the NNW (330 degrees) at 22 MPH (19 KT):0","Visibility":"greater than 7 mile(s):0","Sky conditions":"mostly cloudy","Weather":"light snow showers; Cumulonimbus clouds observed","Temperature":"30 F (-1 C)","Windchill":"17 F (-8 C):1","Dew Point":"26 F (-3 C)","Relative Humidity":"86%","Pressure (altimeter)":"29.91 in. Hg (1013 hPa)","ob":"EPGD 150200Z 33019KT 9999 -SHSN SCT004 BKN013CB M01/M03 Q1013 RESN R11/590230","cycle":"2"},
{"_id":"4495a8a111ec85eb6d2389a681d130a8","_rev":"1-94192fe677ee1fa577c48eb398539aeb","Location":"Gdansk-Rebiechowo, Poland (EPGD) 54-23N 018-28E 138M","Date":"Jan 05, 2012 - 10:00 AM EST / 2012.01.05 1500 UTC","Wind":"from the WSW (240 degrees) at 9 MPH (8 KT) (direction variable):0","Visibility":"greater than 7 mile(s):0","Sky conditions":"mostly cloudy","Weather":"light rain showers; Cumulonimbus clouds observed","Temperature":"39 F (4 C)","Dew Point":"35 F (2 C)","Relative Humidity":"86%","Pressure (altimeter)":"28.67 in. Hg (0971 hPa)","ob":"EPGD 051500Z 24008KT 200V260 9999 -SHRA FEW011 BKN015CB 04/02 Q0971","cycle":"15"},
{"_id":"4495a8a111ec85eb6d2389a681d13b51","_rev":"1-b3d96876eef3494a890d2cdde88b4e43","Location":"Gdansk-Rebiechowo, Poland (EPGD) 54-23N 018-28E 138M","Date":"Jan 12, 2012 - 07:00 PM EST / 2012.01.13 0000 UTC","Wind":"from the W (280 degrees) at 22 MPH (19 KT):0","Visibility":"greater than 7 mile(s):0","Sky conditions":"mostly cloudy","Temperature":"35 F (2 C)","Windchill":"23 F (-5 C):1","Dew Point":"28 F (-2 C)","Relative Humidity":"74%","Pressure (altimeter)":"29.50 in. Hg (0999 hPa)","ob":"EPGD 130000Z 28019KT 9999 BKN026 02/M02 Q0999","cycle":"0"},
{"_id":"4495a8a111ec85eb6d2389a681d14906","_rev":"1-2a2c0dc79f2b9b165d607ab0f2d6d72c","Location":"Gdansk-Rebiechowo, Poland (EPGD) 54-23N 018-28E 138M","Date":"Feb 02, 2012 - 10:00 AM EST / 2012.02.02 1500 UTC","Wind":"Calm:0","Visibility":"greater than 7 mile(s):0","Temperature":"5 F (-15 C)","Dew Point":"-4 F (-20 C)","Relative Humidity":"65%","Pressure (altimeter)":"30.56 in. Hg (1035 hPa)","ob":"EPGD 021500Z 00000KT CAVOK M15/M20 Q1035 R11/190095","cycle":"15"},
{"_id":"4495a8a111ec85eb6d2389a681d14c0f","_rev":"1-4ced0a0282f7ecae96acff97db0880c1","Location":"Gdansk-Rebiechowo, Poland (EPGD) 54-23N 018-28E 138M","Date":"Jan 22, 2012 - 02:00 AM EST / 2012.01.22 0700 UTC","Wind":"from the S (190 degrees) at 7 MPH (6 KT) (direction variable):0","Visibility":"1 mile(s):0","Sky conditions":"mostly cloudy","Weather":"light snow","Temperature":"33 F (1 C)","Windchill":"26 F (-3 C):1","Dew Point":"32 F (0 C)","Relative Humidity":"93%","Pressure (altimeter)":"29.23 in. Hg (0990 hPa)","ob":"EPGD 220700Z 19006KT 160V240 2500 -SN BKN005 01/00 Q0990 R11/290066","cycle":"7"},
{"_id":"4495a8a111ec85eb6d2389a681d1511f","_rev":"1-b55fcc075b79dff6f13201751df8823d","Location":"Gdansk-Rebiechowo, Poland (EPGD) 54-23N 018-28E 138M","Date":"Jan 24, 2012 - 04:00 AM EST / 2012.01.24 0900 UTC","Wind":"from the NW (310 degrees) at 5 MPH (4 KT):0","Visibility":"2 mile(s):0","Sky conditions":"mostly cloudy","Weather":"mist","Temperature":"32 F (0 C)","Windchill":"26 F (-3 C):1","Dew Point":"32 F (0 C)","Relative Humidity":"100%","Pressure (altimeter)":"29.91 in. Hg (1013 hPa)","ob":"EPGD 240900Z 31004KT 3500 BR BKN018 00/M00 Q1013 R11/690252","cycle":"9"},
{"_id":"4495a8a111ec85eb6d2389a681d15863","_rev":"1-835c9577a35788b29645dfd84891a111","Location":"Gdansk-Rebiechowo, Poland (EPGD) 54-23N 018-28E 138M","Date":"Feb 10, 2012 - 02:00 PM EST / 2012.02.10 1900 UTC","Wind":"from the ENE (070 degrees) at 3 MPH (3 KT) (direction variable):0","Visibility":"greater than 7 mile(s):0","Sky conditions":"mostly cloudy","Temperature":"14 F (-10 C)","Dew Point":"10 F (-12 C)","Relative Humidity":"85%","Pressure (altimeter)":"30.68 in. Hg (1039 hPa)","ob":"EPGD 101900Z 07003KT 040V100 9999 BKN012 M10/M12 Q1039 R29/090095","cycle":"19"},
{"_id":"4495a8a111ec85eb6d2389a681d15eb2","_rev":"1-c4ec8f37708b6169a046f24705ab7ddc","Location":"Gdansk-Rebiechowo, Poland (EPGD) 54-23N 018-28E 138M","Date":"Jan 19, 2012 - 11:00 PM EST / 2012.01.20 0400 UTC","Wind":"from the W (280 degrees) at 13 MPH (11 KT):0","Visibility":"4 mile(s):0","Sky conditions":"mostly cloudy","Temperature":"33 F (1 C)","Windchill":"23 F (-5 C):1","Dew Point":"32 F (0 C)","Relative Humidity":"93%","Pressure (altimeter)":"29.41 in. Hg (0996 hPa)","ob":"EPGD 200400Z 28011KT 7000 BKN004 01/00 Q0996","cycle":"4"},
{"_id":"4495a8a111ec85eb6d2389a681d15ef1","_rev":"1-9fcff31ca05ace49a630ba6fdcdcdce4","Location":"Gdansk-Rebiechowo, Poland (EPGD) 54-23N 018-28E 138M","Date":"Jan 17, 2012 - 07:00 AM EST / 2012.01.17 1200 UTC","Wind":"from the SSE (160 degrees) at 3 MPH (3 KT) (direction variable):0","Visibility":"greater than 7 mile(s):0","Sky conditions":"mostly clear","Temperature":"32 F (0 C)","Dew Point":"24 F (-4 C)","Relative Humidity":"74%","Pressure (altimeter)":"30.18 in. Hg (1022 hPa)","ob":"EPGD 171200Z 16003KT 110V220 9999 FEW030 M00/M04 Q1022 R11/290053","cycle":"12"},
{"_id":"4495a8a111ec85eb6d2389a681d16231","_rev":"1-8459b5b22a5caa1f0ddb36167cdd98ee","Location":"Gdansk-Rebiechowo, Poland (EPGD) 54-23N 018-28E 138M","Date":"Jan 12, 2012 - 06:00 PM EST / 2012.01.12 2300 UTC","Wind":"from the W (280 degrees) at 18 MPH (16 KT):0","Visibility":"greater than 7 mile(s):0","Sky conditions":"mostly clear","Temperature":"35 F (2 C)","Windchill":"24 F (-4 C):1","Dew Point":"28 F (-2 C)","Relative Humidity":"74%","Pressure (altimeter)":"29.50 in. Hg (0999 hPa)","ob":"EPGD 122300Z 28016KT 9999 FEW023 02/M02 Q0999","cycle":"23"},
{"_id":"4495a8a111ec85eb6d2389a681d1688e","_rev":"1-0cae49148820966b57714c44065666a6","Location":"Gdansk-Rebiechowo, Poland (EPGD) 54-23N 018-28E 138M","Date":"Feb 18, 2012 - 09:00 PM EST / 2012.02.19 0200 UTC","Wind":"from the SSW (200 degrees) at 12 MPH (10 KT):0","Visibility":"4 mile(s):0","Sky conditions":"mostly cloudy","Temperature":"37 F (3 C)","Dew Point":"33 F (1 C)","Relative Humidity":"86%","Pressure (altimeter)":"29.65 in. Hg (1004 hPa)","ob":"EPGD 190200Z 20010KT 8000 BKN006 03/01 Q1004 R11/290095","cycle":"2"},
{"_id":"4495a8a111ec85eb6d2389a681d17389","_rev":"1-c9d5d6428bb44b2e5bc39dc2ef078e44","Location":"Gdansk-Rebiechowo, Poland (EPGD) 54-23N 018-28E 138M","Date":"Jan 12, 2012 - 08:00 AM EST / 2012.01.12 1300 UTC","Wind":"from the WSW (240 degrees) at 21 MPH (18 KT) (direction variable):0","Visibility":"greater than 7 mile(s):0","Sky conditions":"mostly cloudy","Weather":"light drizzle","Temperature":"46 F (8 C)","Dew Point":"41 F (5 C)","Relative Humidity":"81%","Pressure (altimeter)":"29.53 in. Hg (1000 hPa)","ob":"EPGD 121300Z 24018KT 190V260 9999 -DZ BKN014 08/05 Q1000","cycle":"13"},
{"_id":"4495a8a111ec85eb6d2389a681d17b51","_rev":"1-e7cd4366a90db55919d16d3118fbc4fb","Location":"Gdansk-Rebiechowo, Poland (EPGD) 54-23N 018-28E 138M","Date":"Dec 26, 2011 - 10:00 AM EST / 2011.12.26 1500 UTC","Wind":"from the W (270 degrees) at 17 MPH (15 KT):0","Visibility":"greater than 7 mile(s):0","Sky conditions":"mostly cloudy","Weather":"light drizzle","Temperature":"48 F (9 C)","Dew Point":"46 F (8 C)","Relative Humidity":"93%","Pressure (altimeter)":"30.27 in. Hg (1025 hPa)","ob":"EPGD 261500Z 27015KT 9999 -DZ BKN006 09/08 Q1025","cycle":"15"},
{"_id":"4495a8a111ec85eb6d2389a681d1897a","_rev":"1-347611a696246f8a4ec8cd43d98121fd","Location":"Gdansk-Rebiechowo, Poland (EPGD) 54-23N 018-28E 138M","Date":"Jan 15, 2012 - 05:00 AM EST / 2012.01.15 1000 UTC","Wind":"from the N (350 degrees) at 8 MPH (7 KT) (direction variable):0","Visibility":"greater than 7 mile(s):0","Sky conditions":"partly cloudy","Weather":"Cumulonimbus clouds observed","Temperature":"32 F (0 C)","Windchill":"24 F (-4 C):1","Dew Point":"28 F (-2 C)","Relative Humidity":"86%","Pressure (altimeter)":"30.03 in. Hg (1017 hPa)","ob":"EPGD 151000Z 35007KT 320V040 9999 FEW007 SCT012 SCT017CB M00/M02 Q1017 R11/590142","cycle":"10"},
{"_id":"4495a8a111ec85eb6d2389a681d18a32","_rev":"1-c4605481333a2f9bef0c8ccd48e35e94","Location":"Gdansk-Rebiechowo, Poland (EPGD) 54-23N 018-28E 138M","Date":"Jan 11, 2012 - 01:00 PM EST / 2012.01.11 1800 UTC","Wind":"from the WNW (300 degrees) at 25 MPH (22 KT):0","Visibility":"greater than 7 mile(s):0","Sky conditions":"mostly cloudy","Temperature":"41 F (5 C)","Dew Point":"33 F (1 C)","Relative Humidity":"75%","Pressure (altimeter)":"30.06 in. Hg (1018 hPa)","ob":"EPGD 111800Z 30022KT 9999 FEW023 BKN033 05/01 Q1018 R11/290095","cycle":"18"},
{"_id":"4495a8a111ec85eb6d2389a681d192d5","_rev":"1-b105881c05648dc29844a99868dff4ff","Location":"Gdansk-Rebiechowo, Poland (EPGD) 54-23N 018-28E 138M","Date":"Dec 25, 2011 - 10:00 PM EST / 2011.12.26 0300 UTC","Wind":"from the WSW (250 degrees) at 15 MPH (13 KT):0","Visibility":"4 mile(s):0","Sky conditions":"mostly cloudy","Weather":"light drizzle","Temperature":"44 F (7 C)","Dew Point":"42 F (6 C)","Relative Humidity":"93%","Pressure (altimeter)":"30.06 in. Hg (1018 hPa)","ob":"EPGD 260300Z 25013KT 8000 -DZ BKN007 07/06 Q1018","cycle":"3"},
{"_id":"4495a8a111ec85eb6d2389a681d19ac6","_rev":"1-a13566ad66cd68aa851baea6c2b95ad6","Location":"Gdansk-Rebiechowo, Poland (EPGD) 54-23N 018-28E 138M","Date":"Dec 21, 2011 - 07:00 AM EST / 2011.12.21 1200 UTC","Wind":"from the SE (130 degrees) at 3 MPH (3 KT) (direction variable):0","Visibility":"3 mile(s):0","Weather":"mist","Temperature":"28 F (-2 C)","Dew Point":"24 F (-4 C)","Relative Humidity":"86%","Pressure (altimeter)":"29.83 in. Hg (1010 hPa)","ob":"EPGD 211200Z 13003KT 100V160 5000 BR NSC M02/M04 Q1010 R11/190095","cycle":"12"},
{"_id":"4495a8a111ec85eb6d2389a681d19d61","_rev":"1-530378be26d1701111e844d50b8da966","Location":"Gdansk-Rebiechowo, Poland (EPGD) 54-23N 018-28E 138M","Date":"Dec 19, 2011 - 12:00 PM EST / 2011.12.19 1700 UTC","Wind":"from the WSW (240 degrees) at 15 MPH (13 KT) (direction variable):0","Visibility":"greater than 7 mile(s):0","Sky conditions":"mostly cloudy","Temperature":"35 F (2 C)","Windchill":"24 F (-4 C):1","Dew Point":"30 F (-1 C)","Relative Humidity":"80%","Pressure (altimeter)":"29.83 in. Hg (1010 hPa)","ob":"EPGD 191700Z 24013KT 200V270 9999 SCT017 BKN049 02/M01 Q1010 R11/290095","cycle":"17"},
{"_id":"4495a8a111ec85eb6d2389a681d1aafe","_rev":"1-df83378316b464273d6388bf1df2e318","Location":"Gdansk-Rebiechowo, Poland (EPGD) 54-23N 018-28E 138M","Date":"Jan 16, 2012 - 04:00 AM EST / 2012.01.16 0900 UTC","Wind":"from the WNW (300 degrees) at 9 MPH (8 KT):0","Visibility":"greater than 7 mile(s):0","Sky conditions":"mostly cloudy","Temperature":"30 F (-1 C)","Windchill":"21 F (-6 C):1","Dew Point":"24 F (-4 C)","Relative Humidity":"80%","Pressure (altimeter)":"30.12 in. Hg (1020 hPa)","ob":"EPGD 160900Z 30008KT 9999 FEW013 BKN043 M01/M04 Q1020 R11/590345","cycle":"9"},
{"_id":"4495a8a111ec85eb6d2389a681d1b707","_rev":"1-fad48e27f5011732e8a4ed3bf14c5a08","Location":"Gdansk-Rebiechowo, Poland (EPGD) 54-23N 018-28E 138M","Date":"Dec 27, 2011 - 05:00 AM EST / 2011.12.27 1000 UTC","Wind":"from the W (260 degrees) at 29 MPH (25 KT) gusting to 47 MPH (41 KT):0","Visibility":"greater than 7 mile(s):0","Sky conditions":"mostly cloudy","Weather":"light rain","Temperature":"48 F (9 C)","Dew Point":"41 F (5 C)","Relative Humidity":"75%","Pressure (altimeter)":"30.18 in. Hg (1022 hPa)","ob":"EPGD 271000Z 26025G41KT 9999 -RA BKN013 09/05 Q1022","cycle":"10"},
{"_id":"4495a8a111ec85eb6d2389a681d1b8bb","_rev":"1-d002db24168dd191aeeebe1ae0eae19d","Location":"Gdansk-Rebiechowo, Poland (EPGD) 54-23N 018-28E 138M","Date":"Dec 31, 2011 - 01:00 AM EST / 2011.12.31 0600 UTC","Wind":"from the NW (320 degrees) at 6 MPH (5 KT):0","Visibility":"greater than 7 mile(s):0","Sky conditions":"mostly cloudy","Temperature":"33 F (1 C)","Windchill":"26 F (-3 C):1","Dew Point":"30 F (-1 C)","Relative Humidity":"86%","Pressure (altimeter)":"29.74 in. Hg (1007 hPa)","ob":"EPGD 310600Z 32005KT 9999 BKN025 01/M01 Q1007","cycle":"6"},
{"_id":"4495a8a111ec85eb6d2389a681d1bffc","_rev":"1-9804416386f798de69de79abf9390b18","Location":"Gdansk-Rebiechowo, Poland (EPGD) 54-23N 018-28E 138M","Date":"Feb 03, 2012 - 08:00 AM EST / 2012.02.03 1300 UTC","Wind":"from the SW (220 degrees) at 7 MPH (6 KT) (direction variable):0","Visibility":"3 mile(s):0","Sky conditions":"mostly clear","Temperature":"14 F (-10 C)","Windchill":"3 F (-16 C):1","Dew Point":"3 F (-16 C)","Relative Humidity":"61%","Pressure (altimeter)":"30.45 in. Hg (1031 hPa)","ob":"EPGD 031300Z 22006KT 170V260 6000 FEW040 M10/M16 Q1031 R11/190095","cycle":"13"},
{"_id":"4495a8a111ec85eb6d2389a681d1c3cb","_rev":"1-703967f2c98cbf124139d0803b81ccab","Location":"Gdansk-Rebiechowo, Poland (EPGD) 54-23N 018-28E 138M","Date":"Feb 08, 2012 - 02:00 AM EST / 2012.02.08 0700 UTC","Wind":"Variable at 2 MPH (2 KT):0","Visibility":"3 mile(s):0","Sky conditions":"mostly clear","Temperature":"8 F (-13 C)","Dew Point":"5 F (-15 C)","Relative Humidity":"84%","Pressure (altimeter)":"30.74 in. Hg (1041 hPa)","ob":"EPGD 080700Z VRB02KT 6000 FEW015 M13/M15 Q1041 R11/490143","cycle":"7"},
{"_id":"4495a8a111ec85eb6d2389a681d1d223","_rev":"1-78196aac9e18fe2b318072f840e24091","Location":"Gdansk-Rebiechowo, Poland (EPGD) 54-23N 018-28E 138M","Date":"Jan 28, 2012 - 08:00 PM EST / 2012.01.29 0100 UTC","Wind":"from the ESE (120 degrees) at 9 MPH (8 KT):0","Visibility":"greater than 7 mile(s):0","Temperature":"10 F (-12 C)","Windchill":"-2 F (-19 C):1","Dew Point":"3 F (-16 C)","Relative Humidity":"72%","Pressure (altimeter)":"30.65 in. Hg (1038 hPa)","ob":"EPGD 290100Z 12008KT CAVOK M12/M16 Q1038 R11/190095","cycle":"1"},
{"_id":"4495a8a111ec85eb6d2389a681d1da99","_rev":"1-a4270aca67f9a3f7c7759f92fee443cb","Location":"Gdansk-Rebiechowo, Poland (EPGD) 54-23N 018-28E 138M","Date":"Jan 07, 2012 - 02:00 AM EST / 2012.01.07 0700 UTC","Wind":"from the WSW (240 degrees) at 12 MPH (10 KT) (direction variable):0","Visibility":"greater than 7 mile(s):0","Sky conditions":"mostly cloudy","Temperature":"33 F (1 C)","Windchill":"24 F (-4 C):1","Dew Point":"32 F (0 C)","Relative Humidity":"93%","Pressure (altimeter)":"29.68 in. Hg (1005 hPa)","ob":"EPGD 070700Z 24010KT 210V270 9999 BKN005 01/00 Q1005 R11/190095","cycle":"7"},
{"_id":"4495a8a111ec85eb6d2389a681d1de33","_rev":"1-69feea3e36ec94a12d05d705075e0b35","Location":"Gdansk-Rebiechowo, Poland (EPGD) 54-23N 018-28E 138M","Date":"Jan 29, 2012 - 11:00 AM EST / 2012.01.29 1600 UTC","Wind":"from the E (100 degrees) at 9 MPH (8 KT):0","Visibility":"greater than 7 mile(s):0","Temperature":"17 F (-8 C)","Windchill":"5 F (-15 C):1","Dew Point":"1 F (-17 C)","Relative Humidity":"48%","Pressure (altimeter)":"30.77 in. Hg (1042 hPa)","ob":"EPGD 291600Z 10008KT CAVOK M08/M17 Q1042 R11/190095","cycle":"16"},
{"_id":"4495a8a111ec85eb6d2389a681d1e7c3","_rev":"1-dbfbc218ea6b78cd39565982afbd9bb1","Location":"Gdansk-Rebiechowo, Poland (EPGD) 54-23N 018-28E 138M","Date":"Jan 19, 2012 - 05:00 PM EST / 2012.01.19 2200 UTC","Wind":"from the SW (220 degrees) at 5 MPH (4 KT) (direction variable):0","Visibility":"greater than 7 mile(s):0","Sky conditions":"mostly cloudy","Temperature":"33 F (1 C)","Windchill":"28 F (-2 C):1","Dew Point":"32 F (0 C)","Relative Humidity":"93%","Pressure (altimeter)":"29.41 in. Hg (0996 hPa)","ob":"EPGD 192200Z 22004KT 170V280 9999 FEW003 BKN007 01/M00 Q0996","cycle":"22"},
{"_id":"4495a8a111ec85eb6d2389a681d1ec79","_rev":"1-f623d13a27ecfe5c067cc6643889326f","Location":"Gdansk-Rebiechowo, Poland (EPGD) 54-23N 018-28E 138M","Date":"Dec 15, 2011 - 05:00 PM EST / 2011.12.15 2200 UTC","Wind":"from the S (190 degrees) at 6 MPH (5 KT) (direction variable):0","Visibility":"greater than 7 mile(s):0","Sky conditions":"mostly cloudy","Temperature":"37 F (3 C)","Dew Point":"33 F (1 C)","Relative Humidity":"86%","Pressure (altimeter)":"29.65 in. Hg (1004 hPa)","ob":"EPGD 152200Z 19005KT 150V220 9999 BKN043 03/01 Q1004","cycle":"22"},
{"_id":"4495a8a111ec85eb6d2389a681d1f890","_rev":"1-8901d5b71e0c07885ee72153cca6ce17","Location":"Gdansk-Rebiechowo, Poland (EPGD) 54-23N 018-28E 138M","Date":"Feb 14, 2012 - 06:00 PM EST / 2012.02.14 2300 UTC","Wind":"from the S (190 degrees) at 12 MPH (10 KT) (direction variable):0","Visibility":"1 mile(s):0","Sky conditions":"mostly cloudy","Weather":"light snow","Temperature":"24 F (-4 C)","Windchill":"12 F (-11 C):1","Dew Point":"21 F (-6 C)","Relative Humidity":"85%","Pressure (altimeter)":"29.29 in. Hg (0992 hPa)","ob":"EPGD 142300Z 19010KT 150V230 2200 -SN SCT005 BKN014 M04/M06 Q0992 R11/590243","cycle":"23"},
{"_id":"4495a8a111ec85eb6d2389a681d1fe0e","_rev":"1-869a5320e9bb7a1c9da9fb61ec32e041","Location":"Gdansk-Rebiechowo, Poland (EPGD) 54-23N 018-28E 138M","Date":"Jan 05, 2012 - 12:00 AM EST / 2012.01.05 0500 UTC","Wind":"from the SSW (200 degrees) at 13 MPH (11 KT) gusting to 24 MPH (21 KT) (direction variable):0","Visibility":"greater than 7 mile(s):0","Sky conditions":"mostly cloudy","Weather":"light rain showers","Temperature":"37 F (3 C)","Dew Point":"32 F (0 C)","Relative Humidity":"80%","Pressure (altimeter)":"29.06 in. Hg (0984 hPa)","ob":"EPGD 050500Z 20011G21KT 160V230 9999 -SHRA BKN011 03/00 Q0984","cycle":"5"},
{"_id":"4495a8a111ec85eb6d2389a681d20c4c","_rev":"1-f01706aa60f7a42d501b423e51583771","Location":"Gdansk-Rebiechowo, Poland (EPGD) 54-23N 018-28E 138M","Date":"Dec 19, 2011 - 02:00 PM EST / 2011.12.19 1900 UTC","Wind":"from the SW (230 degrees) at 12 MPH (10 KT) (direction variable):0","Visibility":"greater than 7 mile(s):0","Sky conditions":"mostly cloudy","Temperature":"35 F (2 C)","Windchill":"26 F (-3 C):1","Dew Point":"30 F (-1 C)","Relative Humidity":"80%","Pressure (altimeter)":"29.88 in. Hg (1012 hPa)","ob":"EPGD 191900Z 23010KT 200V260 9999 BKN017 02/M01 Q1012 R11/290095","cycle":"19"},
{"_id":"4495a8a111ec85eb6d2389a681d21778","_rev":"1-efd366229f8688999fbaa37e663c5ff0","Location":"Gdansk-Rebiechowo, Poland (EPGD) 54-23N 018-28E 138M","Date":"Jan 17, 2012 - 03:00 AM EST / 2012.01.17 0800 UTC","Wind":"from the ESE (110 degrees) at 5 MPH (4 KT):0","Visibility":"1 mile(s):0","Sky conditions":"mostly cloudy","Weather":"mist","Temperature":"28 F (-2 C)","Windchill":"23 F (-5 C):1","Dew Point":"26 F (-3 C)","Relative Humidity":"92%","Pressure (altimeter)":"30.18 in. Hg (1022 hPa)","ob":"EPGD 170800Z 11004KT 1800 BR FEW003 BKN004 M02/M03 Q1022 R11/290053","cycle":"8"},
{"_id":"4495a8a111ec85eb6d2389a681d224ae","_rev":"1-a30484f6c947ad31110282da7411dc38","Location":"Gdansk-Rebiechowo, Poland (EPGD) 54-23N 018-28E 138M","Date":"Jan 14, 2012 - 07:00 AM EST / 2012.01.14 1200 UTC","Wind":"from the NW (320 degrees) at 23 MPH (20 KT) gusting to 35 MPH (30 KT):0","Visibility":"1 mile(s):0","Sky conditions":"mostly cloudy","Weather":"light snow showers; low drifting snow; Towering cumulus clouds observed","Temperature":"32 F (0 C)","Windchill":"19 F (-7 C):1","Dew Point":"26 F (-3 C)","Relative Humidity":"80%","Pressure (altimeter)":"29.77 in. Hg (1008 hPa)","ob":"EPGD 141200Z 32020G30KT 3000 -SHSN DRSN SCT011TCU BKN020 00/M03 Q1008 R11/620163","cycle":"12"},
{"_id":"4495a8a111ec85eb6d2389a681d22c2a","_rev":"1-105a3dbe743a4cee2001a1e0677e0405","Location":"Gdansk-Rebiechowo, Poland (EPGD) 54-23N 018-28E 138M","Date":"Dec 24, 2011 - 10:00 AM EST / 2011.12.24 1500 UTC","Wind":"from the WSW (240 degrees) at 3 MPH (3 KT):0","Visibility":"2 mile(s):0","Sky conditions":"mostly cloudy","Weather":"light rain; mist","Temperature":"41 F (5 C)","Dew Point":"39 F (4 C)","Relative Humidity":"93%","Pressure (altimeter)":"29.77 in. Hg (1008 hPa)","ob":"EPGD 241500Z 24003KT 3500 -RA BR BKN003 BKN016 05/04 Q1008","cycle":"15"},
{"_id":"4495a8a111ec85eb6d2389a681d236df","_rev":"1-76e38f9e976f10e2c55a50ca7e8224d0","Location":"Gdansk-Rebiechowo, Poland (EPGD) 54-23N 018-28E 138M","Date":"Feb 03, 2012 - 07:00 PM EST / 2012.02.04 0000 UTC","Wind":"Variable at 2 MPH (2 KT):0","Visibility":"2 mile(s):0","Weather":"mist","Temperature":"8 F (-13 C)","Dew Point":"3 F (-16 C)","Relative Humidity":"78%","Pressure (altimeter)":"30.53 in. Hg (1034 hPa)","ob":"EPGD 040000Z VRB02KT 4000 BR NSC M13/M16 Q1034 R11/490148","cycle":"0"},
{"_id":"4495a8a111ec85eb6d2389a681d2435a","_rev":"1-40902b1321eff26cab7f61319aeedaf4","Location":"Gdansk-Rebiechowo, Poland (EPGD) 54-23N 018-28E 138M","Date":"Jan 10, 2012 - 03:00 PM EST / 2012.01.10 2000 UTC","Wind":"from the W (270 degrees) at 8 MPH (7 KT):0","Visibility":"greater than 7 mile(s):0","Sky conditions":"mostly cloudy","Temperature":"33 F (1 C)","Windchill":"26 F (-3 C):1","Dew Point":"32 F (0 C)","Relative Humidity":"93%","Pressure (altimeter)":"30.27 in. Hg (1025 hPa)","ob":"EPGD 102000Z 27007KT 9999 FEW009 BKN013 01/00 Q1025 R11/290060","cycle":"20"},
{"_id":"4495a8a111ec85eb6d2389a681d24c74","_rev":"1-21592116375255594441af946d42e602","Location":"Gdansk-Rebiechowo, Poland (EPGD) 54-23N 018-28E 138M","Date":"Jan 13, 2012 - 02:00 AM EST / 2012.01.13 0700 UTC","Wind":"from the W (280 degrees) at 17 MPH (15 KT):0","Visibility":"greater than 7 mile(s):0","Sky conditions":"mostly clear","Temperature":"35 F (2 C)","Windchill":"24 F (-4 C):1","Dew Point":"28 F (-2 C)","Relative Humidity":"74%","Pressure (altimeter)":"29.50 in. Hg (0999 hPa)","ob":"EPGD 130700Z 28015KT 9999 FEW023 02/M02 Q0999","cycle":"7"},
{"_id":"4495a8a111ec85eb6d2389a681d25a44","_rev":"1-b65a94a4ff58f77f63d2f46ba4883261","Location":"Gdansk-Rebiechowo, Poland (EPGD) 54-23N 018-28E 138M","Date":"Feb 03, 2012 - 09:00 PM EST / 2012.02.04 0200 UTC","Wind":"from the WSW (240 degrees) at 3 MPH (3 KT) (direction variable):0","Visibility":"2 mile(s):0","Sky conditions":"mostly cloudy","Weather":"mist","Temperature":"6 F (-14 C)","Dew Point":"3 F (-16 C)","Relative Humidity":"84%","Pressure (altimeter)":"30.56 in. Hg (1035 hPa)","ob":"EPGD 040200Z 24003KT 180V350 4000 BR BKN036 M14/M16 Q1035 R11/490148","cycle":"2"},
{"_id":"4495a8a111ec85eb6d2389a681d263a1","_rev":"1-d6b736a22348c9cf7f787e8af3bcecee","Location":"Gdansk-Rebiechowo, Poland (EPGD) 54-23N 018-28E 138M","Date":"Dec 25, 2011 - 09:00 AM EST / 2011.12.25 1400 UTC","Wind":"from the SW (230 degrees) at 10 MPH (9 KT) (direction variable):0","Visibility":"4 mile(s):0","Sky conditions":"mostly cloudy","Temperature":"39 F (4 C)","Dew Point":"35 F (2 C)","Relative Humidity":"86%","Pressure (altimeter)":"30.12 in. Hg (1020 hPa)","ob":"EPGD 251400Z 23009KT 200V260 8000 BKN007 04/02 Q1020","cycle":"14"},
{"_id":"4495a8a111ec85eb6d2389a681d269af","_rev":"1-ad458da8cfd1d98485dface9d0adc3eb","Location":"Gdansk-Rebiechowo, Poland (EPGD) 54-23N 018-28E 138M","Date":"Jan 10, 2012 - 03:00 AM EST / 2012.01.10 0800 UTC","Wind":"from the SE (130 degrees) at 6 MPH (5 KT) (direction variable):0","Visibility":"less than 1 mile:0","Sky conditions":"obscured","Weather":"freezing fog","Temperature":"30 F (-1 C)","Windchill":"23 F (-5 C):1","Dew Point":"30 F (-1 C)","Relative Humidity":"100%","Pressure (altimeter)":"30.06 in. Hg (1018 hPa)","ob":"EPGD 100800Z 13005KT 110V170 0900 R29/1000 FZFG VV002 M01/M01 Q1018 R11/610259","cycle":"8"},
{"_id":"4495a8a111ec85eb6d2389a681d277f7","_rev":"1-0488686b89fe79b7d90c7d240361328c","Location":"Gdansk-Rebiechowo, Poland (EPGD) 54-23N 018-28E 138M","Date":"Jan 04, 2012 - 08:00 PM EST / 2012.01.05 0100 UTC","Wind":"from the SW (220 degrees) at 15 MPH (13 KT) (direction variable):0","Visibility":"greater than 7 mile(s):0","Sky conditions":"mostly cloudy","Temperature":"37 F (3 C)","Dew Point":"32 F (0 C)","Relative Humidity":"80%","Pressure (altimeter)":"29.32 in. Hg (0993 hPa)","ob":"EPGD 050100Z 22013KT 180V250 9999 BKN017 03/00 Q0993","cycle":"1"},
{"_id":"4495a8a111ec85eb6d2389a681d2828a","_rev":"1-543c9b4edee460a3e3e922be6ab63a3b","Location":"Gdansk-Rebiechowo, Poland (EPGD) 54-23N 018-28E 138M","Date":"Jan 21, 2012 - 05:00 AM EST / 2012.01.21 1000 UTC","Wind":"from the S (180 degrees) at 3 MPH (3 KT) (direction variable):0","Visibility":"greater than 7 mile(s):0","Sky conditions":"mostly cloudy","Temperature":"33 F (1 C)","Dew Point":"28 F (-2 C)","Relative Humidity":"80%","Pressure (altimeter)":"29.71 in. Hg (1006 hPa)","ob":"EPGD 211000Z 18003KT 130V230 9999 BKN020 01/M02 Q1006 R11/290095","cycle":"10"},
{"_id":"4495a8a111ec85eb6d2389a681d290ee","_rev":"1-fdb726f261641cc7949284959ea0ac83","Location":"Gdansk-Rebiechowo, Poland (EPGD) 54-23N 018-28E 138M","Date":"Dec 15, 2011 - 06:00 PM EST / 2011.12.15 2300 UTC","Wind":"from the SSE (160 degrees) at 7 MPH (6 KT) (direction variable):0","Visibility":"greater than 7 mile(s):0","Sky conditions":"mostly cloudy","Temperature":"35 F (2 C)","Windchill":"28 F (-2 C):1","Dew Point":"33 F (1 C)","Relative Humidity":"93%","Pressure (altimeter)":"29.62 in. Hg (1003 hPa)","ob":"EPGD 152300Z 16006KT 130V200 9999 BKN043 02/01 Q1003","cycle":"23"},
{"_id":"4495a8a111ec85eb6d2389a681d298e7","_rev":"1-8274729dad579ea895d0fc82c2aa6995","Location":"Gdansk-Rebiechowo, Poland (EPGD) 54-23N 018-28E 138M","Date":"Dec 20, 2011 - 06:00 AM EST / 2011.12.20 1100 UTC","Wind":"from the S (190 degrees) at 6 MPH (5 KT):0","Visibility":"greater than 7 mile(s):0","Temperature":"35 F (2 C)","Windchill":"30 F (-1 C):1","Dew Point":"30 F (-1 C)","Relative Humidity":"80%","Pressure (altimeter)":"29.85 in. Hg (1011 hPa)","ob":"EPGD 201100Z 19005KT CAVOK 02/M01 Q1011 R11/190095","cycle":"11"},
{"_id":"4495a8a111ec85eb6d2389a681d29ab9","_rev":"1-ef06ee3f5e0ec4a01d2dfde22569681b","Location":"Gdansk-Rebiechowo, Poland (EPGD) 54-23N 018-28E 138M","Date":"Jan 28, 2012 - 04:00 AM EST / 2012.01.28 0900 UTC","Wind":"from the SE (130 degrees) at 10 MPH (9 KT):0","Visibility":"greater than 7 mile(s):0","Temperature":"10 F (-12 C)","Windchill":"-4 F (-20 C):1","Dew Point":"5 F (-15 C)","Relative Humidity":"78%","Pressure (altimeter)":"30.59 in. Hg (1036 hPa)","ob":"EPGD 280900Z 13009KT CAVOK M12/M15 Q1036 R11/190095","cycle":"9"},
{"_id":"4495a8a111ec85eb6d2389a681d29ac3","_rev":"1-75df23d70a687cb04b9e6db0a6adf73b","Location":"Gdansk-Rebiechowo, Poland (EPGD) 54-23N 018-28E 138M","Date":"Feb 18, 2012 - 07:00 AM EST / 2012.02.18 1200 UTC","Wind":"from the S (190 degrees) at 6 MPH (5 KT) (direction variable):0","Visibility":"greater than 7 mile(s):0","Sky conditions":"mostly cloudy","Temperature":"37 F (3 C)","Dew Point":"30 F (-1 C)","Relative Humidity":"74%","Pressure (altimeter)":"29.91 in. Hg (1013 hPa)","ob":"EPGD 181200Z 19005KT 130V220 9999 BKN013 03/M01 Q1013 R11/190095","cycle":"12"},
{"_id":"4495a8a111ec85eb6d2389a681d29f23","_rev":"1-a266ddc29570022416278ae6ed4e97f4","Location":"Gdansk-Rebiechowo, Poland (EPGD) 54-23N 018-28E 138M","Date":"Feb 13, 2012 - 03:00 AM EST / 2012.02.13 0800 UTC","Wind":"from the W (270 degrees) at 5 MPH (4 KT):0","Visibility":"3 mile(s):0","Sky conditions":"mostly cloudy","Temperature":"28 F (-2 C)","Windchill":"23 F (-5 C):1","Dew Point":"24 F (-4 C)","Relative Humidity":"86%","Pressure (altimeter)":"30.00 in. Hg (1016 hPa)","ob":"EPGD 130800Z 27004KT 6000 BKN006 M02/M04 Q1016 R11/490144","cycle":"8"},
{"_id":"4495a8a111ec85eb6d2389a681d2a30c","_rev":"1-d948218b234849474d3e59c75b8fc31e","Location":"Gdansk-Rebiechowo, Poland (EPGD) 54-23N 018-28E 138M","Date":"Jan 01, 2012 - 09:00 PM EST / 2012.01.02 0200 UTC","Wind":"Variable at 1 MPH (1 KT) (direction variable):0","Visibility":"less than 1 mile:0","Sky conditions":"obscured","Weather":"fog","Temperature":"39 F (4 C)","Dew Point":"39 F (4 C)","Relative Humidity":"100%","Pressure (altimeter)":"29.68 in. Hg (1005 hPa)","ob":"EPGD 020200Z VRB01KT 0700 R29/1100V2000 FG VV002 04/04 Q1005","cycle":"2"},
{"_id":"4495a8a111ec85eb6d2389a681d2a851","_rev":"1-e1bda1cca6988f0b97560b825d7dd56d","Location":"Gdansk-Rebiechowo, Poland (EPGD) 54-23N 018-28E 138M","Date":"Feb 03, 2012 - 07:00 AM EST / 2012.02.03 1200 UTC","Wind":"from the SW (220 degrees) at 9 MPH (8 KT) (direction variable):0","Visibility":"3 mile(s):0","Temperature":"12 F (-11 C)","Windchill":"0 F (-18 C):1","Dew Point":"3 F (-16 C)","Relative Humidity":"66%","Pressure (altimeter)":"30.45 in. Hg (1031 hPa)","ob":"EPGD 031200Z 22008KT 170V250 6000 NSC M11/M16 Q1031 R11/190095","cycle":"12"},
{"_id":"4495a8a111ec85eb6d2389a681d2af9c","_rev":"1-bb4434011414698727046f6dbc5d2226","Location":"Gdansk-Rebiechowo, Poland (EPGD) 54-23N 018-28E 138M","Date":"Jan 21, 2012 - 06:00 AM EST / 2012.01.21 1100 UTC","Wind":"from the S (170 degrees) at 6 MPH (5 KT) (direction variable):0","Visibility":"greater than 7 mile(s):0","Sky conditions":"mostly cloudy","Temperature":"33 F (1 C)","Windchill":"26 F (-3 C):1","Dew Point":"28 F (-2 C)","Relative Humidity":"80%","Pressure (altimeter)":"29.65 in. Hg (1004 hPa)","ob":"EPGD 211100Z 17005KT 130V210 9999 BKN016 01/M02 Q1004 R11/290095","cycle":"11"},
{"_id":"4495a8a111ec85eb6d2389a681d2b9ae","_rev":"1-ef03751ce05ba275edca7e8e935a0541","Location":"Gdansk-Rebiechowo, Poland (EPGD) 54-23N 018-28E 138M","Date":"Dec 13, 2011 - 11:00 PM EST / 2011.12.14 0400 UTC","Wind":"from the SSW (210 degrees) at 10 MPH (9 KT) (direction variable):0","Visibility":"greater than 7 mile(s):0","Sky conditions":"partly cloudy","Temperature":"41 F (5 C)","Dew Point":"35 F (2 C)","Relative Humidity":"80%","Pressure (altimeter)":"29.56 in. Hg (1001 hPa)","ob":"EPGD 140400Z 21009KT 180V250 9999 SCT013 05/02 Q1001","cycle":"4"},
{"_id":"4495a8a111ec85eb6d2389a681d2c301","_rev":"1-12e8c32eccd7c9a86951214d357aea68","Location":"Gdansk-Rebiechowo, Poland (EPGD) 54-23N 018-28E 138M","Date":"Dec 30, 2011 - 03:00 AM EST / 2011.12.30 0800 UTC","Wind":"from the SSE (160 degrees) at 3 MPH (3 KT) (direction variable):0","Visibility":"2 mile(s):0","Sky conditions":"mostly cloudy","Weather":"light snow, rain; mist","Temperature":"33 F (1 C)","Dew Point":"32 F (0 C)","Relative Humidity":"93%","Pressure (altimeter)":"29.47 in. Hg (0998 hPa)","ob":"EPGD 300800Z 16003KT 130V230 4000 -SNRA BR SCT003 BKN005 01/00 Q0998","cycle":"8"},
{"_id":"4495a8a111ec85eb6d2389a681d2c307","_rev":"1-315234ff9630d9ce36052737ac2e1c27","Location":"Gdansk-Rebiechowo, Poland (EPGD) 54-23N 018-28E 138M","Date":"Feb 08, 2012 - 08:00 PM EST / 2012.02.09 0100 UTC","Wind":"from the ESE (120 degrees) at 5 MPH (4 KT):0","Visibility":"less than 1 mile:0","Sky conditions":"mostly cloudy","Weather":"snow; mist","Temperature":"24 F (-4 C)","Windchill":"17 F (-8 C):1","Dew Point":"23 F (-5 C)","Relative Humidity":"92%","Pressure (altimeter)":"30.39 in. Hg (1029 hPa)","ob":"EPGD 090100Z 12004KT 1600 SN BR BKN006 M04/M05 Q1029 R11/490042","cycle":"1"},
{"_id":"4495a8a111ec85eb6d2389a681d2c74e","_rev":"1-336c5a3b77383f1fa0deee0fe9f760e6","Location":"Gdansk-Rebiechowo, Poland (EPGD) 54-23N 018-28E 138M","Date":"Feb 03, 2012 - 08:00 PM EST / 2012.02.04 0100 UTC","Wind":"from the SW (220 degrees) at 3 MPH (3 KT) (direction variable):0","Visibility":"2 mile(s):0","Sky conditions":"mostly cloudy","Weather":"mist","Temperature":"6 F (-14 C)","Dew Point":"3 F (-16 C)","Relative Humidity":"84%","Pressure (altimeter)":"30.53 in. Hg (1034 hPa)","ob":"EPGD 040100Z 22003KT 180V270 4000 BR BKN030 M14/M16 Q1034 R11/490148","cycle":"1"},
{"_id":"4495a8a111ec85eb6d2389a681d2d567","_rev":"1-c655e4b0e33645c231b037033283d9a3","Location":"Gdansk-Rebiechowo, Poland (EPGD) 54-23N 018-28E 138M","Date":"Feb 18, 2012 - 11:00 PM EST / 2012.02.19 0400 UTC","Wind":"from the SSW (200 degrees) at 10 MPH (9 KT) (direction variable):0","Visibility":"4 mile(s):0","Sky conditions":"mostly cloudy","Weather":"light rain","Temperature":"37 F (3 C)","Dew Point":"35 F (2 C)","Relative Humidity":"93%","Pressure (altimeter)":"29.62 in. Hg (1003 hPa)","ob":"EPGD 190400Z 20009KT 170V230 7000 -RA BKN004 03/02 Q1003 R11/290095","cycle":"4"},
{"_id":"4495a8a111ec85eb6d2389a681d2e398","_rev":"1-abdfd9ef039d3b015540453574261842","Location":"Gdansk-Rebiechowo, Poland (EPGD) 54-23N 018-28E 138M","Date":"Dec 18, 2011 - 07:00 AM EST / 2011.12.18 1200 UTC","Wind":"from the WSW (250 degrees) at 15 MPH (13 KT) gusting to 26 MPH (23 KT):0","Visibility":"greater than 7 mile(s):0","Sky conditions":"mostly cloudy","Weather":"light rain showers, snow","Temperature":"35 F (2 C)","Windchill":"24 F (-4 C):1","Dew Point":"32 F (0 C)","Relative Humidity":"86%","Pressure (altimeter)":"29.29 in. Hg (0992 hPa)","ob":"EPGD 181200Z 25013G23KT 9999 -SHRASN FEW006 BKN011 02/M00 Q0992","cycle":"12"},
{"_id":"4495a8a111ec85eb6d2389a681d2e8b2","_rev":"1-38d130e6531c7772cb7c619404536ad2","Location":"Gdansk-Rebiechowo, Poland (EPGD) 54-23N 018-28E 138M","Date":"Dec 23, 2011 - 09:00 AM EST / 2011.12.23 1400 UTC","Wind":"from the SSW (200 degrees) at 6 MPH (5 KT) (direction variable):0","Visibility":"1 mile(s):0","Sky conditions":"overcast","Weather":"mist","Temperature":"33 F (1 C)","Windchill":"26 F (-3 C):1","Dew Point":"32 F (0 C)","Relative Humidity":"93%","Pressure (altimeter)":"29.94 in. Hg (1014 hPa)","ob":"EPGD 231400Z 20005KT 150V240 3000 BR OVC003 01/M00 Q1014","cycle":"14"},
{"_id":"4495a8a111ec85eb6d2389a681d2f70a","_rev":"1-e6496b3bbae536299453ae5aa4fb07e0","Location":"Gdansk-Rebiechowo, Poland (EPGD) 54-23N 018-28E 138M","Date":"Feb 04, 2012 - 11:00 AM EST / 2012.02.04 1600 UTC","Wind":"from the E (100 degrees) at 8 MPH (7 KT):0","Visibility":"1 mile(s):0","Sky conditions":"mostly cloudy","Weather":"light snow; mist","Temperature":"6 F (-14 C)","Windchill":"-7 F (-22 C):2","Dew Point":"3 F (-16 C)","Relative Humidity":"84%","Pressure (altimeter)":"30.59 in. Hg (1036 hPa)","ob":"EPGD 041600Z 10007KT 1800 -SN BR FEW006 BKN012 M14/M16 Q1036 R11/490136","cycle":"16"},
{"_id":"4495a8a111ec85eb6d2389a681d2ff25","_rev":"1-adf5936f92de47f66ee639d3fc3d1310","Location":"Gdansk-Rebiechowo, Poland (EPGD) 54-23N 018-28E 138M","Date":"Jan 15, 2012 - 04:00 PM EST / 2012.01.15 2100 UTC","Wind":"from the NW (320 degrees) at 6 MPH (5 KT):0","Visibility":"3 mile(s):0","Sky conditions":"mostly cloudy","Weather":"light snow showers","Temperature":"28 F (-2 C)","Windchill":"21 F (-6 C):1","Dew Point":"26 F (-3 C)","Relative Humidity":"92%","Pressure (altimeter)":"30.15 in. Hg (1021 hPa)","ob":"EPGD 152100Z 32005KT 6000 -SHSN SCT006 BKN015 M02/M03 Q1021 R11/590142","cycle":"21"},
{"_id":"4495a8a111ec85eb6d2389a681d30c8d","_rev":"1-0d81a368c38189095df59ac13c7228da","Location":"Gdansk-Rebiechowo, Poland (EPGD) 54-23N 018-28E 138M","Date":"Jan 10, 2012 - 01:00 AM EST / 2012.01.10 0600 UTC","Wind":"from the SE (130 degrees) at 5 MPH (4 KT) (direction variable):0","Visibility":"2 mile(s):0","Sky conditions":"mostly cloudy","Weather":"mist","Temperature":"30 F (-1 C)","Windchill":"24 F (-4 C):1","Dew Point":"30 F (-1 C)","Relative Humidity":"100%","Pressure (altimeter)":"30.00 in. Hg (1016 hPa)","ob":"EPGD 100600Z 13004KT 100V170 4000 BR BKN003 M01/M01 Q1016 R11/590295","cycle":"6"},
{"_id":"4495a8a111ec85eb6d2389a681d316e3","_rev":"1-38d1bc31ec09f9a235956570132f8ec4","Location":"Gdansk-Rebiechowo, Poland (EPGD) 54-23N 018-28E 138M","Date":"Dec 27, 2011 - 04:00 PM EST / 2011.12.27 2100 UTC","Wind":"from the W (270 degrees) at 12 MPH (10 KT):0","Visibility":"greater than 7 mile(s):0","Temperature":"39 F (4 C)","Dew Point":"35 F (2 C)","Relative Humidity":"86%","Pressure (altimeter)":"30.36 in. Hg (1028 hPa)","ob":"EPGD 272100Z 27010KT CAVOK 04/02 Q1028","cycle":"21"},
{"_id":"4495a8a111ec85eb6d2389a681d317b8","_rev":"1-0c802a3842da12549eb121a675ea3bee","Location":"Gdansk-Rebiechowo, Poland (EPGD) 54-23N 018-28E 138M","Date":"Feb 10, 2012 - 03:00 AM EST / 2012.02.10 0800 UTC","Wind":"Variable at 1 MPH (1 KT):0","Visibility":"3 mile(s):0","Sky conditions":"mostly cloudy","Temperature":"8 F (-13 C)","Dew Point":"5 F (-15 C)","Relative Humidity":"84%","Pressure (altimeter)":"30.71 in. Hg (1040 hPa)","ob":"EPGD 100800Z VRB01KT 6000 BKN019 M13/M15 Q1040 R11/090095","cycle":"8"},
{"_id":"4495a8a111ec85eb6d2389a681d320a7","_rev":"1-80419224a36d55db689a968b399db014","Location":"Gdansk-Rebiechowo, Poland (EPGD) 54-23N 018-28E 138M","Date":"Feb 10, 2012 - 07:00 PM EST / 2012.02.11 0000 UTC","Wind":"from the WNW (290 degrees) at 1 MPH (1 KT):0","Visibility":"greater than 7 mile(s):0","Temperature":"0 F (-18 C)","Dew Point":"-4 F (-20 C)","Relative Humidity":"84%","Pressure (altimeter)":"30.68 in. Hg (1039 hPa)","ob":"EPGD 110000Z 29001KT CAVOK M18/M20 Q1039 R29/090095","cycle":"0"},
{"_id":"4495a8a111ec85eb6d2389a681d3266b","_rev":"1-ab9c38b4efdced6131eb9f930ce422b1","Location":"Gdansk-Rebiechowo, Poland (EPGD) 54-23N 018-28E 138M","Date":"Dec 29, 2011 - 09:00 AM EST / 2011.12.29 1400 UTC","Wind":"from the SW (230 degrees) at 15 MPH (13 KT) gusting to 28 MPH (24 KT) (direction variable):0","Visibility":"greater than 7 mile(s):0","Sky conditions":"mostly cloudy","Temperature":"41 F (5 C)","Dew Point":"33 F (1 C)","Relative Humidity":"75%","Pressure (altimeter)":"29.65 in. Hg (1004 hPa)","ob":"EPGD 291400Z 23013G24KT 190V260 9999 BKN026 05/01 Q1004","cycle":"14"},
{"_id":"4495a8a111ec85eb6d2389a681d32bbe","_rev":"1-a61a46fce2ec2d396b3505020b8a1714","Location":"Gdansk-Rebiechowo, Poland (EPGD) 54-23N 018-28E 138M","Date":"Jan 14, 2012 - 04:00 PM EST / 2012.01.14 2100 UTC","Wind":"from the NNW (330 degrees) at 20 MPH (17 KT) gusting to 31 MPH (27 KT):0","Visibility":"greater than 7 mile(s):0","Sky conditions":"partly cloudy","Temperature":"32 F (0 C)","Windchill":"19 F (-7 C):1","Dew Point":"19 F (-7 C)","Relative Humidity":"59%","Pressure (altimeter)":"29.88 in. Hg (1012 hPa)","ob":"EPGD 142100Z 33017G27KT 9999 SCT036 00/M07 Q1012 R11/590239","cycle":"21"},
{"_id":"4495a8a111ec85eb6d2389a681d33473","_rev":"1-eed96b3e4f1182a6a23b8d4999094df3","Location":"Gdansk-Rebiechowo, Poland (EPGD) 54-23N 018-28E 138M","Date":"Feb 19, 2012 - 02:00 AM EST / 2012.02.19 0700 UTC","Wind":"from the SSW (200 degrees) at 12 MPH (10 KT) (direction variable):0","Visibility":"greater than 7 mile(s):0","Sky conditions":"mostly cloudy","Temperature":"37 F (3 C)","Dew Point":"35 F (2 C)","Relative Humidity":"93%","Pressure (altimeter)":"29.59 in. Hg (1002 hPa)","ob":"EPGD 190700Z 20010KT 160V230 9999 BKN005 03/02 Q1002 R11/290095","cycle":"7"},
{"_id":"4495a8a111ec85eb6d2389a681d3421d","_rev":"1-cf7b3d8262cc9bc1cb24c6f33c32146b","Location":"Gdansk-Rebiechowo, Poland (EPGD) 54-23N 018-28E 138M","Date":"Jan 05, 2012 - 07:00 PM EST / 2012.01.06 0000 UTC","Wind":"from the SSE (160 degrees) at 5 MPH (4 KT) (direction variable):0","Visibility":"greater than 7 mile(s):0","Sky conditions":"mostly cloudy","Temperature":"37 F (3 C)","Dew Point":"33 F (1 C)","Relative Humidity":"86%","Pressure (altimeter)":"28.73 in. Hg (0973 hPa)","ob":"EPGD 060000Z 16004KT 120V200 9999 BKN008 03/01 Q0973","cycle":"0"},
{"_id":"4495a8a111ec85eb6d2389a681d348c0","_rev":"1-cb136c0b0aeb663b5344b70982124896","Location":"Gdansk-Rebiechowo, Poland (EPGD) 54-23N 018-28E 138M","Date":"Jan 18, 2012 - 03:00 PM EST / 2012.01.18 2000 UTC","Wind":"from the SW (220 degrees) at 8 MPH (7 KT) (direction variable):0","Visibility":"greater than 7 mile(s):0","Sky conditions":"mostly cloudy","Temperature":"32 F (0 C)","Windchill":"24 F (-4 C):1","Dew Point":"28 F (-2 C)","Relative Humidity":"86%","Pressure (altimeter)":"29.91 in. Hg (1013 hPa)","ob":"EPGD 182000Z 22007KT 180V260 9999 BKN010 M00/M02 Q1013 R11/290095","cycle":"20"},
{"_id":"4495a8a111ec85eb6d2389a681d35398","_rev":"1-6b53386713141760d625d17fa7e88ed0","Location":"Gdansk-Rebiechowo, Poland (EPGD) 54-23N 018-28E 138M","Date":"Jan 17, 2012 - 09:00 AM EST / 2012.01.17 1400 UTC","Wind":"Calm:0","Visibility":"greater than 7 mile(s):0","Sky conditions":"mostly clear","Temperature":"30 F (-1 C)","Dew Point":"23 F (-5 C)","Relative Humidity":"74%","Pressure (altimeter)":"30.21 in. Hg (1023 hPa)","ob":"EPGD 171400Z 00000KT 9999 FEW030 M01/M05 Q1023 R11/290095","cycle":"14"},
{"_id":"4495a8a111ec85eb6d2389a681d36137","_rev":"1-b033c827f08f94c532007ce8970b1a0c","Location":"Gdansk-Rebiechowo, Poland (EPGD) 54-23N 018-28E 138M","Date":"Feb 14, 2012 - 10:00 AM EST / 2012.02.14 1500 UTC","Wind":"from the SSW (210 degrees) at 8 MPH (7 KT) (direction variable):0","Visibility":"greater than 7 mile(s):0","Sky conditions":"mostly clear","Temperature":"30 F (-1 C)","Windchill":"23 F (-5 C):1","Dew Point":"19 F (-7 C)","Relative Humidity":"63%","Pressure (altimeter)":"29.74 in. Hg (1007 hPa)","ob":"EPGD 141500Z 21007KT 170V260 9999 FEW027 M01/M07 Q1007 R29/190095","cycle":"15"},
{"_id":"4495a8a111ec85eb6d2389a681d368c8","_rev":"1-b011a204b67374550636f2e7b9fa4ad0","Location":"Gdansk-Rebiechowo, Poland (EPGD) 54-23N 018-28E 138M","Date":"Jan 18, 2012 - 09:00 AM EST / 2012.01.18 1400 UTC","Wind":"from the WSW (240 degrees) at 7 MPH (6 KT):0","Visibility":"2 mile(s):0","Sky conditions":"mostly cloudy","Weather":"mist","Temperature":"33 F (1 C)","Windchill":"26 F (-3 C):1","Dew Point":"32 F (0 C)","Relative Humidity":"93%","Pressure (altimeter)":"30.09 in. Hg (1019 hPa)","ob":"EPGD 181400Z 24006KT 4000 BR BKN006 01/00 Q1019","cycle":"14"},
{"_id":"4495a8a111ec85eb6d2389a681d36cd4","_rev":"1-ff5c1d313951d4cd27f940db770f2c45","Location":"Gdansk-Rebiechowo, Poland (EPGD) 54-23N 018-28E 138M","Date":"Dec 22, 2011 - 10:00 AM EST / 2011.12.22 1500 UTC","Wind":"Variable at 2 MPH (2 KT):0","Visibility":"1 mile(s):0","Sky conditions":"mostly cloudy","Weather":"mist","Temperature":"23 F (-5 C)","Dew Point":"21 F (-6 C)","Relative Humidity":"92%","Pressure (altimeter)":"30.12 in. Hg (1020 hPa)","ob":"EPGD 221500Z VRB02KT 2500 BR BKN005 M05/M06 Q1020","cycle":"15"},
{"_id":"4495a8a111ec85eb6d2389a681d36f94","_rev":"1-33075f83df116a1f437d619927441e2e","Location":"Gdansk-Rebiechowo, Poland (EPGD) 54-23N 018-28E 138M","Date":"Jan 18, 2012 - 07:00 AM EST / 2012.01.18 1200 UTC","Wind":"from the WSW (250 degrees) at 6 MPH (5 KT) (direction variable):0","Visibility":"1 mile(s):0","Sky conditions":"mostly cloudy","Weather":"light rain","Temperature":"35 F (2 C)","Windchill":"30 F (-1 C):1","Dew Point":"33 F (1 C)","Relative Humidity":"93%","Pressure (altimeter)":"30.12 in. Hg (1020 hPa)","ob":"EPGD 181200Z 25005KT 200V270 3000 -RA FEW004 BKN007 02/01 Q1020 R11/290095","cycle":"12"},
{"_id":"4495a8a111ec85eb6d2389a681d3726f","_rev":"1-3c3f2b8e4e958934a1f79f103eb8b459","Location":"Gdansk-Rebiechowo, Poland (EPGD) 54-23N 018-28E 138M","Date":"Jan 06, 2012 - 12:00 AM EST / 2012.01.06 0500 UTC","Wind":"from the N (360 degrees) at 10 MPH (9 KT):0","Visibility":"greater than 7 mile(s):0","Sky conditions":"mostly cloudy","Temperature":"37 F (3 C)","Dew Point":"35 F (2 C)","Relative Humidity":"93%","Pressure (altimeter)":"29.03 in. Hg (0983 hPa)","ob":"EPGD 060500Z 36009KT 9999 BKN004 03/02 Q0983","cycle":"5"},
{"_id":"4495a8a111ec85eb6d2389a681d37fb4","_rev":"1-ab14474df114ee7be1400f19a21e19bd","Location":"Gdansk-Rebiechowo, Poland (EPGD) 54-23N 018-28E 138M","Date":"Jan 04, 2012 - 02:00 PM EST / 2012.01.04 1900 UTC","Wind":"from the WSW (250 degrees) at 18 MPH (16 KT) gusting to 31 MPH (27 KT):0","Visibility":"greater than 7 mile(s):0","Sky conditions":"mostly cloudy","Temperature":"39 F (4 C)","Dew Point":"32 F (0 C)","Relative Humidity":"75%","Pressure (altimeter)":"29.47 in. Hg (0998 hPa)","ob":"EPGD 041900Z 25016G27KT 9999 FEW009 BKN021 04/00 Q0998","cycle":"19"},
{"_id":"4495a8a111ec85eb6d2389a681d3813c","_rev":"1-eebe283410ea6a4efc00e696facf573e","Location":"Gdansk-Rebiechowo, Poland (EPGD) 54-23N 018-28E 138M","Date":"Jan 19, 2012 - 06:00 PM EST / 2012.01.19 2300 UTC","Wind":"from the SW (230 degrees) at 6 MPH (5 KT) (direction variable):0","Visibility":"1 mile(s):0","Sky conditions":"mostly cloudy","Weather":"light snow","Temperature":"33 F (1 C)","Windchill":"26 F (-3 C):1","Dew Point":"32 F (0 C)","Relative Humidity":"93%","Pressure (altimeter)":"29.38 in. Hg (0995 hPa)","ob":"EPGD 192300Z 23005KT 190V280 3000 -SN BKN005 01/M00 Q0995","cycle":"23"},
{"_id":"4495a8a111ec85eb6d2389a681d38248","_rev":"1-57948ff026b29b561b249cce8efa0958","Location":"Gdansk-Rebiechowo, Poland (EPGD) 54-23N 018-28E 138M","Date":"Jan 22, 2012 - 11:00 AM EST / 2012.01.22 1600 UTC","Wind":"from the SW (230 degrees) at 8 MPH (7 KT) (direction variable):0","Visibility":"greater than 7 mile(s):0","Sky conditions":"mostly cloudy","Temperature":"35 F (2 C)","Windchill":"28 F (-2 C):1","Dew Point":"33 F (1 C)","Relative Humidity":"93%","Pressure (altimeter)":"29.23 in. Hg (0990 hPa)","ob":"EPGD 221600Z 23007KT 200V260 9999 BKN013 02/01 Q0990 R11/290066","cycle":"16"},
{"_id":"4495a8a111ec85eb6d2389a681d3895d","_rev":"1-cc2161a1d4c02deb916450a3e55b0d3f","Location":"Gdansk-Rebiechowo, Poland (EPGD) 54-23N 018-28E 138M","Date":"Jan 11, 2012 - 11:00 AM EST / 2012.01.11 1600 UTC","Wind":"from the WNW (290 degrees) at 23 MPH (20 KT):0","Visibility":"greater than 7 mile(s):0","Sky conditions":"mostly cloudy","Temperature":"42 F (6 C)","Dew Point":"37 F (3 C)","Relative Humidity":"81%","Pressure (altimeter)":"30.03 in. Hg (1017 hPa)","ob":"EPGD 111600Z 29020KT 9999 FEW015 BKN024 06/03 Q1017 R11/290095","cycle":"16"},
{"_id":"4495a8a111ec85eb6d2389a681d38987","_rev":"1-109cdeaa7472109458630188849b9a59","Location":"Gdansk-Rebiechowo, Poland (EPGD) 54-23N 018-28E 138M","Date":"Jan 25, 2012 - 01:00 PM EST / 2012.01.25 1800 UTC","Wind":"from the NW (310 degrees) at 6 MPH (5 KT):0","Visibility":"greater than 7 mile(s):0","Sky conditions":"mostly cloudy","Weather":"light snow showers; Towering cumulus clouds observed","Temperature":"30 F (-1 C)","Windchill":"23 F (-5 C):1","Dew Point":"26 F (-3 C)","Relative Humidity":"86%","Pressure (altimeter)":"30.21 in. Hg (1023 hPa)","ob":"EPGD 251800Z 31005KT 9999 -SHSN FEW009 BKN021TCU M01/M03 Q1023 R11/290095","cycle":"18"},
{"_id":"4495a8a111ec85eb6d2389a681d39696","_rev":"1-69f017da3e60321fedd0c59540a62b95","Location":"Gdansk-Rebiechowo, Poland (EPGD) 54-23N 018-28E 138M","Date":"Feb 01, 2012 - 08:00 AM EST / 2012.02.01 1300 UTC","Wind":"from the E (080 degrees) at 8 MPH (7 KT):0","Visibility":"greater than 7 mile(s):0","Sky conditions":"mostly clear","Temperature":"14 F (-10 C)","Windchill":"3 F (-16 C):1","Dew Point":"5 F (-15 C)","Relative Humidity":"66%","Pressure (altimeter)":"30.71 in. Hg (1040 hPa)","ob":"EPGD 011300Z 08007KT 9999 FEW006 M10/M15 Q1040 R11/490142","cycle":"13"},
{"_id":"4495a8a111ec85eb6d2389a681d39a1c","_rev":"1-2460f68420821ff8be8dd66d13549b84","Location":"Gdansk-Rebiechowo, Poland (EPGD) 54-23N 018-28E 138M","Date":"Jan 19, 2012 - 06:00 AM EST / 2012.01.19 1100 UTC","Wind":"from the WSW (250 degrees) at 9 MPH (8 KT) (direction variable):0","Visibility":"greater than 7 mile(s):0","Sky conditions":"mostly cloudy","Temperature":"37 F (3 C)","Dew Point":"32 F (0 C)","Relative Humidity":"80%","Pressure (altimeter)":"29.71 in. Hg (1006 hPa)","ob":"EPGD 191100Z 25008KT 220V280 9999 BKN015 03/00 Q1006 R11/290095","cycle":"11"},
{"_id":"4495a8a111ec85eb6d2389a681d3a97c","_rev":"1-5f118916cf1f6ce2be2a68d919bed099","Location":"Gdansk-Rebiechowo, Poland (EPGD) 54-23N 018-28E 138M","Date":"Dec 28, 2011 - 09:00 PM EST / 2011.12.29 0200 UTC","Wind":"from the SW (220 degrees) at 8 MPH (7 KT) (direction variable):0","Visibility":"greater than 7 mile(s):0","Sky conditions":"mostly cloudy","Temperature":"41 F (5 C)","Dew Point":"37 F (3 C)","Relative Humidity":"86%","Pressure (altimeter)":"29.83 in. Hg (1010 hPa)","ob":"EPGD 290200Z 22007KT 170V250 9999 BKN008 05/03 Q1010","cycle":"2"},
{"_id":"4495a8a111ec85eb6d2389a681d3b276","_rev":"1-3984053fedcda7b5d843311031642cd7","Location":"Gdansk-Rebiechowo, Poland (EPGD) 54-23N 018-28E 138M","Date":"Feb 09, 2012 - 09:00 AM EST / 2012.02.09 1400 UTC","Wind":"from the ENE (070 degrees) at 12 MPH (10 KT):0","Visibility":"greater than 7 mile(s):0","Sky conditions":"mostly cloudy","Temperature":"17 F (-8 C)","Windchill":"3 F (-16 C):1","Dew Point":"12 F (-11 C)","Relative Humidity":"78%","Pressure (altimeter)":"30.62 in. Hg (1037 hPa)","ob":"EPGD 091400Z 07010KT 9999 FEW008 BKN012 M08/M11 Q1037 R11/490333","cycle":"14"},
{"_id":"4495a8a111ec85eb6d2389a681d3ba97","_rev":"1-4518b86bf9e1f20f5b33a8a86143fb2c","Location":"Gdansk-Rebiechowo, Poland (EPGD) 54-23N 018-28E 138M","Date":"Feb 15, 2012 - 03:00 AM EST / 2012.02.15 0800 UTC","Wind":"from the E (100 degrees) at 12 MPH (10 KT):0","Visibility":"1 mile(s):0","Sky conditions":"mostly cloudy","Weather":"light snow; low drifting snow; mist","Temperature":"26 F (-3 C)","Windchill":"15 F (-9 C):1","Dew Point":"24 F (-4 C)","Relative Humidity":"92%","Pressure (altimeter)":"28.91 in. Hg (0979 hPa)","ob":"EPGD 150800Z 10010KT 2000 -SN DRSN BR BKN003 M03/M04 Q0979 R11/490332","cycle":"8"},
{"_id":"4495a8a111ec85eb6d2389a681d3ca8f","_rev":"1-2220711948da92c501c621dc202ac3e8","Location":"Gdansk-Rebiechowo, Poland (EPGD) 54-23N 018-28E 138M","Date":"Dec 17, 2011 - 12:00 PM EST / 2011.12.17 1700 UTC","Wind":"from the W (270 degrees) at 13 MPH (11 KT):0","Visibility":"4 mile(s):0","Sky conditions":"mostly cloudy","Weather":"light drizzle","Temperature":"37 F (3 C)","Dew Point":"33 F (1 C)","Relative Humidity":"86%","Pressure (altimeter)":"29.00 in. Hg (0982 hPa)","ob":"EPGD 171700Z 27011KT 8000 -DZ BKN008 03/01 Q0982 R11/290064","cycle":"17"},
{"_id":"4495a8a111ec85eb6d2389a681d3cab1","_rev":"1-137ea2a2c85063fc3c101dad04af274e","Location":"Gdansk-Rebiechowo, Poland (EPGD) 54-23N 018-28E 138M","Date":"Jan 05, 2012 - 06:00 PM EST / 2012.01.05 2300 UTC","Wind":"from the S (170 degrees) at 6 MPH (5 KT) (direction variable):0","Visibility":"greater than 7 mile(s):0","Sky conditions":"mostly cloudy","Temperature":"37 F (3 C)","Dew Point":"33 F (1 C)","Relative Humidity":"86%","Pressure (altimeter)":"28.73 in. Hg (0973 hPa)","ob":"EPGD 052300Z 17005KT 130V220 9999 BKN013 03/01 Q0973","cycle":"23"},
{"_id":"4495a8a111ec85eb6d2389a681d3d38a","_rev":"1-c09e80ff9a4c436b36183c38c5d1ad47","Location":"Gdansk-Rebiechowo, Poland (EPGD) 54-23N 018-28E 138M","Date":"Jan 12, 2012 - 04:00 PM EST / 2012.01.12 2100 UTC","Wind":"from the WNW (300 degrees) at 25 MPH (22 KT):0","Visibility":"2 mile(s):0","Sky conditions":"partly cloudy","Weather":"light snow showers; Towering cumulus clouds observed","Temperature":"35 F (2 C)","Windchill":"23 F (-5 C):1","Dew Point":"32 F (0 C)","Relative Humidity":"86%","Pressure (altimeter)":"29.44 in. Hg (0997 hPa)","ob":"EPGD 122100Z 30022KT 4000 -SHSN SCT005 SCT010TCU SCT013 02/M00 Q0997","cycle":"21"},
{"_id":"4495a8a111ec85eb6d2389a681d3d795","_rev":"1-f9c7a548aaaa9bf0851817a2a6a02a1e","Location":"Gdansk-Rebiechowo, Poland (EPGD) 54-23N 018-28E 138M","Date":"Jan 29, 2012 - 07:00 PM EST / 2012.01.30 0000 UTC","Wind":"Calm:0","Visibility":"greater than 7 mile(s):0","Temperature":"1 F (-17 C)","Dew Point":"-2 F (-19 C)","Relative Humidity":"84%","Pressure (altimeter)":"30.77 in. Hg (1042 hPa)","ob":"EPGD 300000Z 00000KT CAVOK M17/M19 Q1042 R11/190095","cycle":"0"},
{"_id":"4495a8a111ec85eb6d2389a681d3da64","_rev":"1-a0b3ea30905f95a878ae6b179b160dab","Location":"Gdansk-Rebiechowo, Poland (EPGD) 54-23N 018-28E 138M","Date":"Feb 10, 2012 - 11:00 PM EST / 2012.02.11 0400 UTC","Wind":"Variable at 2 MPH (2 KT):0","Visibility":"greater than 7 mile(s):0","Sky conditions":"mostly cloudy","Temperature":"-2 F (-19 C)","Dew Point":"-5 F (-21 C)","Relative Humidity":"84%","Pressure (altimeter)":"30.62 in. Hg (1037 hPa)","ob":"EPGD 110400Z VRB02KT 9999 FEW010 SCT014 BKN028 M19/M21 Q1037 R11/090095","cycle":"4"},
{"_id":"4495a8a111ec85eb6d2389a681d3e50e","_rev":"1-acc995f9470954842348c842803ec23a","Location":"Gdansk-Rebiechowo, Poland (EPGD) 54-23N 018-28E 138M","Date":"Dec 14, 2011 - 06:00 AM EST / 2011.12.14 1100 UTC","Wind":"from the SSW (210 degrees) at 13 MPH (11 KT) (direction variable):0","Visibility":"greater than 7 mile(s):0","Temperature":"44 F (7 C)","Dew Point":"35 F (2 C)","Relative Humidity":"70%","Pressure (altimeter)":"29.62 in. Hg (1003 hPa)","ob":"EPGD 141100Z 21011KT 160V240 CAVOK 07/02 Q1003","cycle":"11"},
{"_id":"4495a8a111ec85eb6d2389a681d3e7ae","_rev":"1-31342616df175acb1ab01e4421843851","Location":"Gdansk-Rebiechowo, Poland (EPGD) 54-23N 018-28E 138M","Date":"Feb 14, 2012 - 05:00 PM EST / 2012.02.14 2200 UTC","Wind":"from the S (190 degrees) at 12 MPH (10 KT):0","Visibility":"1 mile(s):0","Sky conditions":"mostly cloudy","Weather":"light snow","Temperature":"24 F (-4 C)","Windchill":"12 F (-11 C):1","Dew Point":"21 F (-6 C)","Relative Humidity":"85%","Pressure (altimeter)":"29.38 in. Hg (0995 hPa)","ob":"EPGD 142200Z 19010KT 2500 -SN FEW005 BKN011 M04/M06 Q0995 R11/590243","cycle":"22"},
{"_id":"4495a8a111ec85eb6d2389a681d3f2ff","_rev":"1-ec81408d34f5f8d7ad6ae9ba2695f035","Location":"Gdansk-Rebiechowo, Poland (EPGD) 54-23N 018-28E 138M","Date":"Jan 17, 2012 - 11:00 AM EST / 2012.01.17 1600 UTC","Wind":"from the S (180 degrees) at 6 MPH (5 KT) (direction variable):0","Visibility":"greater than 7 mile(s):0","Sky conditions":"mostly cloudy","Temperature":"26 F (-3 C)","Windchill":"19 F (-7 C):1","Dew Point":"23 F (-5 C)","Relative Humidity":"86%","Pressure (altimeter)":"30.21 in. Hg (1023 hPa)","ob":"EPGD 171600Z 18005KT 130V210 9999 BKN026 M03/M05 Q1023 R11/290095","cycle":"16"},
{"_id":"4495a8a111ec85eb6d2389a681d40077","_rev":"1-ecaada624fb41be499d3764d3f7d8127","Location":"Gdansk-Rebiechowo, Poland (EPGD) 54-23N 018-28E 138M","Date":"Jan 01, 2012 - 07:00 AM EST / 2012.01.01 1200 UTC","Wind":"from the S (170 degrees) at 8 MPH (7 KT) (direction variable):0","Visibility":"greater than 7 mile(s):0","Sky conditions":"mostly clear","Temperature":"35 F (2 C)","Windchill":"28 F (-2 C):1","Dew Point":"28 F (-2 C)","Relative Humidity":"74%","Pressure (altimeter)":"29.80 in. Hg (1009 hPa)","ob":"EPGD 011200Z 17007KT 110V200 9999 FEW030 02/M02 Q1009","cycle":"12"},
{"_id":"4495a8a111ec85eb6d2389a681d40267","_rev":"1-99287730e8bb91561e7a29df93317341","Location":"Gdansk-Rebiechowo, Poland (EPGD) 54-23N 018-28E 138M","Date":"Jan 31, 2012 - 03:00 AM EST / 2012.01.31 0800 UTC","Wind":"Calm:0","Visibility":"3 mile(s):0","Temperature":"1 F (-17 C)","Dew Point":"-4 F (-20 C)","Relative Humidity":"77%","Pressure (altimeter)":"30.74 in. Hg (1041 hPa)","ob":"EPGD 310800Z 00000KT 6000 NSC M17/M20 Q1041 R11/190095","cycle":"8"},
{"_id":"4495a8a111ec85eb6d2389a681d408c1","_rev":"1-3a7e06ef900907336e6d969ea9b098f5","Location":"Gdansk-Rebiechowo, Poland (EPGD) 54-23N 018-28E 138M","Date":"Dec 16, 2011 - 08:00 AM EST / 2011.12.16 1300 UTC","Wind":"from the ESE (120 degrees) at 12 MPH (10 KT):0","Visibility":"4 mile(s):0","Sky conditions":"mostly cloudy","Temperature":"35 F (2 C)","Windchill":"26 F (-3 C):1","Dew Point":"32 F (0 C)","Relative Humidity":"86%","Pressure (altimeter)":"29.18 in. Hg (0988 hPa)","ob":"EPGD 161300Z 12010KT 8000 FEW011 BKN034 02/00 Q0988","cycle":"13"},
{"_id":"4495a8a111ec85eb6d2389a681d40b13","_rev":"1-2366a7cbd5b04c02f6d78a50d08fd2e1","Location":"Gdansk-Rebiechowo, Poland (EPGD) 54-23N 018-28E 138M","Date":"Jan 27, 2012 - 08:00 AM EST / 2012.01.27 1300 UTC","Wind":"from the ESE (120 degrees) at 9 MPH (8 KT):0","Visibility":"4 mile(s):0","Sky conditions":"mostly clear","Temperature":"15 F (-9 C)","Windchill":"3 F (-16 C):1","Dew Point":"10 F (-12 C)","Relative Humidity":"78%","Pressure (altimeter)":"30.47 in. Hg (1032 hPa)","ob":"EPGD 271300Z 12008KT 8000 FEW009 M09/M12 Q1032 R11/190095","cycle":"13"},
{"_id":"4495a8a111ec85eb6d2389a681d4101f","_rev":"1-e054dda5b87441af7ad319e01c04260d","Location":"Gdansk-Rebiechowo, Poland (EPGD) 54-23N 018-28E 138M","Date":"Jan 08, 2012 - 12:00 PM EST / 2012.01.08 1700 UTC","Wind":"from the WNW (290 degrees) at 13 MPH (11 KT):0","Visibility":"3 mile(s):0","Sky conditions":"mostly cloudy","Weather":"light rain","Temperature":"37 F (3 C)","Dew Point":"33 F (1 C)","Relative Humidity":"86%","Pressure (altimeter)":"29.80 in. Hg (1009 hPa)","ob":"EPGD 081700Z 29011KT 6000 -RA BKN009 03/01 Q1009","cycle":"17"},
{"_id":"4495a8a111ec85eb6d2389a681d413ce","_rev":"1-fff4a62056eebe2c7e4d40b9b6dcb732","Location":"Gdansk-Rebiechowo, Poland (EPGD) 54-23N 018-28E 138M","Date":"Feb 01, 2012 - 06:00 PM EST / 2012.02.01 2300 UTC","Wind":"Calm:0","Visibility":"3 mile(s):0","Sky conditions":"mostly cloudy","Weather":"light snow","Temperature":"6 F (-14 C)","Dew Point":"1 F (-17 C)","Relative Humidity":"77%","Pressure (altimeter)":"30.65 in. Hg (1038 hPa)","ob":"EPGD 012300Z 00000KT 6000 -SN BKN009 BKN027 M14/M17 Q1038 R11/490150","cycle":"23"},
{"_id":"4495a8a111ec85eb6d2389a681d41e74","_rev":"1-016b8b18b594b56cf23fbf10391bd145","Location":"Gdansk-Rebiechowo, Poland (EPGD) 54-23N 018-28E 138M","Date":"Feb 15, 2012 - 11:00 PM EST / 2012.02.16 0400 UTC","Wind":"from the N (010 degrees) at 6 MPH (5 KT) (direction variable):0","Visibility":"greater than 7 mile(s):0","Sky conditions":"mostly cloudy","Temperature":"28 F (-2 C)","Windchill":"21 F (-6 C):1","Dew Point":"21 F (-6 C)","Relative Humidity":"74%","Pressure (altimeter)":"29.80 in. Hg (1009 hPa)","ob":"EPGD 160400Z 01005KT 340V040 9999 BKN023 M02/M06 Q1009 R11/490348","cycle":"4"},
{"_id":"4495a8a111ec85eb6d2389a681d429f0","_rev":"1-0ab7d8e900e8e006f99ffb89ad2e7fe4","Location":"Gdansk-Rebiechowo, Poland (EPGD) 54-23N 018-28E 138M","Date":"Jan 22, 2012 - 06:00 PM EST / 2012.01.22 2300 UTC","Wind":"from the SW (230 degrees) at 3 MPH (3 KT) (direction variable):0","Visibility":"greater than 7 mile(s):0","Sky conditions":"mostly cloudy","Temperature":"33 F (1 C)","Dew Point":"30 F (-1 C)","Relative Humidity":"86%","Pressure (altimeter)":"29.35 in. Hg (0994 hPa)","ob":"EPGD 222300Z 23003KT 190V250 9999 BKN010 01/M01 Q0994 R11/290066","cycle":"23"},
{"_id":"4495a8a111ec85eb6d2389a681d4306a","_rev":"1-5800ed289244fee22e2670df257af04f","Location":"Gdansk-Rebiechowo, Poland (EPGD) 54-23N 018-28E 138M","Date":"Dec 21, 2011 - 04:00 AM EST / 2011.12.21 0900 UTC","Wind":"from the ESE (120 degrees) at 2 MPH (2 KT):0","Visibility":"1 mile(s):0","Weather":"mist","Temperature":"24 F (-4 C)","Dew Point":"24 F (-4 C)","Relative Humidity":"100%","Pressure (altimeter)":"29.80 in. Hg (1009 hPa)","ob":"EPGD 210900Z 12002KT 3000 BR NSC M04/M04 Q1009 R11/190095","cycle":"9"},
{"_id":"4495a8a111ec85eb6d2389a681d43c39","_rev":"1-af486d8177f13e91f8b34a5adb1e1c5a","Location":"Gdansk-Rebiechowo, Poland (EPGD) 54-23N 018-28E 138M","Date":"Feb 19, 2012 - 07:00 AM EST / 2012.02.19 1200 UTC","Wind":"from the W (270 degrees) at 12 MPH (10 KT):0","Visibility":"greater than 7 mile(s):0","Sky conditions":"mostly cloudy","Weather":"light rain","Temperature":"35 F (2 C)","Windchill":"26 F (-3 C):1","Dew Point":"32 F (0 C)","Relative Humidity":"86%","Pressure (altimeter)":"29.65 in. Hg (1004 hPa)","ob":"EPGD 191200Z 27010KT 9999 -RA FEW006 BKN011 02/00 Q1004 R29/290095","cycle":"12"},
{"_id":"4495a8a111ec85eb6d2389a681d44180","_rev":"1-d20802d93af5a3c0855a50f145dcde93","Location":"Gdansk-Rebiechowo, Poland (EPGD) 54-23N 018-28E 138M","Date":"Dec 26, 2011 - 08:00 PM EST / 2011.12.27 0100 UTC","Wind":"from the WSW (250 degrees) at 22 MPH (19 KT):0","Visibility":"greater than 7 mile(s):0","Sky conditions":"mostly cloudy","Temperature":"50 F (10 C)","Dew Point":"44 F (7 C)","Relative Humidity":"81%","Pressure (altimeter)":"30.21 in. Hg (1023 hPa)","ob":"EPGD 270100Z 25019KT 9999 BKN013 10/07 Q1023","cycle":"1"},
{"_id":"4495a8a111ec85eb6d2389a681d445d4","_rev":"1-08ca3074aa5364036fbbccc153b7c86f","Location":"Gdansk-Rebiechowo, Poland (EPGD) 54-23N 018-28E 138M","Date":"Dec 30, 2011 - 01:00 AM EST / 2011.12.30 0600 UTC","Wind":"from the S (170 degrees) at 6 MPH (5 KT) (direction variable):0","Visibility":"greater than 7 mile(s):0","Sky conditions":"mostly cloudy","Weather":"light rain","Temperature":"35 F (2 C)","Windchill":"30 F (-1 C):1","Dew Point":"32 F (0 C)","Relative Humidity":"86%","Pressure (altimeter)":"29.44 in. Hg (0997 hPa)","ob":"EPGD 300600Z 17005KT 110V210 9999 -RA FEW009 BKN026 02/00 Q0997","cycle":"6"},
{"_id":"4495a8a111ec85eb6d2389a681d44cd7","_rev":"1-d3402ef9807e119cf84190e0ccf0ff4c","Location":"Gdansk-Rebiechowo, Poland (EPGD) 54-23N 018-28E 138M","Date":"Jan 26, 2012 - 12:00 PM EST / 2012.01.26 1700 UTC","Wind":"from the ESE (110 degrees) at 10 MPH (9 KT):0","Visibility":"3 mile(s):0","Sky conditions":"mostly cloudy","Weather":"light snow","Temperature":"24 F (-4 C)","Windchill":"14 F (-10 C):1","Dew Point":"23 F (-5 C)","Relative Humidity":"92%","Pressure (altimeter)":"30.42 in. Hg (1030 hPa)","ob":"EPGD 261700Z 11009KT 5000 -SN BKN007 M04/M05 Q1030 R11/290095","cycle":"17"},
{"_id":"4495a8a111ec85eb6d2389a681d4570f","_rev":"1-10148f780f2738ee3e203b0f20b28b95","Location":"Gdansk-Rebiechowo, Poland (EPGD) 54-23N 018-28E 138M","Date":"Dec 13, 2011 - 03:00 PM EST / 2011.12.13 2000 UTC","Wind":"from the SSW (200 degrees) at 15 MPH (13 KT) (direction variable):0","Visibility":"greater than 7 mile(s):0","Sky conditions":"mostly cloudy","Weather":"light rain","Temperature":"39 F (4 C)","Dew Point":"33 F (1 C)","Relative Humidity":"80%","Pressure (altimeter)":"29.50 in. Hg (0999 hPa)","ob":"EPGD 132000Z 20013KT 170V230 9999 -RA BKN017 04/01 Q0999","cycle":"20"},
{"_id":"4495a8a111ec85eb6d2389a681d45e07","_rev":"1-40d269434c20ada9ff0d71bc206c63af","Location":"Gdansk-Rebiechowo, Poland (EPGD) 54-23N 018-28E 138M","Date":"Jan 09, 2012 - 12:00 PM EST / 2012.01.09 1700 UTC","Wind":"from the NW (310 degrees) at 3 MPH (3 KT):0","Visibility":"greater than 7 mile(s):0","Sky conditions":"mostly cloudy","Temperature":"30 F (-1 C)","Dew Point":"23 F (-5 C)","Relative Humidity":"74%","Pressure (altimeter)":"30.09 in. Hg (1019 hPa)","ob":"EPGD 091700Z 31003KT 9999 BKN030 M01/M05 Q1019 R11/290095","cycle":"17"},
{"_id":"4495a8a111ec85eb6d2389a681d45e4b","_rev":"1-224bee3becc1950d4ba4ad67b8103e3d","Location":"Gdansk-Rebiechowo, Poland (EPGD) 54-23N 018-28E 138M","Date":"Dec 17, 2011 - 05:00 AM EST / 2011.12.17 1000 UTC","Wind":"from the SSW (210 degrees) at 6 MPH (5 KT) (direction variable):0","Visibility":"greater than 7 mile(s):0","Sky conditions":"mostly cloudy","Temperature":"35 F (2 C)","Windchill":"30 F (-1 C):1","Dew Point":"32 F (0 C)","Relative Humidity":"86%","Pressure (altimeter)":"28.76 in. Hg (0974 hPa)","ob":"EPGD 171000Z 21005KT 160V250 9999 BKN006 02/00 Q0974 R11/290064","cycle":"10"},
{"_id":"4495a8a111ec85eb6d2389a681d46316","_rev":"1-97fad8a1aeb733592ab31e845751547f","Location":"Gdansk-Rebiechowo, Poland (EPGD) 54-23N 018-28E 138M","Date":"Jan 31, 2012 - 12:00 AM EST / 2012.01.31 0500 UTC","Wind":"from the SE (130 degrees) at 1 MPH (1 KT):0","Visibility":"greater than 7 mile(s):0","Temperature":"3 F (-16 C)","Dew Point":"-2 F (-19 C)","Relative Humidity":"77%","Pressure (altimeter)":"30.74 in. Hg (1041 hPa)","ob":"EPGD 310500Z 13001KT CAVOK M16/M19 Q1041","cycle":"5"},
{"_id":"4495a8a111ec85eb6d2389a681d46530","_rev":"1-e3dbe880935c4efe24b209bb4eddda55","Location":"Gdansk-Rebiechowo, Poland (EPGD) 54-23N 018-28E 138M","Date":"Jan 18, 2012 - 02:00 AM EST / 2012.01.18 0700 UTC","Wind":"from the W (270 degrees) at 6 MPH (5 KT):0","Visibility":"2 mile(s):0","Sky conditions":"mostly cloudy","Weather":"light drizzle; mist","Temperature":"33 F (1 C)","Windchill":"26 F (-3 C):1","Dew Point":"32 F (0 C)","Relative Humidity":"93%","Pressure (altimeter)":"30.15 in. Hg (1021 hPa)","ob":"EPGD 180700Z 27005KT 4000 -DZ BR BKN004 01/00 Q1021 R11/290095","cycle":"7"},
{"_id":"4495a8a111ec85eb6d2389a681d4750e","_rev":"1-59193c67615a64fc8ccadd5e112215a3","Location":"Gdansk-Rebiechowo, Poland (EPGD) 54-23N 018-28E 138M","Date":"Dec 26, 2011 - 05:00 AM EST / 2011.12.26 1000 UTC","Wind":"from the W (270 degrees) at 20 MPH (17 KT) gusting to 36 MPH (31 KT):0","Visibility":"greater than 7 mile(s):0","Sky conditions":"mostly cloudy","Temperature":"48 F (9 C)","Dew Point":"44 F (7 C)","Relative Humidity":"87%","Pressure (altimeter)":"30.18 in. Hg (1022 hPa)","ob":"EPGD 261000Z 27017G31KT 9999 BKN009 09/07 Q1022","cycle":"10"},
{"_id":"4495a8a111ec85eb6d2389a681d476dc","_rev":"1-9a30ad39c51a5a38008f33562a01adbd","Location":"Gdansk-Rebiechowo, Poland (EPGD) 54-23N 018-28E 138M","Date":"Jan 13, 2012 - 11:00 PM EST / 2012.01.14 0400 UTC","Wind":"from the NW (320 degrees) at 25 MPH (22 KT):0","Visibility":"3 mile(s):0","Sky conditions":"mostly cloudy","Weather":"snow; low drifting snow","Temperature":"30 F (-1 C)","Windchill":"15 F (-9 C):1","Dew Point":"24 F (-4 C)","Relative Humidity":"80%","Pressure (altimeter)":"29.68 in. Hg (1005 hPa)","ob":"EPGD 140400Z 32022KT 6000 SN DRSN FEW009 BKN022 M01/M04 Q1005 R11/590195","cycle":"4"},
{"_id":"4495a8a111ec85eb6d2389a681d4812e","_rev":"1-8abf11e22d5f991a2246d305c693f216","Location":"Gdansk-Rebiechowo, Poland (EPGD) 54-23N 018-28E 138M","Date":"Jan 28, 2012 - 06:00 AM EST / 2012.01.28 1100 UTC","Wind":"from the ESE (120 degrees) at 12 MPH (10 KT) (direction variable):0","Visibility":"4 mile(s):0","Sky conditions":"partly cloudy","Temperature":"12 F (-11 C)","Windchill":"-2 F (-19 C):1","Dew Point":"6 F (-14 C)","Relative Humidity":"78%","Pressure (altimeter)":"30.56 in. Hg (1035 hPa)","ob":"EPGD 281100Z 12010KT 100V160 8000 SCT006 M11/M14 Q1035 R11/190095","cycle":"11"},
{"_id":"4495a8a111ec85eb6d2389a681d48e72","_rev":"1-6fd9ac8eed152a898caaefeb8c8f9759","Location":"Gdansk-Rebiechowo, Poland (EPGD) 54-23N 018-28E 138M","Date":"Feb 20, 2012 - 04:00 AM EST / 2012.02.20 0900 UTC","Wind":"from the W (280 degrees) at 10 MPH (9 KT):0","Visibility":"greater than 7 mile(s):0","Sky conditions":"mostly clear","Temperature":"33 F (1 C)","Windchill":"24 F (-4 C):1","Dew Point":"28 F (-2 C)","Relative Humidity":"80%","Pressure (altimeter)":"30.15 in. Hg (1021 hPa)","ob":"EPGD 200900Z 28009KT 9999 FEW011 01/M02 Q1021 R11/190095","cycle":"9"},
{"_id":"4495a8a111ec85eb6d2389a681d4921a","_rev":"1-b8895f8a44850dd3f8ea4f619f486c76","Location":"Gdansk-Rebiechowo, Poland (EPGD) 54-23N 018-28E 138M","Date":"Feb 12, 2012 - 08:00 AM EST / 2012.02.12 1300 UTC","Wind":"from the SW (220 degrees) at 9 MPH (8 KT) (direction variable):0","Visibility":"greater than 7 mile(s):0","Sky conditions":"partly cloudy","Weather":"light snow","Temperature":"21 F (-6 C)","Windchill":"10 F (-12 C):1","Dew Point":"12 F (-11 C)","Relative Humidity":"67%","Pressure (altimeter)":"30.21 in. Hg (1023 hPa)","ob":"EPGD 121300Z 22008KT 190V250 9999 -SN FEW011 SCT023 M06/M11 Q1023 R11/450195","cycle":"13"},
{"_id":"4495a8a111ec85eb6d2389a681d4981d","_rev":"1-4bcf9c88a99bdec52c375ab48d60259d","Location":"Gdansk-Rebiechowo, Poland (EPGD) 54-23N 018-28E 138M","Date":"Jan 11, 2012 - 06:00 PM EST / 2012.01.11 2300 UTC","Wind":"from the W (270 degrees) at 14 MPH (12 KT):0","Visibility":"greater than 7 mile(s):0","Sky conditions":"partly cloudy","Temperature":"39 F (4 C)","Dew Point":"33 F (1 C)","Relative Humidity":"80%","Pressure (altimeter)":"30.09 in. Hg (1019 hPa)","ob":"EPGD 112300Z 27012KT 9999 SCT015 04/01 Q1019 R11/290095","cycle":"23"},
{"_id":"4495a8a111ec85eb6d2389a681d49bf4","_rev":"1-af01b49388aa76607623a36af432e452","Location":"Gdansk-Rebiechowo, Poland (EPGD) 54-23N 018-28E 138M","Date":"Jan 24, 2012 - 11:00 AM EST / 2012.01.24 1600 UTC","Wind":"from the WNW (290 degrees) at 5 MPH (4 KT):0","Visibility":"2 mile(s):0","Sky conditions":"mostly cloudy","Weather":"light snow; mist; Towering cumulus clouds observed","Temperature":"32 F (0 C)","Windchill":"26 F (-3 C):1","Dew Point":"30 F (-1 C)","Relative Humidity":"92%","Pressure (altimeter)":"30.03 in. Hg (1017 hPa)","ob":"EPGD 241600Z 29004KT 4000 -SN BR SCT007 BKN018 FEW040TCU M00/M01 Q1017 R11/290095","cycle":"16"},
{"_id":"4495a8a111ec85eb6d2389a681d4a3b1","_rev":"1-c956ba639ddd032fe5dd82f8bd9516a7","Location":"Gdansk-Rebiechowo, Poland (EPGD) 54-23N 018-28E 138M","Date":"Dec 25, 2011 - 06:00 AM EST / 2011.12.25 1100 UTC","Wind":"from the WSW (240 degrees) at 12 MPH (10 KT) (direction variable):0","Visibility":"greater than 7 mile(s):0","Sky conditions":"mostly cloudy","Temperature":"37 F (3 C)","Dew Point":"33 F (1 C)","Relative Humidity":"86%","Pressure (altimeter)":"30.15 in. Hg (1021 hPa)","ob":"EPGD 251100Z 24010KT 210V270 9999 BKN007 03/01 Q1021","cycle":"11"},
{"_id":"4495a8a111ec85eb6d2389a681d4ac1c","_rev":"1-48d2a90fc47662472fd58a0ec59217e9","Location":"Gdansk-Rebiechowo, Poland (EPGD) 54-23N 018-28E 138M","Date":"Feb 05, 2012 - 03:00 AM EST / 2012.02.05 0800 UTC","Wind":"Variable at 2 MPH (2 KT):0","Visibility":"1 mile(s):0","Sky conditions":"partly cloudy","Weather":"mist","Temperature":"-11 F (-24 C)","Dew Point":"-16 F (-27 C)","Relative Humidity":"76%","Pressure (altimeter)":"30.71 in. Hg (1040 hPa)","ob":"EPGD 050800Z VRB02KT 2500 BR FEW004 SCT007 M24/M27 Q1040 R11/490162","cycle":"8"},
{"_id":"4495a8a111ec85eb6d2389a681d4bb91","_rev":"1-2e8510e795f70fb3359f1c89fccad980","Location":"Gdansk-Rebiechowo, Poland (EPGD) 54-23N 018-28E 138M","Date":"Feb 13, 2012 - 09:00 AM EST / 2012.02.13 1400 UTC","Wind":"from the W (280 degrees) at 8 MPH (7 KT):0","Visibility":"greater than 7 mile(s):0","Sky conditions":"mostly cloudy","Temperature":"32 F (0 C)","Windchill":"24 F (-4 C):1","Dew Point":"24 F (-4 C)","Relative Humidity":"74%","Pressure (altimeter)":"29.97 in. Hg (1015 hPa)","ob":"EPGD 131400Z 28007KT 9999 BKN023 M00/M04 Q1015 R11/190095","cycle":"14"},
{"_id":"4495a8a111ec85eb6d2389a681d4ca4d","_rev":"1-406f56e470d481af1bcd9bebc8b88362","Location":"Gdansk-Rebiechowo, Poland (EPGD) 54-23N 018-28E 138M","Date":"Dec 15, 2011 - 02:00 PM EST / 2011.12.15 1900 UTC","Wind":"from the SSW (200 degrees) at 8 MPH (7 KT) (direction variable):0","Visibility":"greater than 7 mile(s):0","Sky conditions":"mostly clear","Temperature":"35 F (2 C)","Windchill":"28 F (-2 C):1","Dew Point":"32 F (0 C)","Relative Humidity":"86%","Pressure (altimeter)":"29.65 in. Hg (1004 hPa)","ob":"EPGD 151900Z 20007KT 170V240 9999 FEW015 02/M00 Q1004","cycle":"19"},
{"_id":"4495a8a111ec85eb6d2389a681d4d069","_rev":"1-cf5a1bd02d9e4702029c8459116340b1","Location":"Gdansk-Rebiechowo, Poland (EPGD) 54-23N 018-28E 138M","Date":"Dec 27, 2011 - 10:00 AM EST / 2011.12.27 1500 UTC","Wind":"from the W (280 degrees) at 16 MPH (14 KT):0","Visibility":"greater than 7 mile(s):0","Sky conditions":"mostly cloudy","Temperature":"44 F (7 C)","Dew Point":"41 F (5 C)","Relative Humidity":"87%","Pressure (altimeter)":"30.27 in. Hg (1025 hPa)","ob":"EPGD 271500Z 28014KT 9999 FEW008 BKN014 07/05 Q1025","cycle":"15"},
{"_id":"4495a8a111ec85eb6d2389a681d4d1f4","_rev":"1-43ceee78aefae688580a60ae3bdb9001","Location":"Gdansk-Rebiechowo, Poland (EPGD) 54-23N 018-28E 138M","Date":"Feb 01, 2012 - 11:00 PM EST / 2012.02.02 0400 UTC","Wind":"Calm:0","Visibility":"3 mile(s):0","Sky conditions":"mostly cloudy","Weather":"light snow","Temperature":"0 F (-18 C)","Dew Point":"-4 F (-20 C)","Relative Humidity":"84%","Pressure (altimeter)":"30.59 in. Hg (1036 hPa)","ob":"EPGD 020400Z 00000KT 5000 -SN FEW005 BKN011 M18/M20 Q1036 R11/490150","cycle":"4"},
{"_id":"4495a8a111ec85eb6d2389a681d4d339","_rev":"1-603e16f360c97fc8b7408d3fe10c8681","Location":"Gdansk-Rebiechowo, Poland (EPGD) 54-23N 018-28E 138M","Date":"Dec 22, 2011 - 06:00 PM EST / 2011.12.22 2300 UTC","Wind":"from the SW (230 degrees) at 7 MPH (6 KT) (direction variable):0","Visibility":"1 mile(s):0","Sky conditions":"overcast","Weather":"mist","Temperature":"26 F (-3 C)","Windchill":"17 F (-8 C):1","Dew Point":"26 F (-3 C)","Relative Humidity":"100%","Pressure (altimeter)":"30.12 in. Hg (1020 hPa)","ob":"EPGD 222300Z 23006KT 190V260 2600 BR OVC003 M03/M03 Q1020","cycle":"23"},
{"_id":"4495a8a111ec85eb6d2389a681d4e26f","_rev":"1-dd32a8f833a9644494fcc254b3cad917","Location":"Gdansk-Rebiechowo, Poland (EPGD) 54-23N 018-28E 138M","Date":"Dec 21, 2011 - 09:00 PM EST / 2011.12.22 0200 UTC","Wind":"from the SSW (200 degrees) at 2 MPH (2 KT):0","Visibility":"1 mile(s):0","Weather":"mist","Temperature":"23 F (-5 C)","Dew Point":"21 F (-6 C)","Relative Humidity":"92%","Pressure (altimeter)":"30.06 in. Hg (1018 hPa)","ob":"EPGD 220200Z 20002KT 3000 BR NSC M05/M06 Q1018","cycle":"2"},
{"_id":"4495a8a111ec85eb6d2389a681d4e3ac","_rev":"1-b080881d8a20998698aa0a26224da652","Location":"Gdansk-Rebiechowo, Poland (EPGD) 54-23N 018-28E 138M","Date":"Dec 22, 2011 - 01:00 AM EST / 2011.12.22 0600 UTC","Wind":"Calm:0","Visibility":"1 mile(s):0","Weather":"mist","Temperature":"19 F (-7 C)","Dew Point":"17 F (-8 C)","Relative Humidity":"92%","Pressure (altimeter)":"30.09 in. Hg (1019 hPa)","ob":"EPGD 220600Z 00000KT 2500 BR NSC M07/M08 Q1019","cycle":"6"},
{"_id":"4495a8a111ec85eb6d2389a681d4eae9","_rev":"1-b94e149e523dae46f7f60f5d1007d18b","Location":"Gdansk-Rebiechowo, Poland (EPGD) 54-23N 018-28E 138M","Date":"Jan 19, 2012 - 03:00 AM EST / 2012.01.19 0800 UTC","Wind":"from the W (270 degrees) at 10 MPH (9 KT):0","Visibility":"greater than 7 mile(s):0","Sky conditions":"mostly clear","Temperature":"35 F (2 C)","Windchill":"26 F (-3 C):1","Dew Point":"32 F (0 C)","Relative Humidity":"86%","Pressure (altimeter)":"29.74 in. Hg (1007 hPa)","ob":"EPGD 190800Z 27009KT 9999 FEW011 02/00 Q1007 R11/290095","cycle":"8"},
{"_id":"4495a8a111ec85eb6d2389a681d4f692","_rev":"1-69ed2e876e44897bd97a05e17dac4583","Location":"Gdansk-Rebiechowo, Poland (EPGD) 54-23N 018-28E 138M","Date":"Feb 06, 2012 - 02:00 PM EST / 2012.02.06 1900 UTC","Wind":"from the SE (130 degrees) at 6 MPH (5 KT):0","Visibility":"4 mile(s):0","Sky conditions":"mostly cloudy","Weather":"light snow","Temperature":"12 F (-11 C)","Windchill":"3 F (-16 C):1","Dew Point":"6 F (-14 C)","Relative Humidity":"78%","Pressure (altimeter)":"30.62 in. Hg (1037 hPa)","ob":"EPGD 061900Z 13005KT 8000 -SN BKN007 M11/M14 Q1037 R11/490152","cycle":"19"},
{"_id":"4495a8a111ec85eb6d2389a681d500dc","_rev":"1-a7ffaa28f1543028f283d58c30ff3ef6","Location":"Gdansk-Rebiechowo, Poland (EPGD) 54-23N 018-28E 138M","Date":"Feb 12, 2012 - 01:00 PM EST / 2012.02.12 1800 UTC","Wind":"from the WSW (250 degrees) at 8 MPH (7 KT) (direction variable):0","Visibility":"greater than 7 mile(s):0","Sky conditions":"mostly cloudy","Weather":"light snow","Temperature":"19 F (-7 C)","Windchill":"8 F (-13 C):1","Dew Point":"15 F (-9 C)","Relative Humidity":"85%","Pressure (altimeter)":"30.12 in. Hg (1020 hPa)","ob":"EPGD 121800Z 25007KT 210V270 9999 -SN BKN019 M07/M09 Q1020 RESN R11/490233","cycle":"18"},
{"_id":"4495a8a111ec85eb6d2389a681d50dd5","_rev":"1-453b35b0094374dfaa21df16c983a47a","Location":"Gdansk-Rebiechowo, Poland (EPGD) 54-23N 018-28E 138M","Date":"Dec 29, 2011 - 11:00 PM EST / 2011.12.30 0400 UTC","Wind":"from the SSW (200 degrees) at 9 MPH (8 KT) (direction variable):0","Visibility":"greater than 7 mile(s):0","Sky conditions":"partly cloudy","Temperature":"37 F (3 C)","Dew Point":"32 F (0 C)","Relative Humidity":"80%","Pressure (altimeter)":"29.47 in. Hg (0998 hPa)","ob":"EPGD 300400Z 20008KT 170V230 9999 SCT013 SCT039 03/M00 Q0998","cycle":"4"},
{"_id":"4495a8a111ec85eb6d2389a681d513a1","_rev":"1-d6dbb88ec6ab2eb2579a502e28e48cea","Location":"Gdansk-Rebiechowo, Poland (EPGD) 54-23N 018-28E 138M","Date":"Dec 25, 2011 - 03:00 PM EST / 2011.12.25 2000 UTC","Wind":"from the WSW (240 degrees) at 12 MPH (10 KT) (direction variable):0","Visibility":"greater than 7 mile(s):0","Sky conditions":"mostly cloudy","Temperature":"41 F (5 C)","Dew Point":"39 F (4 C)","Relative Humidity":"93%","Pressure (altimeter)":"30.15 in. Hg (1021 hPa)","ob":"EPGD 252000Z 24010KT 210V270 9999 BKN006 05/04 Q1021","cycle":"20"},
{"_id":"4495a8a111ec85eb6d2389a681d5142b","_rev":"1-02184c7f3d903e3e5872dd2d853e1238","Location":"Gdansk-Rebiechowo, Poland (EPGD) 54-23N 018-28E 138M","Date":"Dec 28, 2011 - 05:00 AM EST / 2011.12.28 1000 UTC","Wind":"from the SW (230 degrees) at 8 MPH (7 KT) (direction variable):0","Visibility":"4 mile(s):0","Sky conditions":"mostly cloudy","Temperature":"37 F (3 C)","Dew Point":"37 F (3 C)","Relative Humidity":"100%","Pressure (altimeter)":"30.27 in. Hg (1025 hPa)","ob":"EPGD 281000Z 23007KT 180V260 8000 BKN004 03/03 Q1025","cycle":"10"},
{"_id":"4495a8a111ec85eb6d2389a681d51bb3","_rev":"1-31575501b0591cb5d343a234ea3bd85f","Location":"Gdansk-Rebiechowo, Poland (EPGD) 54-23N 018-28E 138M","Date":"Feb 07, 2012 - 08:00 PM EST / 2012.02.08 0100 UTC","Wind":"from the NW (320 degrees) at 1 MPH (1 KT):0","Visibility":"greater than 7 mile(s):0","Sky conditions":"mostly cloudy","Temperature":"15 F (-9 C)","Dew Point":"12 F (-11 C)","Relative Humidity":"85%","Pressure (altimeter)":"30.77 in. Hg (1042 hPa)","ob":"EPGD 080100Z 32001KT 9999 FEW013 BKN027 M09/M11 Q1042 R11/490143","cycle":"1"},
{"_id":"4495a8a111ec85eb6d2389a681d51c42","_rev":"1-500ca88e618f52528130f2b193aae27f","Location":"Gdansk-Rebiechowo, Poland (EPGD) 54-23N 018-28E 138M","Date":"Feb 05, 2012 - 08:00 PM EST / 2012.02.06 0100 UTC","Wind":"from the NW (310 degrees) at 2 MPH (2 KT):0","Visibility":"1 mile(s):0","Sky conditions":"mostly clear","Weather":"mist","Temperature":"-14 F (-26 C)","Dew Point":"-20 F (-29 C)","Relative Humidity":"75%","Pressure (altimeter)":"30.71 in. Hg (1040 hPa)","ob":"EPGD 060100Z 31002KT 2500 BR FEW005 M26/M29 Q1040 R11/190095","cycle":"1"},
{"_id":"4495a8a111ec85eb6d2389a681d51f19","_rev":"1-67f50a1244ca9f9293de3269159cc5f6","Location":"Gdansk-Rebiechowo, Poland (EPGD) 54-23N 018-28E 138M","Date":"Jan 29, 2012 - 06:00 AM EST / 2012.01.29 1100 UTC","Wind":"from the ESE (110 degrees) at 12 MPH (10 KT):0","Visibility":"greater than 7 mile(s):0","Temperature":"14 F (-10 C)","Windchill":"0 F (-18 C):1","Dew Point":"3 F (-16 C)","Relative Humidity":"61%","Pressure (altimeter)":"30.77 in. Hg (1042 hPa)","ob":"EPGD 291100Z 11010KT CAVOK M10/M16 Q1042 R11/190095","cycle":"11"},
{"_id":"4495a8a111ec85eb6d2389a681d52ad8","_rev":"1-3c1a366b26363bffc777bdb2c74f5f75","Location":"Gdansk-Rebiechowo, Poland (EPGD) 54-23N 018-28E 138M","Date":"Feb 07, 2012 - 03:00 AM EST / 2012.02.07 0800 UTC","Wind":"from the ESE (120 degrees) at 7 MPH (6 KT):0","Visibility":"2 mile(s):0","Sky conditions":"mostly cloudy","Weather":"light snow; mist","Temperature":"14 F (-10 C)","Windchill":"3 F (-16 C):1","Dew Point":"10 F (-12 C)","Relative Humidity":"85%","Pressure (altimeter)":"30.68 in. Hg (1039 hPa)","ob":"EPGD 070800Z 12006KT 4000 -SN BR BKN009 M10/M12 Q1039 R11/490238","cycle":"8"},
{"_id":"4495a8a111ec85eb6d2389a681d53397","_rev":"1-1c7fc10aac516e5c1175c39e694c0880","Location":"Gdansk-Rebiechowo, Poland (EPGD) 54-23N 018-28E 138M","Date":"Jan 05, 2012 - 03:00 PM EST / 2012.01.05 2000 UTC","Wind":"from the SSW (200 degrees) at 9 MPH (8 KT) (direction variable):0","Visibility":"greater than 7 mile(s):0","Sky conditions":"mostly cloudy","Temperature":"37 F (3 C)","Dew Point":"33 F (1 C)","Relative Humidity":"86%","Pressure (altimeter)":"28.67 in. Hg (0971 hPa)","ob":"EPGD 052000Z 20008KT 160V240 9999 BKN013 03/01 Q0971","cycle":"20"},
{"_id":"4495a8a111ec85eb6d2389a681d53b1f","_rev":"1-ed472cacd146e5298e069ed5fe29fe34","Location":"Gdansk-Rebiechowo, Poland (EPGD) 54-23N 018-28E 138M","Date":"Jan 12, 2012 - 08:00 PM EST / 2012.01.13 0100 UTC","Wind":"from the W (280 degrees) at 18 MPH (16 KT):0","Visibility":"greater than 7 mile(s):0","Sky conditions":"mostly cloudy","Temperature":"37 F (3 C)","Dew Point":"30 F (-1 C)","Relative Humidity":"74%","Pressure (altimeter)":"29.50 in. Hg (0999 hPa)","ob":"EPGD 130100Z 28016KT 9999 BKN026 03/M01 Q0999","cycle":"1"},
{"_id":"4495a8a111ec85eb6d2389a681d53cfa","_rev":"1-291840776206eebb541e5fc35e08408a","Location":"Gdansk-Rebiechowo, Poland (EPGD) 54-23N 018-28E 138M","Date":"Dec 13, 2011 - 01:00 PM EST / 2011.12.13 1800 UTC","Wind":"from the S (190 degrees) at 14 MPH (12 KT) (direction variable):0","Visibility":"greater than 7 mile(s):0","Sky conditions":"mostly cloudy","Weather":"light rain","Temperature":"41 F (5 C)","Dew Point":"32 F (0 C)","Relative Humidity":"70%","Pressure (altimeter)":"29.47 in. Hg (0998 hPa)","ob":"EPGD 131800Z 19012KT 150V220 9999 -RA FEW015 BKN032 05/00 Q0998","cycle":"18"},
{"_id":"4495a8a111ec85eb6d2389a681d5428a","_rev":"1-a1d2425afced99348343f2e18b23b925","Location":"Gdansk-Rebiechowo, Poland (EPGD) 54-23N 018-28E 138M","Date":"Feb 06, 2012 - 06:00 AM EST / 2012.02.06 1100 UTC","Wind":"from the E (090 degrees) at 9 MPH (8 KT) (direction variable):0","Visibility":"2 mile(s):0","Sky conditions":"mostly cloudy","Weather":"light snow; mist","Temperature":"12 F (-11 C)","Windchill":"0 F (-18 C):1","Dew Point":"6 F (-14 C)","Relative Humidity":"78%","Pressure (altimeter)":"30.62 in. Hg (1037 hPa)","ob":"EPGD 061100Z 09008KT 060V120 4500 -SN BR FEW005 BKN009 M11/M14 Q1037 R11/490152","cycle":"11"},
{"_id":"4495a8a111ec85eb6d2389a681d54cb2","_rev":"1-e0ecf51df591931626bc4c487a06fe5c","Location":"Gdansk-Rebiechowo, Poland (EPGD) 54-23N 018-28E 138M","Date":"Feb 09, 2012 - 03:00 AM EST / 2012.02.09 0800 UTC","Wind":"from the E (090 degrees) at 16 MPH (14 KT):0","Visibility":"4 mile(s):0","Sky conditions":"mostly cloudy","Temperature":"17 F (-8 C)","Windchill":"1 F (-17 C):1","Dew Point":"14 F (-10 C)","Relative Humidity":"85%","Pressure (altimeter)":"30.53 in. Hg (1034 hPa)","ob":"EPGD 090800Z 09014KT 7000 FEW009 BKN012 M08/M10 Q1034 R11/490333","cycle":"8"},
{"_id":"4495a8a111ec85eb6d2389a681d55aa7","_rev":"1-c80e1ca077ab478a90f9eb7323ec325d","Location":"Gdansk-Rebiechowo, Poland (EPGD) 54-23N 018-28E 138M","Date":"Jan 01, 2012 - 03:00 AM EST / 2012.01.01 0800 UTC","Wind":"from the S (170 degrees) at 6 MPH (5 KT) (direction variable):0","Visibility":"greater than 7 mile(s):0","Temperature":"30 F (-1 C)","Windchill":"23 F (-5 C):1","Dew Point":"26 F (-3 C)","Relative Humidity":"86%","Pressure (altimeter)":"29.88 in. Hg (1012 hPa)","ob":"EPGD 010800Z 17005KT 130V210 CAVOK M01/M03 Q1012","cycle":"8"},
{"_id":"4495a8a111ec85eb6d2389a681d5600a","_rev":"1-f402d58704c3b2f9b5880a25c21d079e","Location":"Gdansk-Rebiechowo, Poland (EPGD) 54-23N 018-28E 138M","Date":"Jan 13, 2012 - 06:00 AM EST / 2012.01.13 1100 UTC","Wind":"from the W (280 degrees) at 21 MPH (18 KT):0","Visibility":"4 mile(s):0","Sky conditions":"partly cloudy","Weather":"light snow showers; Towering cumulus clouds observed","Temperature":"37 F (3 C)","Dew Point":"30 F (-1 C)","Relative Humidity":"74%","Pressure (altimeter)":"29.50 in. Hg (0999 hPa)","ob":"EPGD 131100Z 28018KT 8000 -SHSN SCT020TCU 03/M01 Q0999","cycle":"11"},
{"_id":"4495a8a111ec85eb6d2389a681d565c9","_rev":"1-0c17196a8232ec8b53d8ff281f497cb0","Location":"Gdansk-Rebiechowo, Poland (EPGD) 54-23N 018-28E 138M","Date":"Jan 25, 2012 - 12:00 AM EST / 2012.01.25 0500 UTC","Wind":"from the W (260 degrees) at 3 MPH (3 KT):0","Visibility":"greater than 7 mile(s):0","Sky conditions":"mostly cloudy","Temperature":"26 F (-3 C)","Dew Point":"24 F (-4 C)","Relative Humidity":"92%","Pressure (altimeter)":"30.15 in. Hg (1021 hPa)","ob":"EPGD 250500Z 26003KT 9999 FEW006 BKN042 M03/M04 Q1021 R11/590517","cycle":"5"},
{"_id":"4495a8a111ec85eb6d2389a681d56e08","_rev":"1-9d8bd65e4129fede8f47445989184a53","Location":"Gdansk-Rebiechowo, Poland (EPGD) 54-23N 018-28E 138M","Date":"Jan 20, 2012 - 09:00 PM EST / 2012.01.21 0200 UTC","Wind":"from the WNW (300 degrees) at 12 MPH (10 KT):0","Visibility":"greater than 7 mile(s):0","Sky conditions":"mostly cloudy","Temperature":"32 F (0 C)","Windchill":"23 F (-5 C):1","Dew Point":"30 F (-1 C)","Relative Humidity":"92%","Pressure (altimeter)":"29.71 in. Hg (1006 hPa)","ob":"EPGD 210200Z 30010KT 9999 BKN008 00/M01 Q1006 R11/190095","cycle":"2"},
{"_id":"4495a8a111ec85eb6d2389a681d56fc0","_rev":"1-2cf1f7d58a18c6882219415106cda739","Location":"Gdansk-Rebiechowo, Poland (EPGD) 54-23N 018-28E 138M","Date":"Jan 14, 2012 - 03:00 AM EST / 2012.01.14 0800 UTC","Wind":"from the NW (320 degrees) at 21 MPH (18 KT) (direction variable):0","Visibility":"less than 1 mile:0","Sky conditions":"mostly cloudy","Weather":"snow showers; low drifting snow; Towering cumulus clouds observed","Temperature":"30 F (-1 C)","Windchill":"17 F (-8 C):1","Dew Point":"26 F (-3 C)","Relative Humidity":"86%","Pressure (altimeter)":"29.74 in. Hg (1007 hPa)","ob":"EPGD 140800Z 32018KT 0800 R29/1200V2000 SHSN DRSN BKN004 SCT015TCU M01/M03 Q1007 RESHSN R11/550156","cycle":"8"},
{"_id":"4495a8a111ec85eb6d2389a681d5729b","_rev":"1-bc79022456109937a87681f14f028805","Location":"Gdansk-Rebiechowo, Poland (EPGD) 54-23N 018-28E 138M","Date":"Dec 29, 2011 - 10:00 PM EST / 2011.12.30 0300 UTC","Wind":"from the SSW (210 degrees) at 13 MPH (11 KT) (direction variable):0","Visibility":"greater than 7 mile(s):0","Sky conditions":"mostly cloudy","Temperature":"37 F (3 C)","Dew Point":"32 F (0 C)","Relative Humidity":"80%","Pressure (altimeter)":"29.47 in. Hg (0998 hPa)","ob":"EPGD 300300Z 21011KT 180V260 9999 BKN015 03/M00 Q0998","cycle":"3"},
{"_id":"4495a8a111ec85eb6d2389a681d57c37","_rev":"1-b272acaa9dba10e587c3d3935b3acd88","Location":"Gdansk-Rebiechowo, Poland (EPGD) 54-23N 018-28E 138M","Date":"Jan 23, 2012 - 10:00 PM EST / 2012.01.24 0300 UTC","Wind":"from the NW (310 degrees) at 5 MPH (4 KT):0","Visibility":"greater than 7 mile(s):0","Sky conditions":"mostly cloudy","Weather":"light snow showers","Temperature":"32 F (0 C)","Windchill":"26 F (-3 C):1","Dew Point":"32 F (0 C)","Relative Humidity":"100%","Pressure (altimeter)":"29.80 in. Hg (1009 hPa)","ob":"EPGD 240300Z 31004KT 9999 -SHSN BKN030 00/M00 Q1009","cycle":"3"},
{"_id":"4495a8a111ec85eb6d2389a681d58296","_rev":"1-0e992c93c9b14252eea33811bdae2efa","Location":"Gdansk-Rebiechowo, Poland (EPGD) 54-23N 018-28E 138M","Date":"Feb 16, 2012 - 01:00 AM EST / 2012.02.16 0600 UTC","Wind":"from the NW (320 degrees) at 3 MPH (3 KT):0","Visibility":"greater than 7 mile(s):0","Sky conditions":"mostly cloudy","Temperature":"26 F (-3 C)","Dew Point":"21 F (-6 C)","Relative Humidity":"79%","Pressure (altimeter)":"29.85 in. Hg (1011 hPa)","ob":"EPGD 160600Z 32003KT 9999 BKN025 M03/M06 Q1011 R11/490075","cycle":"6"},
{"_id":"4495a8a111ec85eb6d2389a681d585bb","_rev":"1-32ba50855b5a8beb43fa863e8cc3c2d2","Location":"Gdansk-Rebiechowo, Poland (EPGD) 54-23N 018-28E 138M","Date":"Dec 21, 2011 - 06:00 PM EST / 2011.12.21 2300 UTC","Wind":"Calm:0","Visibility":"1 mile(s):0","Sky conditions":"overcast","Weather":"mist","Temperature":"26 F (-3 C)","Dew Point":"24 F (-4 C)","Relative Humidity":"92%","Pressure (altimeter)":"30.00 in. Hg (1016 hPa)","ob":"EPGD 212300Z 00000KT 2300 BR OVC020 M03/M04 Q1016 R11/190095","cycle":"23"},
{"_id":"4495a8a111ec85eb6d2389a681d585e2","_rev":"1-c91072659828ed6a2fe4e1c1db83cedb","Location":"Gdansk-Rebiechowo, Poland (EPGD) 54-23N 018-28E 138M","Date":"Jan 14, 2012 - 02:00 PM EST / 2012.01.14 1900 UTC","Wind":"from the NNW (340 degrees) at 21 MPH (18 KT) gusting to 35 MPH (30 KT):0","Visibility":"greater than 7 mile(s):0","Sky conditions":"partly cloudy","Temperature":"32 F (0 C)","Windchill":"19 F (-7 C):1","Dew Point":"21 F (-6 C)","Relative Humidity":"63%","Pressure (altimeter)":"29.85 in. Hg (1011 hPa)","ob":"EPGD 141900Z 34018G30KT 9999 FEW009 SCT030 00/M06 Q1011 R11/590234","cycle":"19"},
{"_id":"4495a8a111ec85eb6d2389a681d59217","_rev":"1-296e47e58fffff2822b69a49a47222aa","Location":"Gdansk-Rebiechowo, Poland (EPGD) 54-23N 018-28E 138M","Date":"Jan 30, 2012 - 08:00 PM EST / 2012.01.31 0100 UTC","Wind":"from the ESE (110 degrees) at 8 MPH (7 KT):0","Visibility":"greater than 7 mile(s):0","Temperature":"3 F (-16 C)","Windchill":"-11 F (-24 C):2","Dew Point":"-2 F (-19 C)","Relative Humidity":"77%","Pressure (altimeter)":"30.74 in. Hg (1041 hPa)","ob":"EPGD 310100Z 11007KT CAVOK M16/M19 Q1041","cycle":"1"},
{"_id":"4495a8a111ec85eb6d2389a681d59f32","_rev":"1-a0cc85e48e6396f9f6a1bd08598e3fd8","Location":"Gdansk-Rebiechowo, Poland (EPGD) 54-23N 018-28E 138M","Date":"Dec 23, 2011 - 04:00 AM EST / 2011.12.23 0900 UTC","Wind":"Variable at 2 MPH (2 KT):0","Visibility":"1 mile(s):0","Sky conditions":"overcast","Weather":"mist","Temperature":"32 F (0 C)","Dew Point":"30 F (-1 C)","Relative Humidity":"92%","Pressure (altimeter)":"30.06 in. Hg (1018 hPa)","ob":"EPGD 230900Z VRB02KT 3000 BR OVC004 00/M01 Q1018","cycle":"9"},
{"_id":"4495a8a111ec85eb6d2389a681d5a9b7","_rev":"1-b2c9319ed2da8d7109ae3b3686971031","Location":"Gdansk-Rebiechowo, Poland (EPGD) 54-23N 018-28E 138M","Date":"Dec 18, 2011 - 01:00 PM EST / 2011.12.18 1800 UTC","Wind":"from the WSW (240 degrees) at 13 MPH (11 KT) gusting to 24 MPH (21 KT) (direction variable):0","Visibility":"2 mile(s):0","Sky conditions":"mostly cloudy","Weather":"light snow showers; Cumulonimbus clouds observed","Temperature":"33 F (1 C)","Windchill":"23 F (-5 C):1","Dew Point":"30 F (-1 C)","Relative Humidity":"86%","Pressure (altimeter)":"29.41 in. Hg (0996 hPa)","ob":"EPGD 181800Z 24011G21KT 210V270 4000 -SHSN SCT011CB BKN017 01/M01 Q0996","cycle":"18"},
{"_id":"4495a8a111ec85eb6d2389a681d5af11","_rev":"1-7b87d5f8ba44cf190361223620db6bd7","Location":"Gdansk-Rebiechowo, Poland (EPGD) 54-23N 018-28E 138M","Date":"Jan 25, 2012 - 11:00 AM EST / 2012.01.25 1600 UTC","Wind":"from the NNW (330 degrees) at 5 MPH (4 KT):0","Visibility":"greater than 7 mile(s):0","Sky conditions":"mostly cloudy","Temperature":"30 F (-1 C)","Windchill":"24 F (-4 C):1","Dew Point":"28 F (-2 C)","Relative Humidity":"92%","Pressure (altimeter)":"30.21 in. Hg (1023 hPa)","ob":"EPGD 251600Z 33004KT 9999 FEW004 BKN033 M01/M02 Q1023 R11/290095","cycle":"16"},
{"_id":"4495a8a111ec85eb6d2389a681d5b421","_rev":"1-33be3730d2b97386ed21be3ce6cf2843","Location":"Gdansk-Rebiechowo, Poland (EPGD) 54-23N 018-28E 138M","Date":"Jan 22, 2012 - 07:00 AM EST / 2012.01.22 1200 UTC","Wind":"from the SSW (210 degrees) at 7 MPH (6 KT) (direction variable):0","Visibility":"greater than 7 mile(s):0","Sky conditions":"mostly cloudy","Temperature":"35 F (2 C)","Windchill":"28 F (-2 C):1","Dew Point":"33 F (1 C)","Relative Humidity":"93%","Pressure (altimeter)":"29.23 in. Hg (0990 hPa)","ob":"EPGD 221200Z 21006KT 180V250 9999 FEW009 BKN014 02/01 Q0990 R11/290066","cycle":"12"},
{"_id":"4495a8a111ec85eb6d2389a681d5bcf1","_rev":"1-5ca10580739fc7ae9a6fbc6cef6e23b7","Location":"Gdansk-Rebiechowo, Poland (EPGD) 54-23N 018-28E 138M","Date":"Dec 19, 2011 - 03:00 AM EST / 2011.12.19 0800 UTC","Wind":"from the SW (230 degrees) at 14 MPH (12 KT) gusting to 25 MPH (22 KT) (direction variable):0","Visibility":"greater than 7 mile(s):0","Sky conditions":"mostly cloudy","Temperature":"35 F (2 C)","Windchill":"26 F (-3 C):1","Dew Point":"30 F (-1 C)","Relative Humidity":"80%","Pressure (altimeter)":"29.68 in. Hg (1005 hPa)","ob":"EPGD 190800Z 23012G22KT 190V290 9999 SCT017 BKN036 02/M01 Q1005 R11/290062","cycle":"8"},
{"_id":"4495a8a111ec85eb6d2389a681d5c7aa","_rev":"1-0f0e273094541e459f59f495446f1228","Location":"Gdansk-Rebiechowo, Poland (EPGD) 54-23N 018-28E 138M","Date":"Jan 14, 2012 - 12:00 AM EST / 2012.01.14 0500 UTC","Wind":"from the NW (320 degrees) at 22 MPH (19 KT):0","Visibility":"1 mile(s):0","Sky conditions":"mostly cloudy","Weather":"heavy snow; low drifting snow","Temperature":"30 F (-1 C)","Windchill":"17 F (-8 C):1","Dew Point":"23 F (-5 C)","Relative Humidity":"74%","Pressure (altimeter)":"29.68 in. Hg (1005 hPa)","ob":"EPGD 140500Z 32019KT 3000 +SN DRSN FEW009 BKN026 M01/M05 Q1005 R11/590195","cycle":"5"},
{"_id":"4495a8a111ec85eb6d2389a681d5cfac","_rev":"1-7e0ffedaf61cbc6f76ce4485cb0b61a1","Location":"Gdansk-Rebiechowo, Poland (EPGD) 54-23N 018-28E 138M","Date":"Feb 19, 2012 - 08:00 PM EST / 2012.02.20 0100 UTC","Wind":"from the W (260 degrees) at 15 MPH (13 KT):0","Visibility":"greater than 7 mile(s):0","Sky conditions":"partly cloudy","Temperature":"32 F (0 C)","Windchill":"21 F (-6 C):1","Dew Point":"26 F (-3 C)","Relative Humidity":"80%","Pressure (altimeter)":"29.97 in. Hg (1015 hPa)","ob":"EPGD 200100Z 26013KT 9999 SCT037 M00/M03 Q1015 R11/290095","cycle":"1"},
{"_id":"4495a8a111ec85eb6d2389a681d5d88f","_rev":"1-397a366ed2679551925ebc61cc599f27","Location":"Gdansk-Rebiechowo, Poland (EPGD) 54-23N 018-28E 138M","Date":"Jan 26, 2012 - 09:00 AM EST / 2012.01.26 1400 UTC","Wind":"from the ESE (110 degrees) at 10 MPH (9 KT) (direction variable):0","Visibility":"4 mile(s):0","Sky conditions":"mostly cloudy","Temperature":"24 F (-4 C)","Windchill":"14 F (-10 C):1","Dew Point":"21 F (-6 C)","Relative Humidity":"85%","Pressure (altimeter)":"30.42 in. Hg (1030 hPa)","ob":"EPGD 261400Z 11009KT 080V140 8000 BKN009 M04/M06 Q1030 R11/290095","cycle":"14"},
{"_id":"4495a8a111ec85eb6d2389a681d5dafa","_rev":"1-ddd45089b91f203bea929cf9e01989db","Location":"Gdansk-Rebiechowo, Poland (EPGD) 54-23N 018-28E 138M","Date":"Dec 28, 2011 - 01:00 AM EST / 2011.12.28 0600 UTC","Wind":"from the WSW (250 degrees) at 10 MPH (9 KT):0","Visibility":"greater than 7 mile(s):0","Sky conditions":"mostly cloudy","Temperature":"35 F (2 C)","Windchill":"26 F (-3 C):1","Dew Point":"32 F (0 C)","Relative Humidity":"86%","Pressure (altimeter)":"30.36 in. Hg (1028 hPa)","ob":"EPGD 280600Z 25009KT 9999 BKN006 02/00 Q1028","cycle":"6"},
{"_id":"4495a8a111ec85eb6d2389a681d5e3b8","_rev":"1-4fc80bb84066e246c359abd461a596ac","Location":"Gdansk-Rebiechowo, Poland (EPGD) 54-23N 018-28E 138M","Date":"Jan 21, 2012 - 08:00 PM EST / 2012.01.22 0100 UTC","Wind":"from the SW (220 degrees) at 3 MPH (3 KT) (direction variable):0","Visibility":"greater than 7 mile(s):0","Sky conditions":"mostly cloudy","Temperature":"32 F (0 C)","Dew Point":"32 F (0 C)","Relative Humidity":"100%","Pressure (altimeter)":"29.18 in. Hg (0988 hPa)","ob":"EPGD 220100Z 22003KT 170V280 9999 BKN006 00/M00 Q0988 R11/590342","cycle":"1"},
{"_id":"4495a8a111ec85eb6d2389a681d5e4b9","_rev":"1-bcd5b48fb8911d6b43805c1a7a8a890f","Location":"Gdansk-Rebiechowo, Poland (EPGD) 54-23N 018-28E 138M","Date":"Dec 24, 2011 - 07:00 PM EST / 2011.12.25 0000 UTC","Wind":"from the WNW (290 degrees) at 16 MPH (14 KT):0","Visibility":"greater than 7 mile(s):0","Sky conditions":"mostly cloudy","Temperature":"37 F (3 C)","Dew Point":"32 F (0 C)","Relative Humidity":"80%","Pressure (altimeter)":"30.00 in. Hg (1016 hPa)","ob":"EPGD 250000Z 29014KT 9999 BKN013 03/00 Q1016","cycle":"0"},
{"_id":"4495a8a111ec85eb6d2389a681d5ea2f","_rev":"1-adc70d9a8c24d186bd4951b22857c8d4","Location":"Gdansk-Rebiechowo, Poland (EPGD) 54-23N 018-28E 138M","Date":"Jan 10, 2012 - 05:00 AM EST / 2012.01.10 1000 UTC","Wind":"from the ESE (120 degrees) at 6 MPH (5 KT) (direction variable):0","Visibility":"less than 1 mile:0","Sky conditions":"obscured","Weather":"freezing fog","Temperature":"32 F (0 C)","Windchill":"26 F (-3 C):1","Dew Point":"30 F (-1 C)","Relative Humidity":"92%","Pressure (altimeter)":"30.12 in. Hg (1020 hPa)","ob":"EPGD 101000Z 12005KT 0600 R29/0750V0800 FZFG VV003 M00/M01 Q1020 R11/610259","cycle":"10"},
{"_id":"4495a8a111ec85eb6d2389a681d5ea4a","_rev":"1-ca2d497255249fad3f8a117bf4ce30d8","Location":"Gdansk-Rebiechowo, Poland (EPGD) 54-23N 018-28E 138M","Date":"Dec 23, 2011 - 12:00 PM EST / 2011.12.23 1700 UTC","Wind":"from the SSW (210 degrees) at 6 MPH (5 KT):0","Visibility":"1 mile(s):0","Sky conditions":"mostly cloudy","Weather":"mist","Temperature":"33 F (1 C)","Windchill":"26 F (-3 C):1","Dew Point":"33 F (1 C)","Relative Humidity":"100%","Pressure (altimeter)":"29.91 in. Hg (1013 hPa)","ob":"EPGD 231700Z 21005KT 3000 BR BKN005 01/01 Q1013","cycle":"17"},
{"_id":"4495a8a111ec85eb6d2389a681d5f91c","_rev":"1-ef92a6347c28da62074bb2d76fb2954c","Location":"Gdansk-Rebiechowo, Poland (EPGD) 54-23N 018-28E 138M","Date":"Dec 18, 2011 - 03:00 AM EST / 2011.12.18 0800 UTC","Wind":"from the WSW (240 degrees) at 12 MPH (10 KT):0","Visibility":"greater than 7 mile(s):0","Sky conditions":"mostly cloudy","Temperature":"33 F (1 C)","Windchill":"24 F (-4 C):1","Dew Point":"32 F (0 C)","Relative Humidity":"93%","Pressure (altimeter)":"29.23 in. Hg (0990 hPa)","ob":"EPGD 180800Z 24010KT 9999 SCT009 BKN011 01/M00 Q0990","cycle":"8"},
{"_id":"4495a8a111ec85eb6d2389a681d5fd8a","_rev":"1-2c5f1955569aaa0dd53ad09c98307e94","Location":"Gdansk-Rebiechowo, Poland (EPGD) 54-23N 018-28E 138M","Date":"Feb 07, 2012 - 12:00 PM EST / 2012.02.07 1700 UTC","Wind":"from the ENE (060 degrees) at 10 MPH (9 KT) (direction variable):0","Visibility":"4 mile(s):0","Sky conditions":"mostly cloudy","Weather":"light snow","Temperature":"19 F (-7 C)","Windchill":"6 F (-14 C):1","Dew Point":"15 F (-9 C)","Relative Humidity":"85%","Pressure (altimeter)":"30.77 in. Hg (1042 hPa)","ob":"EPGD 071700Z 06009KT 020V090 8000 -SN BKN011 M07/M09 Q1042 R11/490238","cycle":"17"},
{"_id":"4495a8a111ec85eb6d2389a681d607bc","_rev":"1-1de9728cc09746c09a6b0c9afb2ed1aa","Location":"Gdansk-Rebiechowo, Poland (EPGD) 54-23N 018-28E 138M","Date":"Jan 17, 2012 - 12:00 PM EST / 2012.01.17 1700 UTC","Wind":"Variable at 2 MPH (2 KT):0","Visibility":"greater than 7 mile(s):0","Sky conditions":"mostly cloudy","Temperature":"28 F (-2 C)","Dew Point":"23 F (-5 C)","Relative Humidity":"79%","Pressure (altimeter)":"30.24 in. Hg (1024 hPa)","ob":"EPGD 171700Z VRB02KT 9999 BKN025 M02/M05 Q1024 R11/290095","cycle":"17"},
{"_id":"4495a8a111ec85eb6d2389a681d61095","_rev":"1-e5d73d359699dfda88f34d98a6a7bee3","Location":"Gdansk-Rebiechowo, Poland (EPGD) 54-23N 018-28E 138M","Date":"Jan 10, 2012 - 04:00 PM EST / 2012.01.10 2100 UTC","Wind":"from the W (260 degrees) at 7 MPH (6 KT) (direction variable):0","Visibility":"greater than 7 mile(s):0","Sky conditions":"mostly cloudy","Temperature":"33 F (1 C)","Windchill":"26 F (-3 C):1","Dew Point":"32 F (0 C)","Relative Humidity":"93%","Pressure (altimeter)":"30.24 in. Hg (1024 hPa)","ob":"EPGD 102100Z 26006KT 220V280 9999 BKN012 01/M00 Q1024 R11/290060","cycle":"21"},
{"_id":"4495a8a111ec85eb6d2389a681d61ab3","_rev":"1-3e7ca107322a68a4e9b563090c659eec","Location":"Gdansk-Rebiechowo, Poland (EPGD) 54-23N 018-28E 138M","Date":"Jan 27, 2012 - 02:00 AM EST / 2012.01.27 0700 UTC","Wind":"from the SE (130 degrees) at 1 MPH (1 KT):0","Visibility":"2 mile(s):0","Weather":"mist","Temperature":"8 F (-13 C)","Dew Point":"5 F (-15 C)","Relative Humidity":"84%","Pressure (altimeter)":"30.47 in. Hg (1032 hPa)","ob":"EPGD 270700Z 13001KT 4000 BR NSC M13/M15 Q1032 R11/190095","cycle":"7"},
{"_id":"4495a8a111ec85eb6d2389a681d6238a","_rev":"1-cc546cdd12d30e1e2afc6ebb07df1ee3","Location":"Gdansk-Rebiechowo, Poland (EPGD) 54-23N 018-28E 138M","Date":"Jan 15, 2012 - 10:00 PM EST / 2012.01.16 0300 UTC","Wind":"from the WNW (290 degrees) at 7 MPH (6 KT):0","Visibility":"greater than 7 mile(s):0","Sky conditions":"partly cloudy","Temperature":"28 F (-2 C)","Windchill":"21 F (-6 C):1","Dew Point":"26 F (-3 C)","Relative Humidity":"92%","Pressure (altimeter)":"30.15 in. Hg (1021 hPa)","ob":"EPGD 160300Z 29006KT 9999 FEW020 SCT035 M02/M03 Q1021 R11/590142","cycle":"3"},
{"_id":"4495a8a111ec85eb6d2389a681d627ff","_rev":"1-1bc7e0b144de2d992697902f646ea309","Location":"Gdansk-Rebiechowo, Poland (EPGD) 54-23N 018-28E 138M","Date":"Feb 15, 2012 - 01:00 PM EST / 2012.02.15 1800 UTC","Wind":"from the N (010 degrees) at 10 MPH (9 KT) (direction variable):0","Visibility":"1 mile(s):0","Sky conditions":"mostly cloudy","Weather":"light snow; mist","Temperature":"26 F (-3 C)","Windchill":"15 F (-9 C):1","Dew Point":"23 F (-5 C)","Relative Humidity":"86%","Pressure (altimeter)":"29.41 in. Hg (0996 hPa)","ob":"EPGD 151800Z 01009KT 340V050 2500 -SN BR SCT005 BKN010 M03/M05 Q0996 RESN R11/490332","cycle":"18"},
{"_id":"4495a8a111ec85eb6d2389a681d63766","_rev":"1-c41739b0a0a34d25908970e45bc97f1f","Location":"Gdansk-Rebiechowo, Poland (EPGD) 54-23N 018-28E 138M","Date":"Jan 07, 2012 - 06:00 PM EST / 2012.01.07 2300 UTC","Wind":"from the WSW (240 degrees) at 8 MPH (7 KT) (direction variable):0","Visibility":"greater than 7 mile(s):0","Sky conditions":"mostly cloudy","Temperature":"37 F (3 C)","Dew Point":"35 F (2 C)","Relative Humidity":"93%","Pressure (altimeter)":"29.53 in. Hg (1000 hPa)","ob":"EPGD 072300Z 24007KT 210V270 9999 BKN004 03/02 Q1000","cycle":"23"},
{"_id":"4495a8a111ec85eb6d2389a681d63e36","_rev":"1-8a7cf1f8e3b9cb0c59cde6a75851874b","Location":"Gdansk-Rebiechowo, Poland (EPGD) 54-23N 018-28E 138M","Date":"Dec 28, 2011 - 12:00 AM EST / 2011.12.28 0500 UTC","Wind":"from the WSW (250 degrees) at 9 MPH (8 KT):0","Visibility":"greater than 7 mile(s):0","Sky conditions":"mostly cloudy","Temperature":"35 F (2 C)","Windchill":"28 F (-2 C):1","Dew Point":"33 F (1 C)","Relative Humidity":"93%","Pressure (altimeter)":"30.36 in. Hg (1028 hPa)","ob":"EPGD 280500Z 25008KT 9999 BKN007 02/01 Q1028","cycle":"5"},
{"_id":"4495a8a111ec85eb6d2389a681d6438f","_rev":"1-ebf22ce5b14075adc543bf04eb9143f0","Location":"Gdansk-Rebiechowo, Poland (EPGD) 54-23N 018-28E 138M","Date":"Feb 14, 2012 - 10:00 PM EST / 2012.02.15 0300 UTC","Wind":"from the SSE (160 degrees) at 10 MPH (9 KT) (direction variable):0","Visibility":"1 mile(s):0","Sky conditions":"mostly cloudy","Weather":"light snow; mist","Temperature":"24 F (-4 C)","Windchill":"14 F (-10 C):1","Dew Point":"23 F (-5 C)","Relative Humidity":"92%","Pressure (altimeter)":"29.00 in. Hg (0982 hPa)","ob":"EPGD 150300Z 16009KT 120V200 2200 -SN BR BKN005 M04/M05 Q0982 R11/590243","cycle":"3"},
{"_id":"4495a8a111ec85eb6d2389a681d6479a","_rev":"1-29577f67bd2ac7fbe4ceff928861c174","Location":"Gdansk-Rebiechowo, Poland (EPGD) 54-23N 018-28E 138M","Date":"Dec 20, 2011 - 03:00 PM EST / 2011.12.20 2000 UTC","Wind":"Calm:0","Visibility":"4 mile(s):0","Sky conditions":"mostly cloudy","Temperature":"32 F (0 C)","Dew Point":"28 F (-2 C)","Relative Humidity":"86%","Pressure (altimeter)":"29.85 in. Hg (1011 hPa)","ob":"EPGD 202000Z 00000KT 8000 BKN043 M00/M02 Q1011 R11/190095","cycle":"20"},
{"_id":"4495a8a111ec85eb6d2389a681d64b1e","_rev":"1-045e8524dd5e0ef1007a6e3ebfc23ede","Location":"Gdansk-Rebiechowo, Poland (EPGD) 54-23N 018-28E 138M","Date":"Feb 17, 2012 - 07:00 AM EST / 2012.02.17 1200 UTC","Wind":"from the W (280 degrees) at 16 MPH (14 KT):0","Visibility":"4 mile(s):0","Sky conditions":"overcast","Weather":"light drizzle","Temperature":"35 F (2 C)","Windchill":"24 F (-4 C):1","Dew Point":"32 F (0 C)","Relative Humidity":"86%","Pressure (altimeter)":"29.68 in. Hg (1005 hPa)","ob":"EPGD 171200Z 28014KT 7000 -DZ OVC004 02/00 Q1005 R11/290095","cycle":"12"},
{"_id":"4495a8a111ec85eb6d2389a681d650b8","_rev":"1-faf46919cbeca5c962fc70d95d0f2018","Location":"Gdansk-Rebiechowo, Poland (EPGD) 54-23N 018-28E 138M","Date":"Jan 01, 2012 - 11:00 AM EST / 2012.01.01 1600 UTC","Wind":"from the S (180 degrees) at 6 MPH (5 KT) (direction variable):0","Visibility":"2 mile(s):0","Sky conditions":"mostly cloudy","Weather":"light rain; mist","Temperature":"33 F (1 C)","Windchill":"26 F (-3 C):1","Dew Point":"32 F (0 C)","Relative Humidity":"93%","Pressure (altimeter)":"29.74 in. Hg (1007 hPa)","ob":"EPGD 011600Z 18005KT 110V240 4000 -RA BR BKN004 01/M00 Q1007","cycle":"16"},
{"_id":"4495a8a111ec85eb6d2389a681d65977","_rev":"1-0e24666531547ebb64f3003bb451a6b3","Location":"Gdansk-Rebiechowo, Poland (EPGD) 54-23N 018-28E 138M","Date":"Feb 11, 2012 - 01:00 PM EST / 2012.02.11 1800 UTC","Wind":"from the W (280 degrees) at 5 MPH (4 KT):0","Visibility":"3 mile(s):0","Sky conditions":"mostly cloudy","Temperature":"19 F (-7 C)","Windchill":"12 F (-11 C):1","Dew Point":"17 F (-8 C)","Relative Humidity":"92%","Pressure (altimeter)":"30.47 in. Hg (1032 hPa)","ob":"EPGD 111800Z 28004KT 6000 SCT012 BKN018 M07/M08 Q1032 R29/490241","cycle":"18"},
{"_id":"4495a8a111ec85eb6d2389a681d6606d","_rev":"1-a8862c465d2e05918789deb464e0d420","Location":"Gdansk-Rebiechowo, Poland (EPGD) 54-23N 018-28E 138M","Date":"Jan 03, 2012 - 05:00 PM EST / 2012.01.03 2200 UTC","Wind":"from the SSW (210 degrees) at 20 MPH (17 KT) gusting to 32 MPH (28 KT) (direction variable):0","Visibility":"greater than 7 mile(s):0","Sky conditions":"mostly cloudy","Weather":"rain","Temperature":"39 F (4 C)","Dew Point":"35 F (2 C)","Relative Humidity":"86%","Pressure (altimeter)":"29.41 in. Hg (0996 hPa)","ob":"EPGD 032200Z 21017G28KT 170V250 9999 RA BKN014 04/02 Q0996","cycle":"22"},
{"_id":"4495a8a111ec85eb6d2389a681d66225","_rev":"1-6986c230444cac9bc034b4aa7f066970","Location":"Gdansk-Rebiechowo, Poland (EPGD) 54-23N 018-28E 138M","Date":"Feb 06, 2012 - 09:00 PM EST / 2012.02.07 0200 UTC","Wind":"from the NNW (340 degrees) at 3 MPH (3 KT):0","Visibility":"2 mile(s):0","Sky conditions":"mostly cloudy","Weather":"light snow; mist","Temperature":"8 F (-13 C)","Dew Point":"5 F (-15 C)","Relative Humidity":"84%","Pressure (altimeter)":"30.65 in. Hg (1038 hPa)","ob":"EPGD 070200Z 34003KT 4000 -SN BR FEW005 BKN008 M13/M15 Q1038 R11/490152","cycle":"2"},
{"_id":"4495a8a111ec85eb6d2389a681d66c98","_rev":"1-4a4b8b5fea49261645c4f69a76d5783a","Location":"Gdansk-Rebiechowo, Poland (EPGD) 54-23N 018-28E 138M","Date":"Feb 19, 2012 - 11:00 AM EST / 2012.02.19 1600 UTC","Wind":"from the WSW (240 degrees) at 9 MPH (8 KT) (direction variable):0","Visibility":"greater than 7 mile(s):0","Sky conditions":"mostly cloudy","Temperature":"35 F (2 C)","Windchill":"28 F (-2 C):1","Dew Point":"30 F (-1 C)","Relative Humidity":"80%","Pressure (altimeter)":"29.74 in. Hg (1007 hPa)","ob":"EPGD 191600Z 24008KT 210V270 9999 FEW023 BKN033 02/M01 Q1007 R11/290095","cycle":"16"},
{"_id":"4495a8a111ec85eb6d2389a681d66e0e","_rev":"1-0677c27ebc2338ae7fe461a42d6a72b3","Location":"Gdansk-Rebiechowo, Poland (EPGD) 54-23N 018-28E 138M","Date":"Dec 16, 2011 - 05:00 AM EST / 2011.12.16 1000 UTC","Wind":"from the SSE (160 degrees) at 8 MPH (7 KT) (direction variable):0","Visibility":"greater than 7 mile(s):0","Temperature":"37 F (3 C)","Dew Point":"32 F (0 C)","Relative Humidity":"80%","Pressure (altimeter)":"29.32 in. Hg (0993 hPa)","ob":"EPGD 161000Z 16007KT 120V200 CAVOK 03/M00 Q0993","cycle":"10"},
{"_id":"4495a8a111ec85eb6d2389a681d679ac","_rev":"1-8e006258d0471635e28317903991b509","Location":"Gdansk-Rebiechowo, Poland (EPGD) 54-23N 018-28E 138M","Date":"Feb 19, 2012 - 01:00 AM EST / 2012.02.19 0600 UTC","Wind":"from the SSW (200 degrees) at 10 MPH (9 KT) (direction variable):0","Visibility":"5 mile(s):0","Sky conditions":"mostly cloudy","Weather":"light rain","Temperature":"37 F (3 C)","Dew Point":"35 F (2 C)","Relative Humidity":"93%","Pressure (altimeter)":"29.62 in. Hg (1003 hPa)","ob":"EPGD 190600Z 20009KT 160V230 9000 -RA BKN005 03/02 Q1003 R11/290095","cycle":"6"},
{"_id":"4495a8a111ec85eb6d2389a681d68562","_rev":"1-9df880136b7708cd9b2c9b705663424e","Location":"Gdansk-Rebiechowo, Poland (EPGD) 54-23N 018-28E 138M","Date":"Feb 18, 2012 - 11:00 AM EST / 2012.02.18 1600 UTC","Wind":"from the SSW (200 degrees) at 12 MPH (10 KT) (direction variable):0","Visibility":"greater than 7 mile(s):0","Sky conditions":"mostly cloudy","Temperature":"33 F (1 C)","Windchill":"24 F (-4 C):1","Dew Point":"30 F (-1 C)","Relative Humidity":"86%","Pressure (altimeter)":"29.85 in. Hg (1011 hPa)","ob":"EPGD 181600Z 20010KT 170V230 9999 BKN009 01/M01 Q1011 R11/190095","cycle":"16"},
{"_id":"4495a8a111ec85eb6d2389a681d68b36","_rev":"1-2a26bbe8a2a348f4c71544cbaa916d30","Location":"Gdansk-Rebiechowo, Poland (EPGD) 54-23N 018-28E 138M","Date":"Feb 03, 2012 - 01:00 AM EST / 2012.02.03 0600 UTC","Wind":"from the SW (230 degrees) at 6 MPH (5 KT):0","Visibility":"1 mile(s):0","Weather":"mist","Temperature":"-2 F (-19 C)","Windchill":"-14 F (-26 C):2","Dew Point":"-7 F (-22 C)","Relative Humidity":"77%","Pressure (altimeter)":"30.47 in. Hg (1032 hPa)","ob":"EPGD 030600Z 23005KT 2500 BR NSC M19/M22 Q1032 R11/190095","cycle":"6"},
{"_id":"4495a8a111ec85eb6d2389a681d69311","_rev":"1-0ebb83591b2789fcae822a34fb1a24f2","Location":"Gdansk-Rebiechowo, Poland (EPGD) 54-23N 018-28E 138M","Date":"Dec 19, 2011 - 11:00 PM EST / 2011.12.20 0400 UTC","Wind":"from the SW (220 degrees) at 7 MPH (6 KT) (direction variable):0","Visibility":"greater than 7 mile(s):0","Sky conditions":"mostly cloudy","Temperature":"33 F (1 C)","Windchill":"26 F (-3 C):1","Dew Point":"30 F (-1 C)","Relative Humidity":"86%","Pressure (altimeter)":"29.88 in. Hg (1012 hPa)","ob":"EPGD 200400Z 22006KT 180V250 9999 BKN009 01/M01 Q1012 R11/290095","cycle":"4"},
{"_id":"4495a8a111ec85eb6d2389a681d69424","_rev":"1-48bd5ab60f6a6f4b2af6835306b51e2b","Location":"Gdansk-Rebiechowo, Poland (EPGD) 54-23N 018-28E 138M","Date":"Feb 12, 2012 - 03:00 PM EST / 2012.02.12 2000 UTC","Wind":"from the WSW (250 degrees) at 9 MPH (8 KT):0","Visibility":"3 mile(s):0","Sky conditions":"mostly cloudy","Weather":"mist","Temperature":"21 F (-6 C)","Windchill":"10 F (-12 C):1","Dew Point":"17 F (-8 C)","Relative Humidity":"85%","Pressure (altimeter)":"30.09 in. Hg (1019 hPa)","ob":"EPGD 122000Z 25008KT 5000 BR BKN009 M06/M08 Q1019 R29/490233","cycle":"20"},
{"_id":"4495a8a111ec85eb6d2389a681d69cb5","_rev":"1-fb39d9b7a9926b9a0a279b695905d902","Location":"Gdansk-Rebiechowo, Poland (EPGD) 54-23N 018-28E 138M","Date":"Dec 23, 2011 - 10:00 PM EST / 2011.12.24 0300 UTC","Wind":"from the WSW (240 degrees) at 3 MPH (3 KT) (direction variable):0","Visibility":"2 mile(s):0","Sky conditions":"mostly cloudy","Weather":"mist","Temperature":"37 F (3 C)","Dew Point":"37 F (3 C)","Relative Humidity":"100%","Pressure (altimeter)":"29.77 in. Hg (1008 hPa)","ob":"EPGD 240300Z 24003KT 200V260 4000 BR BKN003 03/03 Q1008","cycle":"3"},
{"_id":"4495a8a111ec85eb6d2389a681d6a946","_rev":"1-1d5f24a74e0f608a3b41a2182a1e1ddc","Location":"Gdansk-Rebiechowo, Poland (EPGD) 54-23N 018-28E 138M","Date":"Jan 04, 2012 - 02:00 AM EST / 2012.01.04 0700 UTC","Wind":"from the SW (230 degrees) at 17 MPH (15 KT) gusting to 30 MPH (26 KT) (direction variable):0","Visibility":"greater than 7 mile(s):0","Sky conditions":"mostly clear","Temperature":"39 F (4 C)","Dew Point":"32 F (0 C)","Relative Humidity":"75%","Pressure (altimeter)":"29.41 in. Hg (0996 hPa)","ob":"EPGD 040700Z 23015G26KT 200V270 9999 FEW036 04/M00 Q0996","cycle":"7"},
{"_id":"4495a8a111ec85eb6d2389a681d6b808","_rev":"1-42c9ca6ffbef7878aafaef631905e0d0","Location":"Gdansk-Rebiechowo, Poland (EPGD) 54-23N 018-28E 138M","Date":"Dec 28, 2011 - 01:00 PM EST / 2011.12.28 1800 UTC","Wind":"from the SSW (210 degrees) at 10 MPH (9 KT) (direction variable):0","Visibility":"greater than 7 mile(s):0","Sky conditions":"mostly cloudy","Temperature":"42 F (6 C)","Dew Point":"35 F (2 C)","Relative Humidity":"75%","Pressure (altimeter)":"30.00 in. Hg (1016 hPa)","ob":"EPGD 281800Z 21009KT 170V250 9999 BKN021 06/02 Q1016","cycle":"18"},
{"_id":"4495a8a111ec85eb6d2389a681d6c180","_rev":"1-72edb76c4e187d9691cfacc13b5994d3","Location":"Gdansk-Rebiechowo, Poland (EPGD) 54-23N 018-28E 138M","Date":"Jan 07, 2012 - 10:00 AM EST / 2012.01.07 1500 UTC","Wind":"from the S (190 degrees) at 8 MPH (7 KT) (direction variable):0","Visibility":"greater than 7 mile(s):0","Sky conditions":"mostly cloudy","Temperature":"35 F (2 C)","Windchill":"28 F (-2 C):1","Dew Point":"33 F (1 C)","Relative Humidity":"93%","Pressure (altimeter)":"29.53 in. Hg (1000 hPa)","ob":"EPGD 071500Z 19007KT 160V220 9999 BKN007 02/01 Q1000","cycle":"15"},
{"_id":"4495a8a111ec85eb6d2389a681d6ccb0","_rev":"1-1695bb8e0111412777a2da9d1526d826","Location":"Gdansk-Rebiechowo, Poland (EPGD) 54-23N 018-28E 138M","Date":"Feb 19, 2012 - 11:00 PM EST / 2012.02.20 0400 UTC","Wind":"from the W (260 degrees) at 16 MPH (14 KT):0","Visibility":"greater than 7 mile(s):0","Sky conditions":"mostly cloudy","Temperature":"32 F (0 C)","Windchill":"21 F (-6 C):1","Dew Point":"26 F (-3 C)","Relative Humidity":"80%","Pressure (altimeter)":"30.03 in. Hg (1017 hPa)","ob":"EPGD 200400Z 26014KT 9999 BKN021 00/M03 Q1017 R11/290095","cycle":"4"},
{"_id":"4495a8a111ec85eb6d2389a681d6cf7e","_rev":"1-fd1aabee889e40bacfaef74171ef0ef4","Location":"Gdansk-Rebiechowo, Poland (EPGD) 54-23N 018-28E 138M","Date":"Dec 14, 2011 - 06:00 PM EST / 2011.12.14 2300 UTC","Wind":"from the SW (220 degrees) at 10 MPH (9 KT) (direction variable):0","Visibility":"greater than 7 mile(s):0","Sky conditions":"mostly cloudy","Weather":"rain showers; Towering cumulus clouds observed","Temperature":"42 F (6 C)","Dew Point":"39 F (4 C)","Relative Humidity":"86%","Pressure (altimeter)":"29.47 in. Hg (0998 hPa)","ob":"EPGD 142300Z 22009KT 180V280 9999 SHRA SCT009 BKN011TCU 06/04 Q0998","cycle":"23"},
{"_id":"4495a8a111ec85eb6d2389a681d6da02","_rev":"1-ab08ed2cc33edb2849c2d426c50073f8","Location":"Gdansk-Rebiechowo, Poland (EPGD) 54-23N 018-28E 138M","Date":"Dec 24, 2011 - 03:00 AM EST / 2011.12.24 0800 UTC","Wind":"from the SW (230 degrees) at 5 MPH (4 KT) (direction variable):0","Visibility":"4 mile(s):0","Sky conditions":"mostly cloudy","Weather":"light rain","Temperature":"39 F (4 C)","Dew Point":"39 F (4 C)","Relative Humidity":"100%","Pressure (altimeter)":"29.74 in. Hg (1007 hPa)","ob":"EPGD 240800Z 23004KT 200V260 7000 -RA BKN004 BKN035 04/04 Q1007","cycle":"8"},
{"_id":"4495a8a111ec85eb6d2389a681d6dec2","_rev":"1-625e96a71c81c262e33a256d32c9ddd2","Location":"Gdansk-Rebiechowo, Poland (EPGD) 54-23N 018-28E 138M","Date":"Feb 15, 2012 - 05:00 AM EST / 2012.02.15 1000 UTC","Wind":"from the NE (040 degrees) at 6 MPH (5 KT) (direction variable):0","Visibility":"1 mile(s):0","Sky conditions":"mostly cloudy","Weather":"light snow; mist","Temperature":"26 F (-3 C)","Windchill":"19 F (-7 C):1","Dew Point":"23 F (-5 C)","Relative Humidity":"86%","Pressure (altimeter)":"29.00 in. Hg (0982 hPa)","ob":"EPGD 151000Z 04005KT 010V070 2500 R29/1200V1400 -SN BR BKN005 M03/M05 Q0982 R11/490157","cycle":"10"},
{"_id":"4495a8a111ec85eb6d2389a681d6e6e6","_rev":"1-1baac5dbb6fe81abf217a67f0d90b6a0","Location":"Gdansk-Rebiechowo, Poland (EPGD) 54-23N 018-28E 138M","Date":"Jan 12, 2012 - 10:00 PM EST / 2012.01.13 0300 UTC","Wind":"from the W (280 degrees) at 20 MPH (17 KT):0","Visibility":"greater than 7 mile(s):0","Sky conditions":"mostly cloudy","Temperature":"35 F (2 C)","Windchill":"24 F (-4 C):1","Dew Point":"30 F (-1 C)","Relative Humidity":"80%","Pressure (altimeter)":"29.53 in. Hg (1000 hPa)","ob":"EPGD 130300Z 28017KT 9999 FEW012 BKN023 02/M01 Q1000","cycle":"3"},
{"_id":"4495a8a111ec85eb6d2389a681d6ef5a","_rev":"1-73de941f62426dededf0bea758500bdf","Location":"Gdansk-Rebiechowo, Poland (EPGD) 54-23N 018-28E 138M","Date":"Feb 18, 2012 - 10:00 PM EST / 2012.02.19 0300 UTC","Wind":"from the SSW (200 degrees) at 9 MPH (8 KT):0","Visibility":"4 mile(s):0","Sky conditions":"mostly cloudy","Weather":"light rain","Temperature":"37 F (3 C)","Dew Point":"33 F (1 C)","Relative Humidity":"86%","Pressure (altimeter)":"29.65 in. Hg (1004 hPa)","ob":"EPGD 190300Z 20008KT 7000 -RA BKN004 03/01 Q1004 R11/290095","cycle":"3"},
{"_id":"4495a8a111ec85eb6d2389a681d6fd04","_rev":"1-ce787f26defc85b3dd4ee67ceccc5411","Location":"Gdansk-Rebiechowo, Poland (EPGD) 54-23N 018-28E 138M","Date":"Dec 25, 2011 - 08:00 PM EST / 2011.12.26 0100 UTC","Wind":"from the WSW (240 degrees) at 18 MPH (16 KT) gusting to 30 MPH (26 KT) (direction variable):0","Visibility":"greater than 7 mile(s):0","Sky conditions":"mostly cloudy","Weather":"light rain showers","Temperature":"44 F (7 C)","Dew Point":"42 F (6 C)","Relative Humidity":"93%","Pressure (altimeter)":"30.06 in. Hg (1018 hPa)","ob":"EPGD 260100Z 24016G26KT 210V270 9999 -SHRA BKN009 07/06 Q1018","cycle":"1"},
{"_id":"4495a8a111ec85eb6d2389a681d6fe81","_rev":"1-0b73eafeff0e47f8a3c74eac1b430fa9","Location":"Gdansk-Rebiechowo, Poland (EPGD) 54-23N 018-28E 138M","Date":"Dec 19, 2011 - 08:00 AM EST / 2011.12.19 1300 UTC","Wind":"from the SW (220 degrees) at 14 MPH (12 KT) (direction variable):0","Visibility":"greater than 7 mile(s):0","Sky conditions":"mostly cloudy","Temperature":"37 F (3 C)","Dew Point":"30 F (-1 C)","Relative Humidity":"74%","Pressure (altimeter)":"29.77 in. Hg (1008 hPa)","ob":"EPGD 191300Z 22012KT 190V260 9999 BKN021 03/M01 Q1008 R11/290062","cycle":"13"},
{"_id":"4495a8a111ec85eb6d2389a681d70bd4","_rev":"1-8d9314ea26ef909987acff1398b1160f","Location":"Gdansk-Rebiechowo, Poland (EPGD) 54-23N 018-28E 138M","Date":"Jan 01, 2012 - 05:00 PM EST / 2012.01.01 2200 UTC","Wind":"from the WSW (240 degrees) at 6 MPH (5 KT) (direction variable):0","Visibility":"1 mile(s):0","Sky conditions":"mostly cloudy","Weather":"light drizzle; mist","Temperature":"37 F (3 C)","Dew Point":"37 F (3 C)","Relative Humidity":"100%","Pressure (altimeter)":"29.74 in. Hg (1007 hPa)","ob":"EPGD 012200Z 24005KT 200V270 1800 -DZ BR BKN003 03/03 Q1007","cycle":"22"},
{"_id":"4495a8a111ec85eb6d2389a681d70c3e","_rev":"1-7cbc34faad4a93bcb0c14690eeb83fce","Location":"Gdansk-Rebiechowo, Poland (EPGD) 54-23N 018-28E 138M","Date":"Dec 30, 2011 - 07:00 AM EST / 2011.12.30 1200 UTC","Wind":"from the WSW (250 degrees) at 5 MPH (4 KT) (direction variable):0","Visibility":"greater than 7 mile(s):0","Sky conditions":"mostly cloudy","Temperature":"37 F (3 C)","Dew Point":"33 F (1 C)","Relative Humidity":"86%","Pressure (altimeter)":"29.47 in. Hg (0998 hPa)","ob":"EPGD 301200Z 25004KT 210V280 9999 SCT007 BKN015 03/01 Q0998","cycle":"12"},
{"_id":"4495a8a111ec85eb6d2389a681d71c01","_rev":"1-ab98b896931c11f41dcbbd59d3b8582e","Location":"Gdansk-Rebiechowo, Poland (EPGD) 54-23N 018-28E 138M","Date":"Jan 18, 2012 - 08:00 AM EST / 2012.01.18 1300 UTC","Wind":"from the SW (230 degrees) at 5 MPH (4 KT) (direction variable):0","Visibility":"2 mile(s):0","Sky conditions":"mostly cloudy","Weather":"mist","Temperature":"35 F (2 C)","Windchill":"30 F (-1 C):1","Dew Point":"32 F (0 C)","Relative Humidity":"86%","Pressure (altimeter)":"30.12 in. Hg (1020 hPa)","ob":"EPGD 181300Z 23004KT 200V260 4000 BR BKN008 02/00 Q1020 R11/290095","cycle":"13"},
{"_id":"4495a8a111ec85eb6d2389a681d72120","_rev":"1-1e1c973deb6eec019901fc1327c52ccb","Location":"Gdansk-Rebiechowo, Poland (EPGD) 54-23N 018-28E 138M","Date":"Jan 20, 2012 - 04:00 AM EST / 2012.01.20 0900 UTC","Wind":"from the W (260 degrees) at 7 MPH (6 KT):0","Visibility":"greater than 7 mile(s):0","Sky conditions":"partly cloudy","Temperature":"35 F (2 C)","Windchill":"28 F (-2 C):1","Dew Point":"32 F (0 C)","Relative Humidity":"86%","Pressure (altimeter)":"29.50 in. Hg (0999 hPa)","ob":"EPGD 200900Z 26006KT 9999 SCT008 SCT022 02/M00 Q0999 R11/290095","cycle":"9"},
{"_id":"4495a8a111ec85eb6d2389a681d72c3b","_rev":"1-87c55886f2aeeed91028792c015fee2b","Location":"Gdansk-Rebiechowo, Poland (EPGD) 54-23N 018-28E 138M","Date":"Dec 17, 2011 - 12:00 AM EST / 2011.12.17 0500 UTC","Wind":"from the SSE (160 degrees) at 6 MPH (5 KT) gusting to 18 MPH (16 KT) (direction variable):0","Visibility":"greater than 7 mile(s):0","Sky conditions":"mostly cloudy","Weather":"light rain","Temperature":"35 F (2 C)","Windchill":"30 F (-1 C):1","Dew Point":"32 F (0 C)","Relative Humidity":"86%","Pressure (altimeter)":"28.97 in. Hg (0981 hPa)","ob":"EPGD 170500Z 16005G16KT 110V200 9999 -RA FEW005 BKN030 02/M00 Q0981 R11/290064","cycle":"5"},
{"_id":"4495a8a111ec85eb6d2389a681d73485","_rev":"1-193f8bba09873460085bd93bd5ffa9d7","Location":"Gdansk-Rebiechowo, Poland (EPGD) 54-23N 018-28E 138M","Date":"Jan 04, 2012 - 09:00 AM EST / 2012.01.04 1400 UTC","Wind":"from the WSW (250 degrees) at 20 MPH (17 KT) gusting to 35 MPH (30 KT) (direction variable):0","Visibility":"greater than 7 mile(s):0","Sky conditions":"mostly cloudy","Temperature":"41 F (5 C)","Dew Point":"30 F (-1 C)","Relative Humidity":"65%","Pressure (altimeter)":"29.41 in. Hg (0996 hPa)","ob":"EPGD 041400Z 25017G30KT 220V280 9999 BKN030 05/M01 Q0996","cycle":"14"},
{"_id":"4495a8a111ec85eb6d2389a681d73fe3","_rev":"1-f6c2df81a09318e05d513859dfa00268","Location":"Gdansk-Rebiechowo, Poland (EPGD) 54-23N 018-28E 138M","Date":"Feb 17, 2012 - 02:00 PM EST / 2012.02.17 1900 UTC","Wind":"from the WNW (290 degrees) at 14 MPH (12 KT):0","Visibility":"greater than 7 mile(s):0","Sky conditions":"mostly cloudy","Temperature":"33 F (1 C)","Windchill":"23 F (-5 C):1","Dew Point":"30 F (-1 C)","Relative Humidity":"86%","Pressure (altimeter)":"29.80 in. Hg (1009 hPa)","ob":"EPGD 171900Z 29012KT 9999 BKN016 01/M01 Q1009 R11/290095","cycle":"19"},
{"_id":"4495a8a111ec85eb6d2389a681d746fe","_rev":"1-f451393b9b182671d117fc797f0d6eac","Location":"Gdansk-Rebiechowo, Poland (EPGD) 54-23N 018-28E 138M","Date":"Jan 06, 2012 - 08:00 PM EST / 2012.01.07 0100 UTC","Wind":"from the WSW (250 degrees) at 9 MPH (8 KT):0","Visibility":"greater than 7 mile(s):0","Temperature":"30 F (-1 C)","Windchill":"21 F (-6 C):1","Dew Point":"26 F (-3 C)","Relative Humidity":"86%","Pressure (altimeter)":"29.74 in. Hg (1007 hPa)","ob":"EPGD 070100Z 25008KT CAVOK M01/M03 Q1007 R11/190095","cycle":"1"},
{"_id":"4495a8a111ec85eb6d2389a681d7541f","_rev":"1-4f49ece3d55fb83885a9fef3b9575efc","Location":"Gdansk-Rebiechowo, Poland (EPGD) 54-23N 018-28E 138M","Date":"Jan 28, 2012 - 07:00 AM EST / 2012.01.28 1200 UTC","Wind":"from the ESE (110 degrees) at 13 MPH (11 KT):0","Visibility":"4 mile(s):0","Sky conditions":"partly cloudy","Weather":"light ice crystals","Temperature":"12 F (-11 C)","Windchill":"-2 F (-19 C):1","Dew Point":"6 F (-14 C)","Relative Humidity":"78%","Pressure (altimeter)":"30.56 in. Hg (1035 hPa)","ob":"EPGD 281200Z 11011KT 8000 -IC SCT006 M11/M14 Q1035 R11/190095","cycle":"12"},
{"_id":"4495a8a111ec85eb6d2389a681d75596","_rev":"1-b93fd3ff84a4a574d927a01299d6865b","Location":"Gdansk-Rebiechowo, Poland (EPGD) 54-23N 018-28E 138M","Date":"Jan 22, 2012 - 01:00 PM EST / 2012.01.22 1800 UTC","Wind":"from the WSW (240 degrees) at 7 MPH (6 KT) (direction variable):0","Visibility":"greater than 7 mile(s):0","Sky conditions":"mostly cloudy","Temperature":"33 F (1 C)","Windchill":"26 F (-3 C):1","Dew Point":"32 F (0 C)","Relative Humidity":"93%","Pressure (altimeter)":"29.26 in. Hg (0991 hPa)","ob":"EPGD 221800Z 24006KT 210V270 9999 FEW008 BKN018 01/00 Q0991 R11/290066","cycle":"18"},
{"_id":"4495a8a111ec85eb6d2389a681d758c1","_rev":"1-e2614b1c737d88f012c1450812b77d04","Location":"Gdansk-Rebiechowo, Poland (EPGD) 54-23N 018-28E 138M","Date":"Dec 30, 2011 - 06:00 PM EST / 2011.12.30 2300 UTC","Wind":"from the W (260 degrees) at 5 MPH (4 KT):0","Visibility":"greater than 7 mile(s):0","Sky conditions":"partly cloudy","Temperature":"33 F (1 C)","Windchill":"28 F (-2 C):1","Dew Point":"32 F (0 C)","Relative Humidity":"93%","Pressure (altimeter)":"29.65 in. Hg (1004 hPa)","ob":"EPGD 302300Z 26004KT 9999 SCT005 01/M00 Q1004","cycle":"23"},
{"_id":"4495a8a111ec85eb6d2389a681d75e95","_rev":"1-8946963631d6684a2c3e7c8fae741629","Location":"Gdansk-Rebiechowo, Poland (EPGD) 54-23N 018-28E 138M","Date":"Jan 18, 2012 - 05:00 PM EST / 2012.01.18 2200 UTC","Wind":"from the WSW (240 degrees) at 9 MPH (8 KT) (direction variable):0","Visibility":"greater than 7 mile(s):0","Sky conditions":"mostly cloudy","Temperature":"32 F (0 C)","Windchill":"24 F (-4 C):1","Dew Point":"28 F (-2 C)","Relative Humidity":"86%","Pressure (altimeter)":"29.85 in. Hg (1011 hPa)","ob":"EPGD 182200Z 24008KT 190V260 9999 BKN009 00/M02 Q1011 R11/290095","cycle":"22"},
{"_id":"4495a8a111ec85eb6d2389a681d76687","_rev":"1-5b2444088dea0f120cff0da6c86f2539","Location":"Gdansk-Rebiechowo, Poland (EPGD) 54-23N 018-28E 138M","Date":"Jan 30, 2012 - 02:00 PM EST / 2012.01.30 1900 UTC","Wind":"from the ESE (110 degrees) at 7 MPH (6 KT):0","Visibility":"greater than 7 mile(s):0","Temperature":"8 F (-13 C)","Windchill":"-4 F (-20 C):1","Dew Point":"1 F (-17 C)","Relative Humidity":"71%","Pressure (altimeter)":"30.77 in. Hg (1042 hPa)","ob":"EPGD 301900Z 11006KT CAVOK M13/M17 Q1042","cycle":"19"},
{"_id":"4495a8a111ec85eb6d2389a681d771af","_rev":"1-745a3553ecdb0d29b4d341b6f1bf4449","Location":"Gdansk-Rebiechowo, Poland (EPGD) 54-23N 018-28E 138M","Date":"Dec 30, 2011 - 10:00 PM EST / 2011.12.31 0300 UTC","Wind":"from the W (280 degrees) at 5 MPH (4 KT):0","Visibility":"greater than 7 mile(s):0","Sky conditions":"mostly cloudy","Temperature":"33 F (1 C)","Windchill":"28 F (-2 C):1","Dew Point":"32 F (0 C)","Relative Humidity":"93%","Pressure (altimeter)":"29.68 in. Hg (1005 hPa)","ob":"EPGD 310300Z 28004KT 9999 FEW004 BKN034 01/00 Q1005","cycle":"3"},
{"_id":"4495a8a111ec85eb6d2389a681d7796a","_rev":"1-6665941a089a8e0fd01e6fd6650c60ac","Location":"Gdansk-Rebiechowo, Poland (EPGD) 54-23N 018-28E 138M","Date":"Jan 09, 2012 - 09:00 PM EST / 2012.01.10 0200 UTC","Wind":"from the SE (130 degrees) at 7 MPH (6 KT):0","Visibility":"1 mile(s):0","Sky conditions":"mostly cloudy","Weather":"light snow","Temperature":"30 F (-1 C)","Windchill":"23 F (-5 C):1","Dew Point":"28 F (-2 C)","Relative Humidity":"92%","Pressure (altimeter)":"29.97 in. Hg (1015 hPa)","ob":"EPGD 100200Z 13006KT 3000 -SN BKN005 M01/M02 Q1015 R11/290095","cycle":"2"},
{"_id":"4495a8a111ec85eb6d2389a681d7866f","_rev":"1-5c760f8eb2e28ddb08000f95ba8de8a9","Location":"Gdansk-Rebiechowo, Poland (EPGD) 54-23N 018-28E 138M","Date":"Jan 26, 2012 - 07:00 PM EST / 2012.01.27 0000 UTC","Wind":"from the ESE (120 degrees) at 8 MPH (7 KT):0","Visibility":"2 mile(s):0","Weather":"mist","Temperature":"14 F (-10 C)","Windchill":"3 F (-16 C):1","Dew Point":"10 F (-12 C)","Relative Humidity":"85%","Pressure (altimeter)":"30.45 in. Hg (1031 hPa)","ob":"EPGD 270000Z 12007KT 4000 BR NSC M10/M12 Q1031","cycle":"0"},
{"_id":"4495a8a111ec85eb6d2389a681d78733","_rev":"1-c6dd2d493d8f59582ec2f882c7afe90d","Location":"Gdansk-Rebiechowo, Poland (EPGD) 54-23N 018-28E 138M","Date":"Jan 15, 2012 - 03:00 AM EST / 2012.01.15 0800 UTC","Wind":"from the NNW (340 degrees) at 10 MPH (9 KT) (direction variable):0","Visibility":"less than 1 mile:0","Sky conditions":"mostly cloudy","Weather":"light snow showers; Cumulonimbus clouds observed","Temperature":"30 F (-1 C)","Windchill":"21 F (-6 C):1","Dew Point":"28 F (-2 C)","Relative Humidity":"92%","Pressure (altimeter)":"30.00 in. Hg (1016 hPa)","ob":"EPGD 150800Z 34009KT 1200 R29/1300V2000 -SHSN SCT003 BKN013CB M01/M02 Q1016 R11/590231","cycle":"8"},
{"_id":"4495a8a111ec85eb6d2389a681d79722","_rev":"1-ebe6f727126629cc27f30f7b1d66e038","Location":"Gdansk-Rebiechowo, Poland (EPGD) 54-23N 018-28E 138M","Date":"Dec 20, 2011 - 09:00 PM EST / 2011.12.21 0200 UTC","Wind":"Calm (direction variable):0","Visibility":"less than 1 mile:0","Sky conditions":"obscured","Weather":"freezing fog","Temperature":"24 F (-4 C)","Dew Point":"23 F (-5 C)","Relative Humidity":"92%","Pressure (altimeter)":"29.80 in. Hg (1009 hPa)","ob":"EPGD 210200Z 00000KT 0300 R29/0325V0600 FZFG VV001 M04/M05 Q1009 R11/190095","cycle":"2"},
{"_id":"4495a8a111ec85eb6d2389a681d79a69","_rev":"1-fcf88c167671963363b342829906f584","Location":"Gdansk-Rebiechowo, Poland (EPGD) 54-23N 018-28E 138M","Date":"Feb 02, 2012 - 11:00 AM EST / 2012.02.02 1600 UTC","Wind":"from the ESE (120 degrees) at 5 MPH (4 KT):0","Visibility":"3 mile(s):0","Temperature":"0 F (-18 C)","Windchill":"-11 F (-24 C):2","Dew Point":"-5 F (-21 C)","Relative Humidity":"77%","Pressure (altimeter)":"30.56 in. Hg (1035 hPa)","ob":"EPGD 021600Z 12004KT 6000 NSC M18/M21 Q1035 R11/190095","cycle":"16"},
{"_id":"4495a8a111ec85eb6d2389a681d79cc2","_rev":"1-e3ada4020de19d6bd9e20f39a72babf1","Location":"Gdansk-Rebiechowo, Poland (EPGD) 54-23N 018-28E 138M","Date":"Dec 31, 2011 - 03:00 PM EST / 2011.12.31 2000 UTC","Wind":"from the WSW (250 degrees) at 7 MPH (6 KT) (direction variable):0","Visibility":"less than 1 mile:0","Sky conditions":"mostly cloudy","Weather":"mist","Temperature":"28 F (-2 C)","Windchill":"21 F (-6 C):1","Dew Point":"28 F (-2 C)","Relative Humidity":"100%","Pressure (altimeter)":"29.91 in. Hg (1013 hPa)","ob":"EPGD 312000Z 25006KT 1500 R29/1100V2000 BR BKN001 M02/M02 Q1013","cycle":"20"},
{"_id":"4495a8a111ec85eb6d2389a681d7a0c5","_rev":"1-bf0c767ab1b661bde935b5aad350e7c8","Location":"Gdansk-Rebiechowo, Poland (EPGD) 54-23N 018-28E 138M","Date":"Jan 12, 2012 - 05:00 AM EST / 2012.01.12 1000 UTC","Wind":"from the SW (220 degrees) at 15 MPH (13 KT) (direction variable):0","Visibility":"greater than 7 mile(s):0","Sky conditions":"mostly cloudy","Weather":"light rain","Temperature":"44 F (7 C)","Dew Point":"41 F (5 C)","Relative Humidity":"87%","Pressure (altimeter)":"29.68 in. Hg (1005 hPa)","ob":"EPGD 121000Z 22013KT 180V260 9999 -RA BKN007 07/05 Q1005","cycle":"10"},
{"_id":"4495a8a111ec85eb6d2389a681d7a821","_rev":"1-7933ed87a4ca8586c39d97104228bd3c","Location":"Gdansk-Rebiechowo, Poland (EPGD) 54-23N 018-28E 138M","Date":"Jan 11, 2012 - 12:00 AM EST / 2012.01.11 0500 UTC","Wind":"from the SW (220 degrees) at 8 MPH (7 KT) (direction variable):0","Visibility":"3 mile(s):0","Sky conditions":"mostly cloudy","Temperature":"37 F (3 C)","Dew Point":"35 F (2 C)","Relative Humidity":"93%","Pressure (altimeter)":"30.15 in. Hg (1021 hPa)","ob":"EPGD 110500Z 22007KT 170V250 6000 SCT006 BKN023 03/02 Q1021 R11/290060","cycle":"5"},
{"_id":"4495a8a111ec85eb6d2389a681d7b7d1","_rev":"1-5d301981a72558418319af91a4faae5c","Location":"Gdansk-Rebiechowo, Poland (EPGD) 54-23N 018-28E 138M","Date":"Feb 08, 2012 - 08:00 AM EST / 2012.02.08 1300 UTC","Wind":"Variable at 2 MPH (2 KT):0","Visibility":"greater than 7 mile(s):0","Sky conditions":"partly cloudy","Temperature":"26 F (-3 C)","Dew Point":"17 F (-8 C)","Relative Humidity":"68%","Pressure (altimeter)":"30.65 in. Hg (1038 hPa)","ob":"EPGD 081300Z VRB02KT 9999 SCT020 M03/M08 Q1038 R11/490159","cycle":"13"},
{"_id":"4495a8a111ec85eb6d2389a681d7c62a","_rev":"1-f5e3525b548fb96556ae8e774c0d821f","Location":"Gdansk-Rebiechowo, Poland (EPGD) 54-23N 018-28E 138M","Date":"Dec 22, 2011 - 11:00 PM EST / 2011.12.23 0400 UTC","Wind":"from the SSW (210 degrees) at 3 MPH (3 KT) (direction variable):0","Visibility":"2 mile(s):0","Sky conditions":"overcast","Weather":"mist","Temperature":"30 F (-1 C)","Dew Point":"28 F (-2 C)","Relative Humidity":"92%","Pressure (altimeter)":"30.09 in. Hg (1019 hPa)","ob":"EPGD 230400Z 21003KT 160V250 4000 BR OVC004 M01/M02 Q1019","cycle":"4"},
{"_id":"4495a8a111ec85eb6d2389a681d7cec1","_rev":"1-8bc3b7faa2959ba66403b54f8d97c6a0","Location":"Gdansk-Rebiechowo, Poland (EPGD) 54-23N 018-28E 138M","Date":"Jan 23, 2012 - 01:00 PM EST / 2012.01.23 1800 UTC","Wind":"from the W (270 degrees) at 8 MPH (7 KT):0","Visibility":"greater than 7 mile(s):0","Sky conditions":"mostly cloudy","Temperature":"33 F (1 C)","Windchill":"26 F (-3 C):1","Dew Point":"32 F (0 C)","Relative Humidity":"93%","Pressure (altimeter)":"29.68 in. Hg (1005 hPa)","ob":"EPGD 231800Z 27007KT 9999 FEW005 BKN007 01/M00 Q1005","cycle":"18"},
{"_id":"4495a8a111ec85eb6d2389a681d7d32f","_rev":"1-075ea0b9d52d7bf19c794a416536d991","Location":"Gdansk-Rebiechowo, Poland (EPGD) 54-23N 018-28E 138M","Date":"Dec 15, 2011 - 07:00 AM EST / 2011.12.15 1200 UTC","Wind":"from the SW (220 degrees) at 10 MPH (9 KT) (direction variable):0","Visibility":"greater than 7 mile(s):0","Temperature":"41 F (5 C)","Dew Point":"33 F (1 C)","Relative Humidity":"75%","Pressure (altimeter)":"29.65 in. Hg (1004 hPa)","ob":"EPGD 151200Z 22009KT 180V260 CAVOK 05/01 Q1004","cycle":"12"},
{"_id":"4495a8a111ec85eb6d2389a681d7e2f6","_rev":"1-5f688a8f7c21ffce043a8f9d9355cb35","Location":"Gdansk-Rebiechowo, Poland (EPGD) 54-23N 018-28E 138M","Date":"Jan 23, 2012 - 03:00 PM EST / 2012.01.23 2000 UTC","Wind":"from the W (280 degrees) at 12 MPH (10 KT):0","Visibility":"greater than 7 mile(s):0","Sky conditions":"mostly cloudy","Temperature":"33 F (1 C)","Windchill":"24 F (-4 C):1","Dew Point":"32 F (0 C)","Relative Humidity":"93%","Pressure (altimeter)":"29.71 in. Hg (1006 hPa)","ob":"EPGD 232000Z 28010KT 9999 BKN007 01/M00 Q1006","cycle":"20"},
{"_id":"4495a8a111ec85eb6d2389a681d7ec9f","_rev":"1-8a4c30256c876021e4d936e05b7d2c24","Location":"Gdansk-Rebiechowo, Poland (EPGD) 54-23N 018-28E 138M","Date":"Dec 22, 2011 - 10:00 PM EST / 2011.12.23 0300 UTC","Wind":"from the SSW (210 degrees) at 3 MPH (3 KT) (direction variable):0","Visibility":"2 mile(s):0","Sky conditions":"overcast","Weather":"mist","Temperature":"28 F (-2 C)","Dew Point":"28 F (-2 C)","Relative Humidity":"100%","Pressure (altimeter)":"30.09 in. Hg (1019 hPa)","ob":"EPGD 230300Z 21003KT 170V250 4000 BR OVC004 M02/M02 Q1019","cycle":"3"},
{"_id":"4495a8a111ec85eb6d2389a681d7f14c","_rev":"1-ec1f8e3023fbcc705cd0a23554c6fbd2","Location":"Gdansk-Rebiechowo, Poland (EPGD) 54-23N 018-28E 138M","Date":"Jan 29, 2012 - 12:00 PM EST / 2012.01.29 1700 UTC","Wind":"from the E (100 degrees) at 9 MPH (8 KT):0","Visibility":"greater than 7 mile(s):0","Temperature":"17 F (-8 C)","Windchill":"5 F (-15 C):1","Dew Point":"3 F (-16 C)","Relative Humidity":"52%","Pressure (altimeter)":"30.77 in. Hg (1042 hPa)","ob":"EPGD 291700Z 10008KT CAVOK M08/M16 Q1042 R11/190095","cycle":"17"},
{"_id":"4495a8a111ec85eb6d2389a681d7f28b","_rev":"1-136ad9bed49beb46d90823563a4a504a","Location":"Gdansk-Rebiechowo, Poland (EPGD) 54-23N 018-28E 138M","Date":"Jan 06, 2012 - 04:00 AM EST / 2012.01.06 0900 UTC","Wind":"from the N (350 degrees) at 16 MPH (14 KT) gusting to 29 MPH (25 KT):0","Visibility":"4 mile(s):0","Sky conditions":"mostly cloudy","Weather":"light rain showers","Temperature":"39 F (4 C)","Dew Point":"35 F (2 C)","Relative Humidity":"86%","Pressure (altimeter)":"29.29 in. Hg (0992 hPa)","ob":"EPGD 060900Z 35014G25KT 8000 -SHRA BKN009 04/02 Q0992","cycle":"9"},
{"_id":"4495a8a111ec85eb6d2389a681d7f8ea","_rev":"1-dc79fe8bdebff78ca1376894c415cd34","Location":"Gdansk-Rebiechowo, Poland (EPGD) 54-23N 018-28E 138M","Date":"Dec 26, 2011 - 09:00 PM EST / 2011.12.27 0200 UTC","Wind":"from the W (260 degrees) at 22 MPH (19 KT) gusting to 36 MPH (31 KT):0","Visibility":"greater than 7 mile(s):0","Sky conditions":"mostly cloudy","Temperature":"50 F (10 C)","Dew Point":"44 F (7 C)","Relative Humidity":"81%","Pressure (altimeter)":"30.21 in. Hg (1023 hPa)","ob":"EPGD 270200Z 26019G31KT 9999 BKN013 10/07 Q1023","cycle":"2"},
{"_id":"4495a8a111ec85eb6d2389a681d802a1","_rev":"1-c2b8af5acfe1eb1de34576855a4b7dc5","Location":"Gdansk-Rebiechowo, Poland (EPGD) 54-23N 018-28E 138M","Date":"Jan 14, 2012 - 11:00 PM EST / 2012.01.15 0400 UTC","Wind":"from the NNW (330 degrees) at 15 MPH (13 KT):0","Visibility":"2 mile(s):0","Sky conditions":"mostly cloudy","Weather":"light snow showers; Cumulonimbus clouds observed","Temperature":"30 F (-1 C)","Windchill":"19 F (-7 C):1","Dew Point":"26 F (-3 C)","Relative Humidity":"86%","Pressure (altimeter)":"29.94 in. Hg (1014 hPa)","ob":"EPGD 150400Z 33013KT 4000 -SHSN SCT004 BKN009CB M01/M03 Q1014 RESN R11/590230","cycle":"4"},
{"_id":"4495a8a111ec85eb6d2389a681d80efa","_rev":"1-14e4bab1bcd590814f84a2756490f183","Location":"Gdansk-Rebiechowo, Poland (EPGD) 54-23N 018-28E 138M","Date":"Feb 19, 2012 - 03:00 AM EST / 2012.02.19 0800 UTC","Wind":"from the SSW (200 degrees) at 10 MPH (9 KT) (direction variable):0","Visibility":"greater than 7 mile(s):0","Sky conditions":"mostly cloudy","Temperature":"37 F (3 C)","Dew Point":"35 F (2 C)","Relative Humidity":"93%","Pressure (altimeter)":"29.59 in. Hg (1002 hPa)","ob":"EPGD 190800Z 20009KT 160V230 9999 BKN006 03/02 Q1002 R11/290095","cycle":"8"},
{"_id":"4495a8a111ec85eb6d2389a681d8106b","_rev":"1-29745ae7d79e4fa01d885f2a1b5e8bee","Location":"Gdansk-Rebiechowo, Poland (EPGD) 54-23N 018-28E 138M","Date":"Jan 20, 2012 - 05:00 AM EST / 2012.01.20 1000 UTC","Wind":"from the W (270 degrees) at 10 MPH (9 KT):0","Visibility":"greater than 7 mile(s):0","Sky conditions":"mostly cloudy","Temperature":"33 F (1 C)","Windchill":"24 F (-4 C):1","Dew Point":"32 F (0 C)","Relative Humidity":"93%","Pressure (altimeter)":"29.50 in. Hg (0999 hPa)","ob":"EPGD 201000Z 27009KT 9999 FEW006 BKN011 01/M00 Q0999 R11/290095","cycle":"10"},
{"_id":"4495a8a111ec85eb6d2389a681d8175c","_rev":"1-bdc3b98b396fffa2da519bc58dd05805","Location":"Gdansk-Rebiechowo, Poland (EPGD) 54-23N 018-28E 138M","Date":"Jan 21, 2012 - 07:00 AM EST / 2012.01.21 1200 UTC","Wind":"from the S (180 degrees) at 7 MPH (6 KT) (direction variable):0","Visibility":"greater than 7 mile(s):0","Sky conditions":"mostly cloudy","Temperature":"33 F (1 C)","Windchill":"26 F (-3 C):1","Dew Point":"28 F (-2 C)","Relative Humidity":"80%","Pressure (altimeter)":"29.62 in. Hg (1003 hPa)","ob":"EPGD 211200Z 18006KT 130V220 9999 BKN013 01/M02 Q1003 R11/290095","cycle":"12"},
{"_id":"4495a8a111ec85eb6d2389a681d8195f","_rev":"1-5cbb6b93de45f2934dee59ffe421d2dc","Location":"Gdansk-Rebiechowo, Poland (EPGD) 54-23N 018-28E 138M","Date":"Jan 04, 2012 - 05:00 PM EST / 2012.01.04 2200 UTC","Wind":"from the WSW (240 degrees) at 17 MPH (15 KT) gusting to 30 MPH (26 KT) (direction variable):0","Visibility":"greater than 7 mile(s):0","Sky conditions":"partly cloudy","Temperature":"37 F (3 C)","Dew Point":"30 F (-1 C)","Relative Humidity":"74%","Pressure (altimeter)":"29.44 in. Hg (0997 hPa)","ob":"EPGD 042200Z 24015G26KT 200V270 9999 FEW020 SCT042 03/M01 Q0997","cycle":"22"},
{"_id":"4495a8a111ec85eb6d2389a681d824b7","_rev":"1-6ed73b15c1061385fc9650d6abb20a49","Location":"Gdansk-Rebiechowo, Poland (EPGD) 54-23N 018-28E 138M","Date":"Jan 06, 2012 - 02:00 PM EST / 2012.01.06 1900 UTC","Wind":"from the WNW (300 degrees) at 10 MPH (9 KT):0","Visibility":"greater than 7 mile(s):0","Sky conditions":"mostly cloudy","Temperature":"32 F (0 C)","Windchill":"23 F (-5 C):1","Dew Point":"26 F (-3 C)","Relative Humidity":"80%","Pressure (altimeter)":"29.71 in. Hg (1006 hPa)","ob":"EPGD 061900Z 30009KT 9999 BKN046 00/M03 Q1006","cycle":"19"},
{"_id":"4495a8a111ec85eb6d2389a681d82b72","_rev":"1-df191a674fe0201af295f6154add68d8","Location":"Gdansk-Rebiechowo, Poland (EPGD) 54-23N 018-28E 138M","Date":"Jan 15, 2012 - 04:00 AM EST / 2012.01.15 0900 UTC","Wind":"from the N (350 degrees) at 10 MPH (9 KT):0","Visibility":"4 mile(s):0","Sky conditions":"mostly cloudy","Weather":"light snow showers; Cumulonimbus clouds observed","Temperature":"30 F (-1 C)","Windchill":"21 F (-6 C):1","Dew Point":"28 F (-2 C)","Relative Humidity":"92%","Pressure (altimeter)":"30.03 in. Hg (1017 hPa)","ob":"EPGD 150900Z 35009KT 7000 -SHSN SCT004 BKN012CB M01/M02 Q1017 R11/590231","cycle":"9"},
{"_id":"4495a8a111ec85eb6d2389a681d8327b","_rev":"1-0a67bc2836295ef0aead500c0a3d29ec","Location":"Gdansk-Rebiechowo, Poland (EPGD) 54-23N 018-28E 138M","Date":"Jan 28, 2012 - 05:00 AM EST / 2012.01.28 1000 UTC","Wind":"from the ESE (120 degrees) at 12 MPH (10 KT):0","Visibility":"4 mile(s):0","Sky conditions":"mostly clear","Temperature":"10 F (-12 C)","Windchill":"-4 F (-20 C):1","Dew Point":"5 F (-15 C)","Relative Humidity":"78%","Pressure (altimeter)":"30.59 in. Hg (1036 hPa)","ob":"EPGD 281000Z 12010KT 8000 FEW006 M12/M15 Q1036 R11/190095","cycle":"10"},
{"_id":"4495a8a111ec85eb6d2389a681d83550","_rev":"1-6b1eeb0c38d1345518171dc15cd258b9","Location":"Gdansk-Rebiechowo, Poland (EPGD) 54-23N 018-28E 138M","Date":"Jan 17, 2012 - 12:00 AM EST / 2012.01.17 0500 UTC","Wind":"Calm:0","Visibility":"1 mile(s):0","Sky conditions":"mostly cloudy","Weather":"mist","Temperature":"28 F (-2 C)","Dew Point":"26 F (-3 C)","Relative Humidity":"92%","Pressure (altimeter)":"30.12 in. Hg (1020 hPa)","ob":"EPGD 170500Z 00000KT 2000 BR BKN005 M02/M03 Q1020 R11/290053","cycle":"5"},
{"_id":"4495a8a111ec85eb6d2389a681d83cee","_rev":"1-7745bd0cd2cd991452e482f2bf930f19","Location":"Gdansk-Rebiechowo, Poland (EPGD) 54-23N 018-28E 138M","Date":"Jan 15, 2012 - 06:00 PM EST / 2012.01.15 2300 UTC","Wind":"from the NW (320 degrees) at 6 MPH (5 KT):0","Visibility":"greater than 7 mile(s):0","Sky conditions":"partly cloudy","Weather":"light snow showers; Towering cumulus clouds observed","Temperature":"28 F (-2 C)","Windchill":"21 F (-6 C):1","Dew Point":"26 F (-3 C)","Relative Humidity":"92%","Pressure (altimeter)":"30.15 in. Hg (1021 hPa)","ob":"EPGD 152300Z 32005KT 9999 -SHSN FEW004 SCT021TCU SCT030 M02/M03 Q1021 RESHSN R11/590142","cycle":"23"},
{"_id":"4495a8a111ec85eb6d2389a681d83ffa","_rev":"1-72857b5960a850e2ca57c1210000c554","Location":"Gdansk-Rebiechowo, Poland (EPGD) 54-23N 018-28E 138M","Date":"Jan 04, 2012 - 07:00 AM EST / 2012.01.04 1200 UTC","Wind":"from the WSW (240 degrees) at 18 MPH (16 KT) gusting to 35 MPH (30 KT) (direction variable):0","Visibility":"greater than 7 mile(s):0","Sky conditions":"mostly cloudy","Temperature":"41 F (5 C)","Dew Point":"30 F (-1 C)","Relative Humidity":"65%","Pressure (altimeter)":"29.41 in. Hg (0996 hPa)","ob":"EPGD 041200Z 24016G30KT 200V270 9999 BKN030 05/M01 Q0996","cycle":"12"},
{"_id":"4495a8a111ec85eb6d2389a681d84144","_rev":"1-d123ad3830283690b17998884780201d","Location":"Gdansk-Rebiechowo, Poland (EPGD) 54-23N 018-28E 138M","Date":"Dec 22, 2011 - 04:00 AM EST / 2011.12.22 0900 UTC","Wind":"Calm:0","Visibility":"2 mile(s):0","Weather":"mist","Temperature":"26 F (-3 C)","Dew Point":"23 F (-5 C)","Relative Humidity":"86%","Pressure (altimeter)":"30.12 in. Hg (1020 hPa)","ob":"EPGD 220900Z 00000KT 4000 BR NSC M03/M05 Q1020","cycle":"9"},
{"_id":"4495a8a111ec85eb6d2389a681d84e7d","_rev":"1-44c2373074293b12d493e5262f2f1563","Location":"Gdansk-Rebiechowo, Poland (EPGD) 54-23N 018-28E 138M","Date":"Jan 02, 2012 - 06:00 AM EST / 2012.01.02 1100 UTC","Wind":"from the SW (230 degrees) at 9 MPH (8 KT) (direction variable):0","Visibility":"greater than 7 mile(s):0","Sky conditions":"mostly cloudy","Temperature":"50 F (10 C)","Dew Point":"48 F (9 C)","Relative Humidity":"93%","Pressure (altimeter)":"29.56 in. Hg (1001 hPa)","ob":"EPGD 021100Z 23008KT 200V260 9999 BKN010 10/09 Q1001","cycle":"11"},
{"_id":"4495a8a111ec85eb6d2389a681d851ea","_rev":"1-72aa37a8ac572094cd80e33c297f5b0c","Location":"Gdansk-Rebiechowo, Poland (EPGD) 54-23N 018-28E 138M","Date":"Feb 14, 2012 - 03:00 PM EST / 2012.02.14 2000 UTC","Wind":"from the SSW (200 degrees) at 10 MPH (9 KT):0","Visibility":"greater than 7 mile(s):0","Temperature":"26 F (-3 C)","Windchill":"15 F (-9 C):1","Dew Point":"19 F (-7 C)","Relative Humidity":"73%","Pressure (altimeter)":"29.50 in. Hg (0999 hPa)","ob":"EPGD 142000Z 20009KT CAVOK M03/M07 Q0999 R11/190095","cycle":"20"},
{"_id":"4495a8a111ec85eb6d2389a681d86041","_rev":"1-2f3ea66d19afc9266e3f4715afb54b38","Location":"Gdansk-Rebiechowo, Poland (EPGD) 54-23N 018-28E 138M","Date":"Feb 03, 2012 - 12:00 PM EST / 2012.02.03 1700 UTC","Wind":"Variable at 2 MPH (2 KT):0","Visibility":"1 mile(s):0","Sky conditions":"mostly cloudy","Weather":"light snow; mist","Temperature":"12 F (-11 C)","Dew Point":"8 F (-13 C)","Relative Humidity":"85%","Pressure (altimeter)":"30.50 in. Hg (1033 hPa)","ob":"EPGD 031700Z VRB02KT 3000 -SN BR BKN011 M11/M13 Q1033 R11/490144","cycle":"17"},
{"_id":"4495a8a111ec85eb6d2389a681d8666b","_rev":"1-25dc8aba48448629c924565f8bfa4fd8","Location":"Gdansk-Rebiechowo, Poland (EPGD) 54-23N 018-28E 138M","Date":"Jan 18, 2012 - 09:00 PM EST / 2012.01.19 0200 UTC","Wind":"from the WSW (250 degrees) at 12 MPH (10 KT):0","Visibility":"4 mile(s):0","Sky conditions":"mostly cloudy","Weather":"light drizzle","Temperature":"32 F (0 C)","Windchill":"23 F (-5 C):1","Dew Point":"32 F (0 C)","Relative Humidity":"100%","Pressure (altimeter)":"29.74 in. Hg (1007 hPa)","ob":"EPGD 190200Z 25010KT 7000 -DZ BKN007 00/M00 Q1007 R11/290095","cycle":"2"},
{"_id":"4495a8a111ec85eb6d2389a681d86e4f","_rev":"1-d9fe644a715d152313220bf469a5cdf7","Location":"Gdansk-Rebiechowo, Poland (EPGD) 54-23N 018-28E 138M","Date":"Dec 27, 2011 - 02:00 AM EST / 2011.12.27 0700 UTC","Wind":"from the W (260 degrees) at 22 MPH (19 KT) gusting to 35 MPH (30 KT):0","Visibility":"greater than 7 mile(s):0","Sky conditions":"mostly cloudy","Temperature":"50 F (10 C)","Dew Point":"44 F (7 C)","Relative Humidity":"81%","Pressure (altimeter)":"30.18 in. Hg (1022 hPa)","ob":"EPGD 270700Z 26019G30KT 9999 BKN016 10/07 Q1022","cycle":"7"},
{"_id":"4495a8a111ec85eb6d2389a681d87b07","_rev":"1-e497703ca63762decbba569a0a077f30","Location":"Gdansk-Rebiechowo, Poland (EPGD) 54-23N 018-28E 138M","Date":"Jan 07, 2012 - 09:00 AM EST / 2012.01.07 1400 UTC","Wind":"from the S (190 degrees) at 6 MPH (5 KT) (direction variable):0","Visibility":"greater than 7 mile(s):0","Sky conditions":"mostly cloudy","Weather":"light rain","Temperature":"35 F (2 C)","Windchill":"30 F (-1 C):1","Dew Point":"32 F (0 C)","Relative Humidity":"86%","Pressure (altimeter)":"29.56 in. Hg (1001 hPa)","ob":"EPGD 071400Z 19005KT 150V250 9999 -RA BKN008 02/00 Q1001","cycle":"14"},
{"_id":"4495a8a111ec85eb6d2389a681d87e40","_rev":"1-8cd68c0109cb913f13b85494aa6d0333","Location":"Gdansk-Rebiechowo, Poland (EPGD) 54-23N 018-28E 138M","Date":"Jan 16, 2012 - 09:00 PM EST / 2012.01.17 0200 UTC","Wind":"Calm:0","Visibility":"1 mile(s):0","Sky conditions":"mostly cloudy","Weather":"mist","Temperature":"28 F (-2 C)","Dew Point":"26 F (-3 C)","Relative Humidity":"92%","Pressure (altimeter)":"30.09 in. Hg (1019 hPa)","ob":"EPGD 170200Z 00000KT 2600 BR FEW015 BKN023 M02/M03 Q1019 R11/290053","cycle":"2"},
{"_id":"4495a8a111ec85eb6d2389a681d88acb","_rev":"1-600c179b6ac5adca010f5a8530dbf93a","Location":"Gdansk-Rebiechowo, Poland (EPGD) 54-23N 018-28E 138M","Date":"Dec 20, 2011 - 04:00 AM EST / 2011.12.20 0900 UTC","Wind":"from the S (190 degrees) at 5 MPH (4 KT) (direction variable):0","Visibility":"4 mile(s):0","Sky conditions":"mostly cloudy","Temperature":"33 F (1 C)","Windchill":"28 F (-2 C):1","Dew Point":"30 F (-1 C)","Relative Humidity":"86%","Pressure (altimeter)":"29.88 in. Hg (1012 hPa)","ob":"EPGD 200900Z 19004KT 160V240 8000 BKN008 01/M01 Q1012 R11/190095","cycle":"9"},
{"_id":"4495a8a111ec85eb6d2389a681d89714","_rev":"1-9c0580606aef3eeceb70ed1a51b0d2b9","Location":"Gdansk-Rebiechowo, Poland (EPGD) 54-23N 018-28E 138M","Date":"Jan 07, 2012 - 12:00 AM EST / 2012.01.07 0500 UTC","Wind":"from the WSW (250 degrees) at 12 MPH (10 KT):0","Visibility":"4 mile(s):0","Sky conditions":"partly cloudy","Weather":"light snow showers; Towering cumulus clouds observed","Temperature":"32 F (0 C)","Windchill":"23 F (-5 C):1","Dew Point":"30 F (-1 C)","Relative Humidity":"92%","Pressure (altimeter)":"29.68 in. Hg (1005 hPa)","ob":"EPGD 070500Z 25010KT 8000 -SHSN SCT008 SCT015TCU 00/M01 Q1005 RESHSN R11/190095","cycle":"5"},
{"_id":"4495a8a111ec85eb6d2389a681d89b4f","_rev":"1-b0c60be20f6ac6353f0ebaf469bfb165","Location":"Gdansk-Rebiechowo, Poland (EPGD) 54-23N 018-28E 138M","Date":"Dec 20, 2011 - 04:00 PM EST / 2011.12.20 2100 UTC","Wind":"Variable at 1 MPH (1 KT):0","Visibility":"4 mile(s):0","Sky conditions":"mostly cloudy","Temperature":"32 F (0 C)","Dew Point":"28 F (-2 C)","Relative Humidity":"86%","Pressure (altimeter)":"29.85 in. Hg (1011 hPa)","ob":"EPGD 202100Z VRB01KT 8000 BKN040 M00/M02 Q1011 R11/190095","cycle":"21"},
{"_id":"4495a8a111ec85eb6d2389a681d8a9a9","_rev":"1-bc767b53e60b9f3ccdef43e57da8d8a1","Location":"Gdansk-Rebiechowo, Poland (EPGD) 54-23N 018-28E 138M","Date":"Dec 26, 2011 - 06:00 PM EST / 2011.12.26 2300 UTC","Wind":"from the WSW (250 degrees) at 18 MPH (16 KT):0","Visibility":"greater than 7 mile(s):0","Sky conditions":"mostly cloudy","Temperature":"50 F (10 C)","Dew Point":"44 F (7 C)","Relative Humidity":"81%","Pressure (altimeter)":"30.24 in. Hg (1024 hPa)","ob":"EPGD 262300Z 25016KT 9999 BKN015 10/07 Q1024","cycle":"23"},
{"_id":"4495a8a111ec85eb6d2389a681d8b102","_rev":"1-b9da594be7e97ed72d6f2d0b6c845069","Location":"Gdansk-Rebiechowo, Poland (EPGD) 54-23N 018-28E 138M","Date":"Dec 30, 2011 - 02:00 PM EST / 2011.12.30 1900 UTC","Wind":"from the WNW (290 degrees) at 6 MPH (5 KT):0","Visibility":"greater than 7 mile(s):0","Sky conditions":"mostly cloudy","Temperature":"35 F (2 C)","Windchill":"30 F (-1 C):1","Dew Point":"33 F (1 C)","Relative Humidity":"93%","Pressure (altimeter)":"29.59 in. Hg (1002 hPa)","ob":"EPGD 301900Z 29005KT 9999 FEW007 BKN036 02/01 Q1002","cycle":"19"},
{"_id":"4495a8a111ec85eb6d2389a681d8bdb1","_rev":"1-e0b4ca034035cfe9a14d77856a27e30f","Location":"Gdansk-Rebiechowo, Poland (EPGD) 54-23N 018-28E 138M","Date":"Dec 21, 2011 - 08:00 PM EST / 2011.12.22 0100 UTC","Wind":"Variable at 2 MPH (2 KT):0","Visibility":"1 mile(s):0","Sky conditions":"partly cloudy","Weather":"mist","Temperature":"26 F (-3 C)","Dew Point":"23 F (-5 C)","Relative Humidity":"86%","Pressure (altimeter)":"30.03 in. Hg (1017 hPa)","ob":"EPGD 220100Z VRB02KT 2500 BR SCT021 M03/M05 Q1017","cycle":"1"},
{"_id":"4495a8a111ec85eb6d2389a681d8c371","_rev":"1-8f84f02a2e2781f64f41773cc618ce9f","Location":"Gdansk-Rebiechowo, Poland (EPGD) 54-23N 018-28E 138M","Date":"Dec 26, 2011 - 03:00 PM EST / 2011.12.26 2000 UTC","Wind":"from the W (260 degrees) at 16 MPH (14 KT):0","Visibility":"greater than 7 mile(s):0","Sky conditions":"mostly cloudy","Temperature":"50 F (10 C)","Dew Point":"48 F (9 C)","Relative Humidity":"93%","Pressure (altimeter)":"30.24 in. Hg (1024 hPa)","ob":"EPGD 262000Z 26014KT 9999 BKN009 10/09 Q1024","cycle":"20"},
{"_id":"4495a8a111ec85eb6d2389a681d8c9a2","_rev":"1-c5f39c1c67db5af34c6b6ae185722a73","Location":"Gdansk-Rebiechowo, Poland (EPGD) 54-23N 018-28E 138M","Date":"Jan 07, 2012 - 12:00 PM EST / 2012.01.07 1700 UTC","Wind":"from the SSW (200 degrees) at 8 MPH (7 KT) (direction variable):0","Visibility":"greater than 7 mile(s):0","Sky conditions":"mostly cloudy","Weather":"light rain showers, snow","Temperature":"35 F (2 C)","Windchill":"28 F (-2 C):1","Dew Point":"33 F (1 C)","Relative Humidity":"93%","Pressure (altimeter)":"29.53 in. Hg (1000 hPa)","ob":"EPGD 071700Z 20007KT 160V260 9999 -SHRASN BKN008 02/01 Q1000","cycle":"17"},
{"_id":"4495a8a111ec85eb6d2389a681d8d93d","_rev":"1-666038df0340e6e8eec710fee2177f26","Location":"Gdansk-Rebiechowo, Poland (EPGD) 54-23N 018-28E 138M","Date":"Jan 26, 2012 - 04:00 AM EST / 2012.01.26 0900 UTC","Wind":"from the SE (130 degrees) at 5 MPH (4 KT) (direction variable):0","Visibility":"1 mile(s):0","Sky conditions":"partly cloudy","Weather":"mist","Temperature":"26 F (-3 C)","Windchill":"19 F (-7 C):1","Dew Point":"24 F (-4 C)","Relative Humidity":"92%","Pressure (altimeter)":"30.39 in. Hg (1029 hPa)","ob":"EPGD 260900Z 13004KT 110V170 3000 BR SCT005 M03/M04 Q1029 R11/290095","cycle":"9"},
{"_id":"4495a8a111ec85eb6d2389a681d8e0bb","_rev":"1-66e43d7a1ae58e7bf8262d5779a849fa","Location":"Gdansk-Rebiechowo, Poland (EPGD) 54-23N 018-28E 138M","Date":"Feb 19, 2012 - 10:00 AM EST / 2012.02.19 1500 UTC","Wind":"from the WSW (240 degrees) at 9 MPH (8 KT):0","Visibility":"greater than 7 mile(s):0","Sky conditions":"mostly cloudy","Temperature":"37 F (3 C)","Dew Point":"30 F (-1 C)","Relative Humidity":"74%","Pressure (altimeter)":"29.71 in. Hg (1006 hPa)","ob":"EPGD 191500Z 24008KT 9999 FEW020 BKN030 03/M01 Q1006 R11/290095","cycle":"15"},
{"_id":"4495a8a111ec85eb6d2389a681d8f08a","_rev":"1-88be99286ce75fbb5f9311473584b2c2","Location":"Gdansk-Rebiechowo, Poland (EPGD) 54-23N 018-28E 138M","Date":"Dec 17, 2011 - 04:00 PM EST / 2011.12.17 2100 UTC","Wind":"from the W (270 degrees) at 13 MPH (11 KT):0","Visibility":"greater than 7 mile(s):0","Sky conditions":"mostly cloudy","Weather":"light rain","Temperature":"35 F (2 C)","Windchill":"26 F (-3 C):1","Dew Point":"33 F (1 C)","Relative Humidity":"93%","Pressure (altimeter)":"29.12 in. Hg (0986 hPa)","ob":"EPGD 172100Z 27011KT 9999 -RA BKN007 02/01 Q0986 R11/290064","cycle":"21"},
{"_id":"4495a8a111ec85eb6d2389a681d8f289","_rev":"1-3c1c9a679cd4c90943c8318fb7dafa05","Location":"Gdansk-Rebiechowo, Poland (EPGD) 54-23N 018-28E 138M","Date":"Dec 20, 2011 - 11:00 PM EST / 2011.12.21 0400 UTC","Wind":"from the ESE (110 degrees) at 5 MPH (4 KT) (direction variable):0","Visibility":"less than 1 mile:0","Sky conditions":"obscured","Weather":"freezing fog","Temperature":"23 F (-5 C)","Windchill":"15 F (-9 C):1","Dew Point":"19 F (-7 C)","Relative Humidity":"85%","Pressure (altimeter)":"29.80 in. Hg (1009 hPa)","ob":"EPGD 210400Z 11004KT 0300 R29/0300V0400 FZFG VV001 M05/M07 Q1009 R11/190095","cycle":"4"},
{"_id":"4495a8a111ec85eb6d2389a681d8f5b2","_rev":"1-9fad897f9b96b05186950ad4081bfd92","Location":"Gdansk-Rebiechowo, Poland (EPGD) 54-23N 018-28E 138M","Date":"Jan 04, 2012 - 12:00 AM EST / 2012.01.04 0500 UTC","Wind":"from the SW (230 degrees) at 13 MPH (11 KT) (direction variable):0","Visibility":"greater than 7 mile(s):0","Sky conditions":"mostly cloudy","Temperature":"41 F (5 C)","Dew Point":"32 F (0 C)","Relative Humidity":"70%","Pressure (altimeter)":"29.38 in. Hg (0995 hPa)","ob":"EPGD 040500Z 23011KT 200V260 9999 BKN026 05/00 Q0995","cycle":"5"},
{"_id":"4495a8a111ec85eb6d2389a681d8f826","_rev":"1-bd6824fc4c2ccfeae881ce2641607035","Location":"Gdansk-Rebiechowo, Poland (EPGD) 54-23N 018-28E 138M","Date":"Dec 23, 2011 - 10:00 AM EST / 2011.12.23 1500 UTC","Wind":"from the S (190 degrees) at 6 MPH (5 KT):0","Visibility":"1 mile(s):0","Sky conditions":"overcast","Weather":"mist","Temperature":"33 F (1 C)","Windchill":"26 F (-3 C):1","Dew Point":"32 F (0 C)","Relative Humidity":"93%","Pressure (altimeter)":"29.94 in. Hg (1014 hPa)","ob":"EPGD 231500Z 19005KT 2500 BR OVC005 01/M00 Q1014","cycle":"15"},
{"_id":"4495a8a111ec85eb6d2389a681d8faf8","_rev":"1-573e6a49788fdcdee3ad5b027b263188","Location":"Gdansk-Rebiechowo, Poland (EPGD) 54-23N 018-28E 138M","Date":"Jan 31, 2012 - 02:00 PM EST / 2012.01.31 1900 UTC","Wind":"from the E (080 degrees) at 2 MPH (2 KT):0","Visibility":"greater than 7 mile(s):0","Temperature":"6 F (-14 C)","Dew Point":"3 F (-16 C)","Relative Humidity":"84%","Pressure (altimeter)":"30.71 in. Hg (1040 hPa)","ob":"EPGD 311900Z 08002KT CAVOK M14/M16 Q1040 R11/190095","cycle":"19"},
{"_id":"4495a8a111ec85eb6d2389a681d900ff","_rev":"1-8744adea667a3f4e24ffbee282d5f1fa","Location":"Gdansk-Rebiechowo, Poland (EPGD) 54-23N 018-28E 138M","Date":"Dec 15, 2011 - 10:00 PM EST / 2011.12.16 0300 UTC","Wind":"from the SSE (160 degrees) at 7 MPH (6 KT) (direction variable):0","Visibility":"greater than 7 mile(s):0","Temperature":"35 F (2 C)","Windchill":"28 F (-2 C):1","Dew Point":"32 F (0 C)","Relative Humidity":"86%","Pressure (altimeter)":"29.53 in. Hg (1000 hPa)","ob":"EPGD 160300Z 16006KT 130V200 CAVOK 02/00 Q1000","cycle":"3"},
{"_id":"4495a8a111ec85eb6d2389a681d90b3f","_rev":"1-2b1dba9f6ecfe0f5adc6dfa16f5f104a","Location":"Gdansk-Rebiechowo, Poland (EPGD) 54-23N 018-28E 138M","Date":"Jan 11, 2012 - 07:00 PM EST / 2012.01.12 0000 UTC","Wind":"from the W (260 degrees) at 12 MPH (10 KT):0","Visibility":"greater than 7 mile(s):0","Sky conditions":"partly cloudy","Temperature":"39 F (4 C)","Dew Point":"33 F (1 C)","Relative Humidity":"80%","Pressure (altimeter)":"30.09 in. Hg (1019 hPa)","ob":"EPGD 120000Z 26010KT 9999 SCT019 04/01 Q1019 R11/290095","cycle":"0"},
{"_id":"4495a8a111ec85eb6d2389a681d90d80","_rev":"1-006b52b5bcc072ad3d32bb1c38caa088","Location":"Gdansk-Rebiechowo, Poland (EPGD) 54-23N 018-28E 138M","Date":"Feb 17, 2012 - 01:00 PM EST / 2012.02.17 1800 UTC","Wind":"from the WNW (290 degrees) at 16 MPH (14 KT):0","Visibility":"greater than 7 mile(s):0","Sky conditions":"mostly cloudy","Temperature":"33 F (1 C)","Windchill":"23 F (-5 C):1","Dew Point":"30 F (-1 C)","Relative Humidity":"86%","Pressure (altimeter)":"29.77 in. Hg (1008 hPa)","ob":"EPGD 171800Z 29014KT 9999 FEW011 BKN016 01/M01 Q1008 R11/290095","cycle":"18"},
{"_id":"4495a8a111ec85eb6d2389a681d91162","_rev":"1-f6de370b07df8bf7e387f29d3cad60c5","Location":"Gdansk-Rebiechowo, Poland (EPGD) 54-23N 018-28E 138M","Date":"Jan 27, 2012 - 07:00 AM EST / 2012.01.27 1200 UTC","Wind":"from the ESE (120 degrees) at 9 MPH (8 KT):0","Visibility":"4 mile(s):0","Sky conditions":"mostly clear","Temperature":"15 F (-9 C)","Windchill":"3 F (-16 C):1","Dew Point":"10 F (-12 C)","Relative Humidity":"78%","Pressure (altimeter)":"30.47 in. Hg (1032 hPa)","ob":"EPGD 271200Z 12008KT 8000 FEW009 M09/M12 Q1032 R11/190095","cycle":"12"},
{"_id":"4495a8a111ec85eb6d2389a681d91430","_rev":"1-18a65cbab3a200afa356e38e51d4c40b","Location":"Gdansk-Rebiechowo, Poland (EPGD) 54-23N 018-28E 138M","Date":"Jan 16, 2012 - 09:00 AM EST / 2012.01.16 1400 UTC","Wind":"from the WNW (290 degrees) at 6 MPH (5 KT):0","Visibility":"greater than 7 mile(s):0","Temperature":"28 F (-2 C)","Windchill":"21 F (-6 C):1","Dew Point":"23 F (-5 C)","Relative Humidity":"79%","Pressure (altimeter)":"30.12 in. Hg (1020 hPa)","ob":"EPGD 161400Z 29005KT CAVOK M02/M05 Q1020 R11/290095","cycle":"14"},
{"_id":"4495a8a111ec85eb6d2389a681d920c8","_rev":"1-e9aa9a1e135ed1980ca1a7f805b8774b","Location":"Gdansk-Rebiechowo, Poland (EPGD) 54-23N 018-28E 138M","Date":"Feb 11, 2012 - 02:00 PM EST / 2012.02.11 1900 UTC","Wind":"from the W (260 degrees) at 5 MPH (4 KT):0","Visibility":"3 mile(s):0","Sky conditions":"mostly cloudy","Weather":"light snow","Temperature":"19 F (-7 C)","Windchill":"12 F (-11 C):1","Dew Point":"17 F (-8 C)","Relative Humidity":"92%","Pressure (altimeter)":"30.47 in. Hg (1032 hPa)","ob":"EPGD 111900Z 26004KT 6000 -SN FEW014 BKN023 M07/M08 Q1032 R29/490241","cycle":"19"},
{"_id":"4495a8a111ec85eb6d2389a681d92a5e","_rev":"1-75966fc56843f2324f8d9427a47ff1c2","Location":"Gdansk-Rebiechowo, Poland (EPGD) 54-23N 018-28E 138M","Date":"Jan 27, 2012 - 02:00 PM EST / 2012.01.27 1900 UTC","Wind":"from the SE (130 degrees) at 8 MPH (7 KT):0","Visibility":"greater than 7 mile(s):0","Temperature":"12 F (-11 C)","Windchill":"0 F (-18 C):1","Dew Point":"6 F (-14 C)","Relative Humidity":"78%","Pressure (altimeter)":"30.50 in. Hg (1033 hPa)","ob":"EPGD 271900Z 13007KT CAVOK M11/M14 Q1033 R11/190095","cycle":"19"},
{"_id":"4495a8a111ec85eb6d2389a681d939a2","_rev":"1-713b98b27607ed3be35951000a284aa6","Location":"Gdansk-Rebiechowo, Poland (EPGD) 54-23N 018-28E 138M","Date":"Dec 14, 2011 - 10:00 PM EST / 2011.12.15 0300 UTC","Wind":"from the SW (230 degrees) at 9 MPH (8 KT) (direction variable):0","Visibility":"greater than 7 mile(s):0","Sky conditions":"mostly cloudy","Weather":"light rain showers","Temperature":"39 F (4 C)","Dew Point":"37 F (3 C)","Relative Humidity":"93%","Pressure (altimeter)":"29.56 in. Hg (1001 hPa)","ob":"EPGD 150300Z 23008KT 190V280 9999 -SHRA SCT009 BKN013 04/03 Q1001","cycle":"3"},
{"_id":"4495a8a111ec85eb6d2389a681d9472b","_rev":"1-ce9ca92b681f567a883a821be7bf939c","Location":"Gdansk-Rebiechowo, Poland (EPGD) 54-23N 018-28E 138M","Date":"Feb 05, 2012 - 05:00 AM EST / 2012.02.05 1000 UTC","Wind":"from the SE (130 degrees) at 7 MPH (6 KT) (direction variable):0","Visibility":"1 mile(s):0","Sky conditions":"mostly clear","Weather":"mist","Temperature":"3 F (-16 C)","Windchill":"-9 F (-23 C):2","Dew Point":"-2 F (-19 C)","Relative Humidity":"77%","Pressure (altimeter)":"30.71 in. Hg (1040 hPa)","ob":"EPGD 051000Z 13006KT 110V170 2500 BR FEW009 M16/M19 Q1040 R11/490162","cycle":"10"},
{"_id":"4495a8a111ec85eb6d2389a681d94752","_rev":"1-42c7366a978e810a85d1bcf036dcfa87","Location":"Gdansk-Rebiechowo, Poland (EPGD) 54-23N 018-28E 138M","Date":"Feb 11, 2012 - 06:00 AM EST / 2012.02.11 1100 UTC","Wind":"from the W (260 degrees) at 6 MPH (5 KT):0","Visibility":"2 mile(s):0","Sky conditions":"mostly cloudy","Weather":"mist","Temperature":"21 F (-6 C)","Windchill":"14 F (-10 C):1","Dew Point":"14 F (-10 C)","Relative Humidity":"73%","Pressure (altimeter)":"30.56 in. Hg (1035 hPa)","ob":"EPGD 111100Z 26005KT 4000 BR FEW006 BKN013 M06/M10 Q1035 R29/090095","cycle":"11"},
{"_id":"4495a8a111ec85eb6d2389a681d94879","_rev":"1-015df4e41cc093362ca26b33dd9c4f7a","Location":"Gdansk-Rebiechowo, Poland (EPGD) 54-23N 018-28E 138M","Date":"Jan 22, 2012 - 03:00 PM EST / 2012.01.22 2000 UTC","Wind":"from the WSW (250 degrees) at 5 MPH (4 KT):0","Visibility":"greater than 7 mile(s):0","Sky conditions":"mostly cloudy","Temperature":"33 F (1 C)","Windchill":"28 F (-2 C):1","Dew Point":"32 F (0 C)","Relative Humidity":"93%","Pressure (altimeter)":"29.29 in. Hg (0992 hPa)","ob":"EPGD 222000Z 25004KT 9999 FEW005 SCT008 BKN016 01/M00 Q0992 R11/290066","cycle":"20"},
{"_id":"4495a8a111ec85eb6d2389a681d94ff8","_rev":"1-02ca4ee9c5cb3a5818aa029f4d4d40ec","Location":"Gdansk-Rebiechowo, Poland (EPGD) 54-23N 018-28E 138M","Date":"Jan 28, 2012 - 12:00 AM EST / 2012.01.28 0500 UTC","Wind":"from the ESE (120 degrees) at 8 MPH (7 KT):0","Visibility":"greater than 7 mile(s):0","Temperature":"8 F (-13 C)","Windchill":"-4 F (-20 C):1","Dew Point":"3 F (-16 C)","Relative Humidity":"78%","Pressure (altimeter)":"30.56 in. Hg (1035 hPa)","ob":"EPGD 280500Z 12007KT CAVOK M13/M16 Q1035 R11/190095","cycle":"5"},
{"_id":"4495a8a111ec85eb6d2389a681d95c1e","_rev":"1-aa2b1a091b4c7b6b685ed05b1ea7bd48","Location":"Gdansk-Rebiechowo, Poland (EPGD) 54-23N 018-28E 138M","Date":"Jan 24, 2012 - 07:00 PM EST / 2012.01.25 0000 UTC","Wind":"from the W (280 degrees) at 6 MPH (5 KT):0","Visibility":"greater than 7 mile(s):0","Sky conditions":"mostly cloudy","Temperature":"28 F (-2 C)","Windchill":"21 F (-6 C):1","Dew Point":"26 F (-3 C)","Relative Humidity":"92%","Pressure (altimeter)":"30.12 in. Hg (1020 hPa)","ob":"EPGD 250000Z 28005KT 9999 FEW020 BKN030 M02/M03 Q1020 R11/590249","cycle":"0"},
{"_id":"4495a8a111ec85eb6d2389a681d96515","_rev":"1-500e177d03cb77a0a03bbc95bb593ed2","Location":"Gdansk-Rebiechowo, Poland (EPGD) 54-23N 018-28E 138M","Date":"Jan 06, 2012 - 05:00 AM EST / 2012.01.06 1000 UTC","Wind":"from the N (350 degrees) at 20 MPH (17 KT) gusting to 31 MPH (27 KT):0","Visibility":"3 mile(s):0","Sky conditions":"mostly cloudy","Weather":"light rain showers","Temperature":"37 F (3 C)","Dew Point":"35 F (2 C)","Relative Humidity":"93%","Pressure (altimeter)":"29.35 in. Hg (0994 hPa)","ob":"EPGD 061000Z 35017G27KT 6000 -SHRA BKN007 03/02 Q0994","cycle":"10"},
{"_id":"4495a8a111ec85eb6d2389a681d96f68","_rev":"1-fea527fdde6aa6f0761a80859e7f4461","Location":"Gdansk-Rebiechowo, Poland (EPGD) 54-23N 018-28E 138M","Date":"Jan 17, 2012 - 05:00 PM EST / 2012.01.17 2200 UTC","Wind":"from the SW (230 degrees) at 5 MPH (4 KT) (direction variable):0","Visibility":"4 mile(s):0","Sky conditions":"mostly cloudy","Weather":"light drizzle","Temperature":"30 F (-1 C)","Windchill":"24 F (-4 C):1","Dew Point":"28 F (-2 C)","Relative Humidity":"92%","Pressure (altimeter)":"30.21 in. Hg (1023 hPa)","ob":"EPGD 172200Z 23004KT 180V270 7000 -DZ BKN006 M01/M02 Q1023 R11/290095","cycle":"22"},
{"_id":"4495a8a111ec85eb6d2389a681d97235","_rev":"1-33fcc61c13c1d5babb77c9f39e698de5","Location":"Gdansk-Rebiechowo, Poland (EPGD) 54-23N 018-28E 138M","Date":"Jan 31, 2012 - 10:00 AM EST / 2012.01.31 1500 UTC","Wind":"from the ENE (060 degrees) at 5 MPH (4 KT):0","Visibility":"greater than 7 mile(s):0","Temperature":"19 F (-7 C)","Windchill":"12 F (-11 C):1","Dew Point":"10 F (-12 C)","Relative Humidity":"67%","Pressure (altimeter)":"30.68 in. Hg (1039 hPa)","ob":"EPGD 311500Z 06004KT CAVOK M07/M12 Q1039 R11/190095","cycle":"15"},
{"_id":"4495a8a111ec85eb6d2389a681d97aa6","_rev":"1-357cd52ec33dd5408411bdd71eb37425","Location":"Gdansk-Rebiechowo, Poland (EPGD) 54-23N 018-28E 138M","Date":"Feb 02, 2012 - 01:00 PM EST / 2012.02.02 1800 UTC","Wind":"from the SSE (150 degrees) at 3 MPH (3 KT):0","Visibility":"2 mile(s):0","Weather":"mist","Temperature":"-2 F (-19 C)","Dew Point":"-7 F (-22 C)","Relative Humidity":"77%","Pressure (altimeter)":"30.53 in. Hg (1034 hPa)","ob":"EPGD 021800Z 15003KT 4000 BR NSC M19/M22 Q1034 R11/190095","cycle":"18"},
{"_id":"4495a8a111ec85eb6d2389a681d980c3","_rev":"1-17fff3dc647b0f3e1ded0fe752d753f7","Location":"Gdansk-Rebiechowo, Poland (EPGD) 54-23N 018-28E 138M","Date":"Jan 06, 2012 - 11:00 PM EST / 2012.01.07 0400 UTC","Wind":"from the WSW (240 degrees) at 12 MPH (10 KT) (direction variable):0","Visibility":"greater than 7 mile(s):0","Sky conditions":"partly cloudy","Temperature":"32 F (0 C)","Windchill":"23 F (-5 C):1","Dew Point":"28 F (-2 C)","Relative Humidity":"86%","Pressure (altimeter)":"29.68 in. Hg (1005 hPa)","ob":"EPGD 070400Z 24010KT 210V270 9999 SCT010 00/M02 Q1005 R11/190095","cycle":"4"},
{"_id":"4495a8a111ec85eb6d2389a681d98a34","_rev":"1-caa7fdacd489fdf3233cb15767202964","Location":"Gdansk-Rebiechowo, Poland (EPGD) 54-23N 018-28E 138M","Date":"Jan 16, 2012 - 06:00 PM EST / 2012.01.16 2300 UTC","Wind":"Calm:0","Visibility":"1 mile(s):0","Sky conditions":"mostly cloudy","Weather":"light snow; mist","Temperature":"28 F (-2 C)","Dew Point":"26 F (-3 C)","Relative Humidity":"92%","Pressure (altimeter)":"30.09 in. Hg (1019 hPa)","ob":"EPGD 162300Z 00000KT 2000 -SN BR FEW009 BKN046 M02/M03 Q1019 R11/190095","cycle":"23"},
{"_id":"4495a8a111ec85eb6d2389a681d99012","_rev":"1-e33016b925a56ffe9078c8a1659b7e2b","Location":"Gdansk-Rebiechowo, Poland (EPGD) 54-23N 018-28E 138M","Date":"Jan 06, 2012 - 06:00 PM EST / 2012.01.06 2300 UTC","Wind":"from the W (260 degrees) at 7 MPH (6 KT):0","Visibility":"greater than 7 mile(s):0","Temperature":"30 F (-1 C)","Windchill":"23 F (-5 C):1","Dew Point":"24 F (-4 C)","Relative Humidity":"80%","Pressure (altimeter)":"29.74 in. Hg (1007 hPa)","ob":"EPGD 062300Z 26006KT CAVOK M01/M04 Q1007 R11/190095","cycle":"23"},
{"_id":"4495a8a111ec85eb6d2389a681d9972d","_rev":"1-7734c166174c0b8d0c813ec3a4f033aa","Location":"Gdansk-Rebiechowo, Poland (EPGD) 54-23N 018-28E 138M","Date":"Jan 30, 2012 - 08:00 AM EST / 2012.01.30 1300 UTC","Wind":"from the ESE (120 degrees) at 8 MPH (7 KT):0","Visibility":"greater than 7 mile(s):0","Temperature":"12 F (-11 C)","Windchill":"0 F (-18 C):1","Dew Point":"3 F (-16 C)","Relative Humidity":"66%","Pressure (altimeter)":"30.77 in. Hg (1042 hPa)","ob":"EPGD 301300Z 12007KT CAVOK M11/M16 Q1042","cycle":"13"},
{"_id":"4495a8a111ec85eb6d2389a681d99e3c","_rev":"1-63f74e5bb0c79dc838c49d1794f064a9","Location":"Gdansk-Rebiechowo, Poland (EPGD) 54-23N 018-28E 138M","Date":"Dec 26, 2011 - 12:00 PM EST / 2011.12.26 1700 UTC","Wind":"from the W (260 degrees) at 15 MPH (13 KT):0","Visibility":"4 mile(s):0","Sky conditions":"mostly cloudy","Weather":"light drizzle","Temperature":"48 F (9 C)","Dew Point":"46 F (8 C)","Relative Humidity":"93%","Pressure (altimeter)":"30.24 in. Hg (1024 hPa)","ob":"EPGD 261700Z 26013KT 8000 -DZ BKN006 09/08 Q1024","cycle":"17"},
{"_id":"4495a8a111ec85eb6d2389a681d9a929","_rev":"1-943fd2ad7efd654d7ca59d482af93d47","Location":"Gdansk-Rebiechowo, Poland (EPGD) 54-23N 018-28E 138M","Date":"Jan 20, 2012 - 11:00 PM EST / 2012.01.21 0400 UTC","Wind":"from the WNW (290 degrees) at 7 MPH (6 KT):0","Visibility":"greater than 7 mile(s):0","Sky conditions":"mostly cloudy","Temperature":"30 F (-1 C)","Windchill":"23 F (-5 C):1","Dew Point":"28 F (-2 C)","Relative Humidity":"92%","Pressure (altimeter)":"29.71 in. Hg (1006 hPa)","ob":"EPGD 210400Z 29006KT 9999 BKN015 M01/M02 Q1006 R11/190095","cycle":"4"},
{"_id":"4495a8a111ec85eb6d2389a681d9b277","_rev":"1-1470ed4d347c360507cf6f045093c20f","Location":"Gdansk-Rebiechowo, Poland (EPGD) 54-23N 018-28E 138M","Date":"Jan 28, 2012 - 05:00 PM EST / 2012.01.28 2200 UTC","Wind":"from the ESE (120 degrees) at 7 MPH (6 KT):0","Visibility":"greater than 7 mile(s):0","Temperature":"10 F (-12 C)","Windchill":"0 F (-18 C):1","Dew Point":"5 F (-15 C)","Relative Humidity":"78%","Pressure (altimeter)":"30.62 in. Hg (1037 hPa)","ob":"EPGD 282200Z 12006KT CAVOK M12/M15 Q1037 R11/190095","cycle":"22"},
{"_id":"4495a8a111ec85eb6d2389a681d9b50d","_rev":"1-17afb5cba3d23cd472df8ec2a3b59847","Location":"Gdansk-Rebiechowo, Poland (EPGD) 54-23N 018-28E 138M","Date":"Dec 21, 2011 - 03:00 AM EST / 2011.12.21 0800 UTC","Wind":"Calm:0","Visibility":"1 mile(s):0","Weather":"mist","Temperature":"23 F (-5 C)","Dew Point":"21 F (-6 C)","Relative Humidity":"92%","Pressure (altimeter)":"29.80 in. Hg (1009 hPa)","ob":"EPGD 210800Z 00000KT 3000 BR NSC M05/M06 Q1009 R11/190095","cycle":"8"},
{"_id":"4495a8a111ec85eb6d2389a681d9c1df","_rev":"1-1d328626bdc6e29f3e0f4982f02b4a7b","Location":"Gdansk-Rebiechowo, Poland (EPGD) 54-23N 018-28E 138M","Date":"Dec 20, 2011 - 12:00 PM EST / 2011.12.20 1700 UTC","Wind":"Calm:0","Visibility":"3 mile(s):0","Sky conditions":"mostly cloudy","Temperature":"32 F (0 C)","Dew Point":"30 F (-1 C)","Relative Humidity":"92%","Pressure (altimeter)":"29.85 in. Hg (1011 hPa)","ob":"EPGD 201700Z 00000KT 6000 SCT006 BKN017 00/M01 Q1011 R11/190095","cycle":"17"},
{"_id":"4495a8a111ec85eb6d2389a681d9cf45","_rev":"1-598c70d2f1e75089df842ddfcd95389b","Location":"Gdansk-Rebiechowo, Poland (EPGD) 54-23N 018-28E 138M","Date":"Jan 19, 2012 - 02:00 PM EST / 2012.01.19 1900 UTC","Wind":"from the S (190 degrees) at 6 MPH (5 KT) (direction variable):0","Visibility":"3 mile(s):0","Sky conditions":"mostly cloudy","Weather":"light snow, rain","Temperature":"33 F (1 C)","Windchill":"26 F (-3 C):1","Dew Point":"32 F (0 C)","Relative Humidity":"93%","Pressure (altimeter)":"29.50 in. Hg (0999 hPa)","ob":"EPGD 191900Z 19005KT 150V240 6000 -SNRA FEW003 BKN007 01/00 Q0999","cycle":"19"},
{"_id":"4495a8a111ec85eb6d2389a681d9d8df","_rev":"1-bc090992ae62714b94539c3badbbff52","Location":"Gdansk-Rebiechowo, Poland (EPGD) 54-23N 018-28E 138M","Date":"Dec 23, 2011 - 01:00 PM EST / 2011.12.23 1800 UTC","Wind":"from the SW (230 degrees) at 5 MPH (4 KT) (direction variable):0","Visibility":"1 mile(s):0","Sky conditions":"mostly cloudy","Weather":"mist","Temperature":"35 F (2 C)","Windchill":"30 F (-1 C):1","Dew Point":"33 F (1 C)","Relative Humidity":"93%","Pressure (altimeter)":"29.91 in. Hg (1013 hPa)","ob":"EPGD 231800Z 23004KT 190V270 3000 BR BKN004 02/01 Q1013","cycle":"18"},
{"_id":"4495a8a111ec85eb6d2389a681d9e040","_rev":"1-4584d8aaf4d4298a29b686c1179c85e7","Location":"Gdansk-Rebiechowo, Poland (EPGD) 54-23N 018-28E 138M","Date":"Dec 18, 2011 - 10:00 PM EST / 2011.12.19 0300 UTC","Wind":"from the SW (230 degrees) at 14 MPH (12 KT) gusting to 26 MPH (23 KT) (direction variable):0","Visibility":"greater than 7 mile(s):0","Sky conditions":"mostly cloudy","Temperature":"35 F (2 C)","Windchill":"26 F (-3 C):1","Dew Point":"30 F (-1 C)","Relative Humidity":"80%","Pressure (altimeter)":"29.59 in. Hg (1002 hPa)","ob":"EPGD 190300Z 23012G23KT 200V260 9999 BKN019 02/M01 Q1002 R11/690061","cycle":"3"},
{"_id":"4495a8a111ec85eb6d2389a681d9ed7a","_rev":"1-ec64e85f4f00f48e591bd9c9cf971afa","Location":"Gdansk-Rebiechowo, Poland (EPGD) 54-23N 018-28E 138M","Date":"Dec 23, 2011 - 04:00 PM EST / 2011.12.23 2100 UTC","Wind":"from the WSW (240 degrees) at 7 MPH (6 KT) (direction variable):0","Visibility":"less than 1 mile:0","Sky conditions":"mostly cloudy","Weather":"light drizzle; mist","Temperature":"35 F (2 C)","Windchill":"28 F (-2 C):1","Dew Point":"33 F (1 C)","Relative Humidity":"93%","Pressure (altimeter)":"29.85 in. Hg (1011 hPa)","ob":"EPGD 232100Z 24006KT 200V270 1400 R29/P2000 -DZ BR BKN002 02/01 Q1011","cycle":"21"},
{"_id":"4495a8a111ec85eb6d2389a681d9fb9a","_rev":"1-7a36d0038507136152a1423b611c727e","Location":"Gdansk-Rebiechowo, Poland (EPGD) 54-23N 018-28E 138M","Date":"Jan 17, 2012 - 02:00 PM EST / 2012.01.17 1900 UTC","Wind":"from the WSW (250 degrees) at 5 MPH (4 KT):0","Visibility":"greater than 7 mile(s):0","Sky conditions":"mostly cloudy","Temperature":"30 F (-1 C)","Windchill":"24 F (-4 C):1","Dew Point":"26 F (-3 C)","Relative Humidity":"86%","Pressure (altimeter)":"30.24 in. Hg (1024 hPa)","ob":"EPGD 171900Z 25004KT 9999 FEW015 BKN030 M01/M03 Q1024 R11/290095","cycle":"19"},
{"_id":"4495a8a111ec85eb6d2389a681da00a9","_rev":"1-62e9ac178f0e5b097dde97a5f06e5cb5","Location":"Gdansk-Rebiechowo, Poland (EPGD) 54-23N 018-28E 138M","Date":"Jan 05, 2012 - 09:00 AM EST / 2012.01.05 1400 UTC","Wind":"from the SW (220 degrees) at 10 MPH (9 KT) (direction variable):0","Visibility":"greater than 7 mile(s):0","Sky conditions":"mostly cloudy","Temperature":"39 F (4 C)","Dew Point":"33 F (1 C)","Relative Humidity":"80%","Pressure (altimeter)":"28.67 in. Hg (0971 hPa)","ob":"EPGD 051400Z 22009KT 180V240 9999 FEW017 BKN048 04/01 Q0971","cycle":"14"},
{"_id":"4495a8a111ec85eb6d2389a681da094b","_rev":"1-443a07e5571722049d7a997ea3895915","Location":"Gdansk-Rebiechowo, Poland (EPGD) 54-23N 018-28E 138M","Date":"Jan 11, 2012 - 10:00 AM EST / 2012.01.11 1500 UTC","Wind":"from the W (280 degrees) at 23 MPH (20 KT) gusting to 35 MPH (30 KT):0","Visibility":"greater than 7 mile(s):0","Sky conditions":"mostly cloudy","Temperature":"42 F (6 C)","Dew Point":"39 F (4 C)","Relative Humidity":"86%","Pressure (altimeter)":"30.00 in. Hg (1016 hPa)","ob":"EPGD 111500Z 28020G30KT 9999 BKN008 06/04 Q1016 R11/290095","cycle":"15"},
{"_id":"4495a8a111ec85eb6d2389a681da132a","_rev":"1-57993a715d3963c5daa8960f9755b843","Location":"Gdansk-Rebiechowo, Poland (EPGD) 54-23N 018-28E 138M","Date":"Dec 24, 2011 - 08:00 PM EST / 2011.12.25 0100 UTC","Wind":"from the WNW (290 degrees) at 16 MPH (14 KT):0","Visibility":"greater than 7 mile(s):0","Sky conditions":"partly cloudy","Temperature":"35 F (2 C)","Windchill":"24 F (-4 C):1","Dew Point":"32 F (0 C)","Relative Humidity":"86%","Pressure (altimeter)":"30.03 in. Hg (1017 hPa)","ob":"EPGD 250100Z 29014KT 9999 SCT011 02/00 Q1017","cycle":"1"},
{"_id":"4495a8a111ec85eb6d2389a681da1348","_rev":"1-e1a2161423f4aaebe3010e4d85b2547c","Location":"Gdansk-Rebiechowo, Poland (EPGD) 54-23N 018-28E 138M","Date":"Dec 17, 2011 - 08:00 PM EST / 2011.12.18 0100 UTC","Wind":"from the W (280 degrees) at 17 MPH (15 KT):0","Visibility":"greater than 7 mile(s):0","Sky conditions":"mostly cloudy","Temperature":"35 F (2 C)","Windchill":"24 F (-4 C):1","Dew Point":"32 F (0 C)","Relative Humidity":"86%","Pressure (altimeter)":"29.18 in. Hg (0988 hPa)","ob":"EPGD 180100Z 28015KT 9999 FEW013 BKN022 02/00 Q0988 R11/290064","cycle":"1"},
{"_id":"4495a8a111ec85eb6d2389a681da1a6c","_rev":"1-a35cafe8e87bbd793206139ffdd73c10","Location":"Gdansk-Rebiechowo, Poland (EPGD) 54-23N 018-28E 138M","Date":"Dec 22, 2011 - 02:00 AM EST / 2011.12.22 0700 UTC","Wind":"Calm:0","Visibility":"1 mile(s):0","Weather":"mist","Temperature":"19 F (-7 C)","Dew Point":"17 F (-8 C)","Relative Humidity":"92%","Pressure (altimeter)":"30.09 in. Hg (1019 hPa)","ob":"EPGD 220700Z 00000KT 2500 BR NSC M07/M08 Q1019","cycle":"7"},
{"_id":"4495a8a111ec85eb6d2389a681da1c2c","_rev":"1-c9dda1a6a9b3a5e083dd17b47f505c30","Location":"Gdansk-Rebiechowo, Poland (EPGD) 54-23N 018-28E 138M","Date":"Feb 17, 2012 - 09:00 AM EST / 2012.02.17 1400 UTC","Wind":"from the WNW (290 degrees) at 20 MPH (17 KT):0","Visibility":"greater than 7 mile(s):0","Sky conditions":"mostly cloudy","Temperature":"33 F (1 C)","Windchill":"21 F (-6 C):1","Dew Point":"30 F (-1 C)","Relative Humidity":"86%","Pressure (altimeter)":"29.71 in. Hg (1006 hPa)","ob":"EPGD 171400Z 29017KT 9999 BKN008 01/M01 Q1006 R11/290095","cycle":"14"},
{"_id":"4495a8a111ec85eb6d2389a681da25b3","_rev":"1-9bbc674130b9bf0342d3274e77f34a99","Location":"Gdansk-Rebiechowo, Poland (EPGD) 54-23N 018-28E 138M","Date":"Dec 15, 2011 - 01:00 PM EST / 2011.12.15 1800 UTC","Wind":"from the SSW (200 degrees) at 7 MPH (6 KT) (direction variable):0","Visibility":"greater than 7 mile(s):0","Temperature":"37 F (3 C)","Dew Point":"32 F (0 C)","Relative Humidity":"80%","Pressure (altimeter)":"29.65 in. Hg (1004 hPa)","ob":"EPGD 151800Z 20006KT 160V240 CAVOK 03/00 Q1004","cycle":"18"},
{"_id":"4495a8a111ec85eb6d2389a681da359a","_rev":"1-e7817d2dbf2175975a4ed5884698f9c9","Location":"Gdansk-Rebiechowo, Poland (EPGD) 54-23N 018-28E 138M","Date":"Feb 02, 2012 - 08:00 PM EST / 2012.02.03 0100 UTC","Wind":"Variable at 1 MPH (1 KT):0","Visibility":"1 mile(s):0","Weather":"mist","Temperature":"-9 F (-23 C)","Dew Point":"-14 F (-26 C)","Relative Humidity":"76%","Pressure (altimeter)":"30.53 in. Hg (1034 hPa)","ob":"EPGD 030100Z VRB01KT 3000 BR NSC M23/M26 Q1034 R11/190095","cycle":"1"},
{"_id":"4495a8a111ec85eb6d2389a681da44fa","_rev":"1-3eca152c6b25d6d641f0d7c66914a1bc","Location":"Gdansk-Rebiechowo, Poland (EPGD) 54-23N 018-28E 138M","Date":"Jan 12, 2012 - 12:00 PM EST / 2012.01.12 1700 UTC","Wind":"from the WSW (250 degrees) at 20 MPH (17 KT) gusting to 35 MPH (30 KT):0","Visibility":"4 mile(s):0","Sky conditions":"partly cloudy","Weather":"light rain showers; Cumulonimbus clouds observed","Temperature":"44 F (7 C)","Dew Point":"41 F (5 C)","Relative Humidity":"87%","Pressure (altimeter)":"29.32 in. Hg (0993 hPa)","ob":"EPGD 121700Z 25017G30KT 8000 -SHRA FEW017CB SCT020 07/05 Q0993","cycle":"17"},
{"_id":"4495a8a111ec85eb6d2389a681da4d37","_rev":"1-48779a7f4c3fbf0d6e58865432437851","Location":"Gdansk-Rebiechowo, Poland (EPGD) 54-23N 018-28E 138M","Date":"Jan 27, 2012 - 11:00 AM EST / 2012.01.27 1600 UTC","Wind":"from the ESE (110 degrees) at 10 MPH (9 KT):0","Visibility":"4 mile(s):0","Temperature":"12 F (-11 C)","Windchill":"0 F (-18 C):1","Dew Point":"6 F (-14 C)","Relative Humidity":"78%","Pressure (altimeter)":"30.50 in. Hg (1033 hPa)","ob":"EPGD 271600Z 11009KT 8000 NSC M11/M14 Q1033 R11/190095","cycle":"16"},
{"_id":"4495a8a111ec85eb6d2389a681da57bc","_rev":"1-f1fa6ab0884d7800291421096642a7cc","Location":"Gdansk-Rebiechowo, Poland (EPGD) 54-23N 018-28E 138M","Date":"Dec 18, 2011 - 06:00 AM EST / 2011.12.18 1100 UTC","Wind":"from the WSW (250 degrees) at 13 MPH (11 KT):0","Visibility":"greater than 7 mile(s):0","Sky conditions":"mostly cloudy","Weather":"light snow showers; Towering cumulus clouds observed","Temperature":"35 F (2 C)","Windchill":"26 F (-3 C):1","Dew Point":"32 F (0 C)","Relative Humidity":"86%","Pressure (altimeter)":"29.29 in. Hg (0992 hPa)","ob":"EPGD 181100Z 25011KT 9999 -SHSN FEW007 BKN009TCU 02/M00 Q0992","cycle":"11"},
{"_id":"4495a8a111ec85eb6d2389a681da62dc","_rev":"1-ebdbad1e6ff38b9c45e0d11f5602eaae","Location":"Gdansk-Rebiechowo, Poland (EPGD) 54-23N 018-28E 138M","Date":"Jan 26, 2012 - 06:00 PM EST / 2012.01.26 2300 UTC","Wind":"from the ESE (120 degrees) at 8 MPH (7 KT):0","Visibility":"3 mile(s):0","Weather":"mist","Temperature":"15 F (-9 C)","Windchill":"5 F (-15 C):1","Dew Point":"12 F (-11 C)","Relative Humidity":"85%","Pressure (altimeter)":"30.45 in. Hg (1031 hPa)","ob":"EPGD 262300Z 12007KT 5000 BR NSC M09/M11 Q1031","cycle":"23"},
{"_id":"4495a8a111ec85eb6d2389a681da6f29","_rev":"1-31cf01a0c3b500276bf220d480ed7a50","Location":"Gdansk-Rebiechowo, Poland (EPGD) 54-23N 018-28E 138M","Date":"Dec 14, 2011 - 02:00 AM EST / 2011.12.14 0700 UTC","Wind":"from the SW (230 degrees) at 12 MPH (10 KT) (direction variable):0","Visibility":"greater than 7 mile(s):0","Sky conditions":"mostly cloudy","Temperature":"41 F (5 C)","Dew Point":"35 F (2 C)","Relative Humidity":"80%","Pressure (altimeter)":"29.59 in. Hg (1002 hPa)","ob":"EPGD 140700Z 23010KT 200V270 9999 BKN013 05/02 Q1002","cycle":"7"},
{"_id":"4495a8a111ec85eb6d2389a681da75ba","_rev":"1-a97f875b2c1cb7a2acb860887ba02ae0","Location":"Gdansk-Rebiechowo, Poland (EPGD) 54-23N 018-28E 138M","Date":"Dec 18, 2011 - 02:00 AM EST / 2011.12.18 0700 UTC","Wind":"from the WSW (250 degrees) at 9 MPH (8 KT):0","Visibility":"greater than 7 mile(s):0","Sky conditions":"mostly cloudy","Temperature":"33 F (1 C)","Windchill":"24 F (-4 C):1","Dew Point":"32 F (0 C)","Relative Humidity":"93%","Pressure (altimeter)":"29.23 in. Hg (0990 hPa)","ob":"EPGD 180700Z 25008KT 9999 FEW009 BKN023 01/M00 Q0990","cycle":"7"},
{"_id":"4495a8a111ec85eb6d2389a681da828e","_rev":"1-68add46a6722791c934ea12e73bf2df9","Location":"Gdansk-Rebiechowo, Poland (EPGD) 54-23N 018-28E 138M","Date":"Feb 07, 2012 - 05:00 AM EST / 2012.02.07 1000 UTC","Wind":"from the ENE (060 degrees) at 9 MPH (8 KT) (direction variable):0","Visibility":"greater than 7 mile(s):0","Sky conditions":"mostly cloudy","Temperature":"15 F (-9 C)","Windchill":"3 F (-16 C):1","Dew Point":"10 F (-12 C)","Relative Humidity":"78%","Pressure (altimeter)":"30.71 in. Hg (1040 hPa)","ob":"EPGD 071000Z 06008KT 020V090 9999 BKN011 M09/M12 Q1040 R11/490238","cycle":"10"},
{"_id":"4495a8a111ec85eb6d2389a681da88b9","_rev":"1-1257f7803b3a8205a79f3c815b2eef3a","Location":"Gdansk-Rebiechowo, Poland (EPGD) 54-23N 018-28E 138M","Date":"Jan 03, 2012 - 10:00 PM EST / 2012.01.04 0300 UTC","Wind":"from the SW (230 degrees) at 13 MPH (11 KT) gusting to 25 MPH (22 KT) (direction variable):0","Visibility":"greater than 7 mile(s):0","Temperature":"42 F (6 C)","Dew Point":"35 F (2 C)","Relative Humidity":"75%","Pressure (altimeter)":"29.38 in. Hg (0995 hPa)","ob":"EPGD 040300Z 23011G22KT 190V260 CAVOK 06/02 Q0995","cycle":"3"},
{"_id":"4495a8a111ec85eb6d2389a681da8cb6","_rev":"1-b90926c329157854842fa96963d9b6d1","Location":"Gdansk-Rebiechowo, Poland (EPGD) 54-23N 018-28E 138M","Date":"Feb 03, 2012 - 04:00 PM EST / 2012.02.03 2100 UTC","Wind":"from the S (180 degrees) at 5 MPH (4 KT) (direction variable):0","Visibility":"1 mile(s):0","Sky conditions":"mostly cloudy","Weather":"light snow; mist","Temperature":"8 F (-13 C)","Windchill":"0 F (-18 C):1","Dew Point":"5 F (-15 C)","Relative Humidity":"84%","Pressure (altimeter)":"30.53 in. Hg (1034 hPa)","ob":"EPGD 032100Z 18004KT 140V220 3000 -SN BR FEW004 BKN026 M13/M15 Q1034 R11/490140","cycle":"21"},
{"_id":"4495a8a111ec85eb6d2389a681da9b65","_rev":"1-49f0d00d602d467efea25fcfc329fb62","Location":"Gdansk-Rebiechowo, Poland (EPGD) 54-23N 018-28E 138M","Date":"Dec 20, 2011 - 07:00 AM EST / 2011.12.20 1200 UTC","Wind":"from the SSW (200 degrees) at 6 MPH (5 KT) (direction variable):0","Visibility":"greater than 7 mile(s):0","Temperature":"35 F (2 C)","Windchill":"30 F (-1 C):1","Dew Point":"30 F (-1 C)","Relative Humidity":"80%","Pressure (altimeter)":"29.85 in. Hg (1011 hPa)","ob":"EPGD 201200Z 20005KT 170V230 CAVOK 02/M01 Q1011 R11/190095","cycle":"12"},
{"_id":"4495a8a111ec85eb6d2389a681daa1d9","_rev":"1-f31b70951f93064428b3fa5cdff04d50","Location":"Gdansk-Rebiechowo, Poland (EPGD) 54-23N 018-28E 138M","Date":"Feb 07, 2012 - 09:30 PM EST / 2012.02.08 0230 UTC","Wind":"from the NNW (330 degrees) at 3 MPH (3 KT):0","Visibility":"greater than 7 mile(s):0","Sky conditions":"mostly cloudy","Temperature":"14 F (-10 C)","Dew Point":"10 F (-12 C)","Relative Humidity":"85%","Pressure (altimeter)":"30.77 in. Hg (1042 hPa)","ob":"EPGD 080230Z 33003KT 9999 BKN013 M10/M12 Q1042 R11/490143","cycle":"2"},
{"_id":"4495a8a111ec85eb6d2389a681daa61d","_rev":"1-3107d17a30146fbc4a0dfa8ad62c62c9","Location":"Gdansk-Rebiechowo, Poland (EPGD) 54-23N 018-28E 138M","Date":"Jan 28, 2012 - 02:00 AM EST / 2012.01.28 0700 UTC","Wind":"from the ESE (120 degrees) at 10 MPH (9 KT):0","Visibility":"greater than 7 mile(s):0","Temperature":"8 F (-13 C)","Windchill":"-5 F (-21 C):2","Dew Point":"3 F (-16 C)","Relative Humidity":"78%","Pressure (altimeter)":"30.56 in. Hg (1035 hPa)","ob":"EPGD 280700Z 12009KT CAVOK M13/M16 Q1035 R11/190095","cycle":"7"},
{"_id":"4495a8a111ec85eb6d2389a681dab14b","_rev":"1-57a74f172ecb352b0e3c30e53d442b6e","Location":"Gdansk-Rebiechowo, Poland (EPGD) 54-23N 018-28E 138M","Date":"Dec 23, 2011 - 12:00 AM EST / 2011.12.23 0500 UTC","Wind":"from the S (190 degrees) at 3 MPH (3 KT) (direction variable):0","Visibility":"2 mile(s):0","Sky conditions":"overcast","Weather":"mist","Temperature":"30 F (-1 C)","Dew Point":"28 F (-2 C)","Relative Humidity":"92%","Pressure (altimeter)":"30.09 in. Hg (1019 hPa)","ob":"EPGD 230500Z 19003KT 150V220 4000 BR OVC004 M01/M02 Q1019","cycle":"5"},
{"_id":"4495a8a111ec85eb6d2389a681dabbbb","_rev":"1-82f2e2578835addb5bdece259253e666","Location":"Gdansk-Rebiechowo, Poland (EPGD) 54-23N 018-28E 138M","Date":"Jan 06, 2012 - 07:00 AM EST / 2012.01.06 1200 UTC","Wind":"from the NNW (330 degrees) at 20 MPH (17 KT):0","Visibility":"greater than 7 mile(s):0","Sky conditions":"mostly cloudy","Weather":"light rain showers","Temperature":"37 F (3 C)","Dew Point":"32 F (0 C)","Relative Humidity":"80%","Pressure (altimeter)":"29.47 in. Hg (0998 hPa)","ob":"EPGD 061200Z 33017KT 9999 -SHRA BKN011 03/M00 Q0998","cycle":"12"},
{"_id":"4495a8a111ec85eb6d2389a681dac7d6","_rev":"1-0a513d7e86eb64ac6a381e93f8bd5a78","Location":"Gdansk-Rebiechowo, Poland (EPGD) 54-23N 018-28E 138M","Date":"Feb 10, 2012 - 08:00 PM EST / 2012.02.11 0100 UTC","Wind":"from the NW (310 degrees) at 2 MPH (2 KT):0","Visibility":"greater than 7 mile(s):0","Sky conditions":"partly cloudy","Temperature":"0 F (-18 C)","Dew Point":"-4 F (-20 C)","Relative Humidity":"84%","Pressure (altimeter)":"30.68 in. Hg (1039 hPa)","ob":"EPGD 110100Z 31002KT 9999 SCT015 M18/M20 Q1039 R11/090095","cycle":"1"},
{"_id":"4495a8a111ec85eb6d2389a681dad478","_rev":"1-d7b61248e4fbbd768aa36d60174a0cdb","Location":"Gdansk-Rebiechowo, Poland (EPGD) 54-23N 018-28E 138M","Date":"Dec 25, 2011 - 09:00 PM EST / 2011.12.26 0200 UTC","Wind":"from the WSW (240 degrees) at 17 MPH (15 KT):0","Visibility":"4 mile(s):0","Sky conditions":"mostly cloudy","Weather":"light rain","Temperature":"44 F (7 C)","Dew Point":"42 F (6 C)","Relative Humidity":"93%","Pressure (altimeter)":"30.03 in. Hg (1017 hPa)","ob":"EPGD 260200Z 24015KT 8000 -RA BKN009 07/06 Q1017","cycle":"2"},
{"_id":"4495a8a111ec85eb6d2389a681dad940","_rev":"1-70bcb74e8823138dfc11a8c61629d86d","Location":"Gdansk-Rebiechowo, Poland (EPGD) 54-23N 018-28E 138M","Date":"Feb 01, 2012 - 01:00 PM EST / 2012.02.01 1800 UTC","Wind":"from the ENE (070 degrees) at 5 MPH (4 KT) (direction variable):0","Visibility":"greater than 7 mile(s):0","Sky conditions":"mostly cloudy","Temperature":"15 F (-9 C)","Windchill":"6 F (-14 C):1","Dew Point":"6 F (-14 C)","Relative Humidity":"67%","Pressure (altimeter)":"30.68 in. Hg (1039 hPa)","ob":"EPGD 011800Z 07004KT 030V110 9999 BKN020 M09/M14 Q1039 R11/190095","cycle":"18"},
{"_id":"4495a8a111ec85eb6d2389a681dae66a","_rev":"1-06000d1766bb853da3e1c87551021e26","Location":"Gdansk-Rebiechowo, Poland (EPGD) 54-23N 018-28E 138M","Date":"Feb 10, 2012 - 09:00 PM EST / 2012.02.11 0200 UTC","Wind":"from the NW (310 degrees) at 2 MPH (2 KT):0","Visibility":"greater than 7 mile(s):0","Temperature":"-4 F (-20 C)","Dew Point":"-7 F (-22 C)","Relative Humidity":"84%","Pressure (altimeter)":"30.65 in. Hg (1038 hPa)","ob":"EPGD 110200Z 31002KT CAVOK M20/M22 Q1038 R11/090095","cycle":"2"},
{"_id":"4495a8a111ec85eb6d2389a681daf327","_rev":"1-8a02e787a19eceb715166e920e8c75cb","Location":"Gdansk-Rebiechowo, Poland (EPGD) 54-23N 018-28E 138M","Date":"Jan 06, 2012 - 05:00 PM EST / 2012.01.06 2200 UTC","Wind":"from the W (260 degrees) at 6 MPH (5 KT):0","Visibility":"greater than 7 mile(s):0","Temperature":"30 F (-1 C)","Windchill":"23 F (-5 C):1","Dew Point":"24 F (-4 C)","Relative Humidity":"80%","Pressure (altimeter)":"29.74 in. Hg (1007 hPa)","ob":"EPGD 062200Z 26005KT CAVOK M01/M04 Q1007 R11/190095","cycle":"22"},
{"_id":"4495a8a111ec85eb6d2389a681db022d","_rev":"1-9e7ed0cb4d158480170f90f41f343669","Location":"Gdansk-Rebiechowo, Poland (EPGD) 54-23N 018-28E 138M","Date":"Jan 13, 2012 - 09:00 AM EST / 2012.01.13 1400 UTC","Wind":"from the W (280 degrees) at 24 MPH (21 KT):0","Visibility":"greater than 7 mile(s):0","Sky conditions":"partly cloudy","Temperature":"37 F (3 C)","Dew Point":"26 F (-3 C)","Relative Humidity":"64%","Pressure (altimeter)":"29.53 in. Hg (1000 hPa)","ob":"EPGD 131400Z 28021KT 9999 SCT026 03/M03 Q1000","cycle":"14"},
{"_id":"4495a8a111ec85eb6d2389a681db0277","_rev":"1-11d8ae0c3556b9cac8a60a0784150dbe","Location":"Gdansk-Rebiechowo, Poland (EPGD) 54-23N 018-28E 138M","Date":"Feb 05, 2012 - 07:00 AM EST / 2012.02.05 1200 UTC","Wind":"from the ESE (120 degrees) at 6 MPH (5 KT):0","Visibility":"greater than 7 mile(s):0","Temperature":"6 F (-14 C)","Windchill":"-4 F (-20 C):1","Dew Point":"-5 F (-21 C)","Relative Humidity":"55%","Pressure (altimeter)":"30.71 in. Hg (1040 hPa)","ob":"EPGD 051200Z 12005KT CAVOK M14/M21 Q1040 R11/490162","cycle":"12"},
{"_id":"4495a8a111ec85eb6d2389a681db0de6","_rev":"1-e6597c37928af99a52d4d7bc15ed4001","Location":"Gdansk-Rebiechowo, Poland (EPGD) 54-23N 018-28E 138M","Date":"Feb 04, 2012 - 05:00 AM EST / 2012.02.04 1000 UTC","Wind":"from the SE (130 degrees) at 8 MPH (7 KT):0","Visibility":"1 mile(s):0","Sky conditions":"mostly cloudy","Weather":"light snow showers; mist","Temperature":"10 F (-12 C)","Windchill":"-2 F (-19 C):1","Dew Point":"5 F (-15 C)","Relative Humidity":"78%","Pressure (altimeter)":"30.56 in. Hg (1035 hPa)","ob":"EPGD 041000Z 13007KT 2500 -SHSN BR FEW006 BKN013 M12/M15 Q1035 R11/490136","cycle":"10"},
{"_id":"4495a8a111ec85eb6d2389a681db14fa","_rev":"1-76a7be5f63e0ebc17d99d1691c76fd71","Location":"Gdansk-Rebiechowo, Poland (EPGD) 54-23N 018-28E 138M","Date":"Dec 30, 2011 - 11:00 AM EST / 2011.12.30 1600 UTC","Wind":"from the NW (320 degrees) at 6 MPH (5 KT):0","Visibility":"greater than 7 mile(s):0","Sky conditions":"mostly cloudy","Temperature":"35 F (2 C)","Windchill":"30 F (-1 C):1","Dew Point":"33 F (1 C)","Relative Humidity":"93%","Pressure (altimeter)":"29.56 in. Hg (1001 hPa)","ob":"EPGD 301600Z 32005KT 9999 BKN007 02/01 Q1001","cycle":"16"},
{"_id":"4495a8a111ec85eb6d2389a681db230b","_rev":"1-b5a08ddc6a36a1e1e5b078e342441a75","Location":"Gdansk-Rebiechowo, Poland (EPGD) 54-23N 018-28E 138M","Date":"Jan 31, 2012 - 07:00 PM EST / 2012.02.01 0000 UTC","Wind":"Calm:0","Visibility":"greater than 7 mile(s):0","Temperature":"6 F (-14 C)","Dew Point":"1 F (-17 C)","Relative Humidity":"77%","Pressure (altimeter)":"30.68 in. Hg (1039 hPa)","ob":"EPGD 010000Z 00000KT CAVOK M14/M17 Q1039 R11/190095","cycle":"0"},
{"_id":"4495a8a111ec85eb6d2389a681db31eb","_rev":"1-c74767777abc176878db4bc16fb4fee4","Location":"Gdansk-Rebiechowo, Poland (EPGD) 54-23N 018-28E 138M","Date":"Jan 30, 2012 - 05:00 AM EST / 2012.01.30 1000 UTC","Wind":"from the ESE (120 degrees) at 10 MPH (9 KT):0","Visibility":"greater than 7 mile(s):0","Temperature":"10 F (-12 C)","Windchill":"-4 F (-20 C):1","Dew Point":"3 F (-16 C)","Relative Humidity":"72%","Pressure (altimeter)":"30.80 in. Hg (1043 hPa)","ob":"EPGD 301000Z 12009KT CAVOK M12/M16 Q1043 R11/190095","cycle":"10"},
{"_id":"4495a8a111ec85eb6d2389a681db4022","_rev":"1-74ad4e7cdb30443e3f803713f0f69995","Location":"Gdansk-Rebiechowo, Poland (EPGD) 54-23N 018-28E 138M","Date":"Jan 17, 2012 - 06:00 AM EST / 2012.01.17 1100 UTC","Wind":"from the S (180 degrees) at 3 MPH (3 KT) (direction variable):0","Visibility":"greater than 7 mile(s):0","Sky conditions":"mostly cloudy","Temperature":"30 F (-1 C)","Dew Point":"24 F (-4 C)","Relative Humidity":"80%","Pressure (altimeter)":"30.18 in. Hg (1022 hPa)","ob":"EPGD 171100Z 18003KT 130V200 9999 BKN031 M01/M04 Q1022 R11/290053","cycle":"11"},
{"_id":"4495a8a111ec85eb6d2389a681db43e0","_rev":"1-0afa637cc1bf228c0062090d9c8f7364","Location":"Gdansk-Rebiechowo, Poland (EPGD) 54-23N 018-28E 138M","Date":"Feb 01, 2012 - 02:00 AM EST / 2012.02.01 0700 UTC","Wind":"from the ESE (120 degrees) at 1 MPH (1 KT):0","Visibility":"1 mile(s):0","Sky conditions":"mostly cloudy","Weather":"light snow; mist","Temperature":"5 F (-15 C)","Dew Point":"1 F (-17 C)","Relative Humidity":"84%","Pressure (altimeter)":"30.71 in. Hg (1040 hPa)","ob":"EPGD 010700Z 12001KT 2500 -SN BR BKN004 M15/M17 Q1040","cycle":"7"},
{"_id":"4495a8a111ec85eb6d2389a681db4a28","_rev":"1-3311aa06140331a4dc1d9fd09e738b78","Location":"Gdansk-Rebiechowo, Poland (EPGD) 54-23N 018-28E 138M","Date":"Dec 18, 2011 - 11:00 AM EST / 2011.12.18 1600 UTC","Wind":"from the WSW (240 degrees) at 13 MPH (11 KT) (direction variable):0","Visibility":"greater than 7 mile(s):0","Sky conditions":"mostly cloudy","Weather":"light snow showers; Cumulonimbus clouds observed","Temperature":"33 F (1 C)","Windchill":"23 F (-5 C):1","Dew Point":"32 F (0 C)","Relative Humidity":"93%","Pressure (altimeter)":"29.38 in. Hg (0995 hPa)","ob":"EPGD 181600Z 24011KT 210V270 9999 -SHSN SCT005 BKN008CB 01/M00 Q0995","cycle":"16"},
{"_id":"4495a8a111ec85eb6d2389a681db57c6","_rev":"1-8983c580644623576dbad4fa88bf6f9b","Location":"Gdansk-Rebiechowo, Poland (EPGD) 54-23N 018-28E 138M","Date":"Dec 21, 2011 - 02:00 PM EST / 2011.12.21 1900 UTC","Wind":"Calm:0","Visibility":"1 mile(s):0","Weather":"mist","Temperature":"21 F (-6 C)","Dew Point":"19 F (-7 C)","Relative Humidity":"92%","Pressure (altimeter)":"29.94 in. Hg (1014 hPa)","ob":"EPGD 211900Z 00000KT 2200 BR NSC M06/M07 Q1014 R11/190095","cycle":"19"},
{"_id":"4495a8a111ec85eb6d2389a681db61b2","_rev":"1-f814ed02cb7f639c6d646a843f09bba2","Location":"Gdansk-Rebiechowo, Poland (EPGD) 54-23N 018-28E 138M","Date":"Jan 31, 2012 - 06:00 PM EST / 2012.01.31 2300 UTC","Wind":"from the E (100 degrees) at 2 MPH (2 KT):0","Visibility":"greater than 7 mile(s):0","Temperature":"6 F (-14 C)","Dew Point":"1 F (-17 C)","Relative Humidity":"77%","Pressure (altimeter)":"30.68 in. Hg (1039 hPa)","ob":"EPGD 312300Z 10002KT CAVOK M14/M17 Q1039 R11/190095","cycle":"23"},
{"_id":"4495a8a111ec85eb6d2389a681db661d","_rev":"1-ad1fffa7771378389bc5fdc5c1020f02","Location":"Gdansk-Rebiechowo, Poland (EPGD) 54-23N 018-28E 138M","Date":"Dec 20, 2011 - 03:00 AM EST / 2011.12.20 0800 UTC","Wind":"from the SSW (210 degrees) at 6 MPH (5 KT) (direction variable):0","Visibility":"4 mile(s):0","Sky conditions":"mostly cloudy","Temperature":"33 F (1 C)","Windchill":"26 F (-3 C):1","Dew Point":"30 F (-1 C)","Relative Humidity":"86%","Pressure (altimeter)":"29.88 in. Hg (1012 hPa)","ob":"EPGD 200800Z 21005KT 180V240 8000 BKN008 01/M01 Q1012 R11/190095","cycle":"8"},
{"_id":"4495a8a111ec85eb6d2389a681db7374","_rev":"1-dc9d7cb20bbae5d84dac0745c91bf8ac","Location":"Gdansk-Rebiechowo, Poland (EPGD) 54-23N 018-28E 138M","Date":"Feb 03, 2012 - 03:00 AM EST / 2012.02.03 0800 UTC","Wind":"from the SW (230 degrees) at 6 MPH (5 KT):0","Visibility":"2 mile(s):0","Weather":"mist","Temperature":"1 F (-17 C)","Windchill":"-11 F (-24 C):2","Dew Point":"-4 F (-20 C)","Relative Humidity":"77%","Pressure (altimeter)":"30.47 in. Hg (1032 hPa)","ob":"EPGD 030800Z 23005KT 3500 BR NSC M17/M20 Q1032 R11/190095","cycle":"8"},
{"_id":"4495a8a111ec85eb6d2389a681db82ab","_rev":"1-a2c354b9d442ce0a57b56448edd1824e","Location":"Gdansk-Rebiechowo, Poland (EPGD) 54-23N 018-28E 138M","Date":"Jan 20, 2012 - 04:00 PM EST / 2012.01.20 2100 UTC","Wind":"from the NNW (340 degrees) at 9 MPH (8 KT):0","Visibility":"4 mile(s):0","Sky conditions":"mostly cloudy","Temperature":"33 F (1 C)","Windchill":"24 F (-4 C):1","Dew Point":"32 F (0 C)","Relative Humidity":"93%","Pressure (altimeter)":"29.59 in. Hg (1002 hPa)","ob":"EPGD 202100Z 34008KT 8000 BKN004 01/M00 Q1002 R11/190095","cycle":"21"},
{"_id":"4495a8a111ec85eb6d2389a681db8748","_rev":"1-4a1a6e364872f3b9fe1c63bc5de134ed","Location":"Gdansk-Rebiechowo, Poland (EPGD) 54-23N 018-28E 138M","Date":"Feb 12, 2012 - 12:00 PM EST / 2012.02.12 1700 UTC","Wind":"from the SW (220 degrees) at 7 MPH (6 KT) (direction variable):0","Visibility":"1 mile(s):0","Sky conditions":"mostly cloudy","Weather":"snow","Temperature":"19 F (-7 C)","Windchill":"10 F (-12 C):1","Dew Point":"15 F (-9 C)","Relative Humidity":"85%","Pressure (altimeter)":"30.12 in. Hg (1020 hPa)","ob":"EPGD 121700Z 22006KT 180V250 2000 SN FEW005 BKN014 M07/M09 Q1020 R11/490233","cycle":"17"},
{"_id":"4495a8a111ec85eb6d2389a681db9097","_rev":"1-360737b3299e0313334d69661a63a4b3","Location":"Gdansk-Rebiechowo, Poland (EPGD) 54-23N 018-28E 138M","Date":"Feb 03, 2012 - 11:00 PM EST / 2012.02.04 0400 UTC","Wind":"from the SW (230 degrees) at 5 MPH (4 KT) (direction variable):0","Visibility":"2 mile(s):0","Sky conditions":"mostly cloudy","Weather":"mist","Temperature":"6 F (-14 C)","Windchill":"-4 F (-20 C):1","Dew Point":"3 F (-16 C)","Relative Humidity":"84%","Pressure (altimeter)":"30.53 in. Hg (1034 hPa)","ob":"EPGD 040400Z 23004KT 180V280 4000 BR FEW011 BKN019 M14/M16 Q1034 R11/490148","cycle":"4"},
{"_id":"4495a8a111ec85eb6d2389a681db9b85","_rev":"1-40f50ca39f186d616c90751c11127d0d","Location":"Gdansk-Rebiechowo, Poland (EPGD) 54-23N 018-28E 138M","Date":"Jan 01, 2012 - 11:00 PM EST / 2012.01.02 0400 UTC","Wind":"from the S (170 degrees) at 8 MPH (7 KT) (direction variable):0","Visibility":"1 mile(s):0","Sky conditions":"mostly cloudy","Weather":"light rain; mist","Temperature":"41 F (5 C)","Dew Point":"41 F (5 C)","Relative Humidity":"100%","Pressure (altimeter)":"29.59 in. Hg (1002 hPa)","ob":"EPGD 020400Z 17007KT 140V210 2000 -RA BR SCT003 BKN009 05/05 Q1002","cycle":"4"},
{"_id":"4495a8a111ec85eb6d2389a681dba4ff","_rev":"1-7fa1f1353e6fa8fb586fd4d06a5008f6","Location":"Gdansk-Rebiechowo, Poland (EPGD) 54-23N 018-28E 138M","Date":"Jan 30, 2012 - 07:00 PM EST / 2012.01.31 0000 UTC","Wind":"from the ESE (110 degrees) at 7 MPH (6 KT):0","Visibility":"greater than 7 mile(s):0","Temperature":"5 F (-15 C)","Windchill":"-7 F (-22 C):2","Dew Point":"0 F (-18 C)","Relative Humidity":"77%","Pressure (altimeter)":"30.77 in. Hg (1042 hPa)","ob":"EPGD 310000Z 11006KT CAVOK M15/M18 Q1042","cycle":"0"},
{"_id":"4495a8a111ec85eb6d2389a681dbb076","_rev":"1-77fcb1d86e3c7528fa326b4d5b35fcce","Location":"Gdansk-Rebiechowo, Poland (EPGD) 54-23N 018-28E 138M","Date":"Jan 02, 2012 - 04:00 PM EST / 2012.01.02 2100 UTC","Wind":"from the W (270 degrees) at 6 MPH (5 KT):0","Visibility":"greater than 7 mile(s):0","Sky conditions":"mostly cloudy","Temperature":"42 F (6 C)","Dew Point":"41 F (5 C)","Relative Humidity":"93%","Pressure (altimeter)":"29.74 in. Hg (1007 hPa)","ob":"EPGD 022100Z 27005KT 9999 BKN015 06/05 Q1007","cycle":"21"},
{"_id":"4495a8a111ec85eb6d2389a681dbbb29","_rev":"1-ca51a76c427d9e4912b3fa5ca798270c","Location":"Gdansk-Rebiechowo, Poland (EPGD) 54-23N 018-28E 138M","Date":"Feb 17, 2012 - 09:00 PM EST / 2012.02.18 0200 UTC","Wind":"from the WNW (300 degrees) at 8 MPH (7 KT):0","Visibility":"greater than 7 mile(s):0","Sky conditions":"overcast","Temperature":"33 F (1 C)","Windchill":"26 F (-3 C):1","Dew Point":"30 F (-1 C)","Relative Humidity":"86%","Pressure (altimeter)":"29.88 in. Hg (1012 hPa)","ob":"EPGD 180200Z 30007KT 9999 OVC005 01/M01 Q1012 R11/190095","cycle":"2"},
{"_id":"4495a8a111ec85eb6d2389a681dbbe79","_rev":"1-1ff6afa5994def03e90339ef97f15f04","Location":"Gdansk-Rebiechowo, Poland (EPGD) 54-23N 018-28E 138M","Date":"Jan 16, 2012 - 02:00 PM EST / 2012.01.16 1900 UTC","Wind":"Calm:0","Visibility":"4 mile(s):0","Sky conditions":"mostly cloudy","Temperature":"28 F (-2 C)","Dew Point":"26 F (-3 C)","Relative Humidity":"92%","Pressure (altimeter)":"30.12 in. Hg (1020 hPa)","ob":"EPGD 161900Z 00000KT 8000 FEW017 BKN030 M02/M03 Q1020 R11/190095","cycle":"19"},
{"_id":"4495a8a111ec85eb6d2389a681dbbed3","_rev":"1-9078578472b426655b1f900bb3c87121","Location":"Gdansk-Rebiechowo, Poland (EPGD) 54-23N 018-28E 138M","Date":"Dec 16, 2011 - 10:00 PM EST / 2011.12.17 0300 UTC","Wind":"from the S (180 degrees) at 10 MPH (9 KT) gusting to 22 MPH (19 KT) (direction variable):0","Visibility":"3 mile(s):0","Sky conditions":"mostly cloudy","Weather":"mist","Temperature":"37 F (3 C)","Dew Point":"32 F (0 C)","Relative Humidity":"80%","Pressure (altimeter)":"28.67 in. Hg (0971 hPa)","ob":"EPGD 170300Z 18009G19KT 130V230 5000 BR FEW019 BKN043 03/M00 Q0971 R11/290064","cycle":"3"},
{"_id":"4495a8a111ec85eb6d2389a681dbc89b","_rev":"1-5c817e1674a41bd3e7514dfa267ab76f","Location":"Gdansk-Rebiechowo, Poland (EPGD) 54-23N 018-28E 138M","Date":"Dec 26, 2011 - 02:00 AM EST / 2011.12.26 0700 UTC","Wind":"from the W (270 degrees) at 16 MPH (14 KT):0","Visibility":"3 mile(s):0","Sky conditions":"mostly cloudy","Weather":"mist","Temperature":"46 F (8 C)","Dew Point":"44 F (7 C)","Relative Humidity":"93%","Pressure (altimeter)":"30.12 in. Hg (1020 hPa)","ob":"EPGD 260700Z 27014KT 5000 BR BKN009 08/07 Q1020","cycle":"7"},
{"_id":"4495a8a111ec85eb6d2389a681dbd7f0","_rev":"1-dd404261519a5567b8219e839046c375","Location":"Gdansk-Rebiechowo, Poland (EPGD) 54-23N 018-28E 138M","Date":"Jan 07, 2012 - 07:00 AM EST / 2012.01.07 1200 UTC","Wind":"from the SW (220 degrees) at 9 MPH (8 KT) (direction variable):0","Visibility":"greater than 7 mile(s):0","Sky conditions":"mostly cloudy","Temperature":"35 F (2 C)","Windchill":"28 F (-2 C):1","Dew Point":"32 F (0 C)","Relative Humidity":"86%","Pressure (altimeter)":"29.59 in. Hg (1002 hPa)","ob":"EPGD 071200Z 22008KT 170V260 9999 BKN012 02/00 Q1002","cycle":"12"},
{"_id":"4495a8a111ec85eb6d2389a681dbd93d","_rev":"1-225e4b83e66df1db1ce694b6122b3554","Location":"Gdansk-Rebiechowo, Poland (EPGD) 54-23N 018-28E 138M","Date":"Jan 30, 2012 - 06:00 AM EST / 2012.01.30 1100 UTC","Wind":"from the ESE (120 degrees) at 9 MPH (8 KT):0","Visibility":"greater than 7 mile(s):0","Temperature":"10 F (-12 C)","Windchill":"-2 F (-19 C):1","Dew Point":"3 F (-16 C)","Relative Humidity":"72%","Pressure (altimeter)":"30.80 in. Hg (1043 hPa)","ob":"EPGD 301100Z 12008KT CAVOK M12/M16 Q1043","cycle":"11"},
{"_id":"4495a8a111ec85eb6d2389a681dbda84","_rev":"1-aee1c2579a1e70d03c9bb465e4aa8f38","Location":"Gdansk-Rebiechowo, Poland (EPGD) 54-23N 018-28E 138M","Date":"Feb 06, 2012 - 05:00 PM EST / 2012.02.06 2200 UTC","Wind":"Variable at 2 MPH (2 KT):0","Visibility":"3 mile(s):0","Sky conditions":"mostly cloudy","Weather":"light snow","Temperature":"8 F (-13 C)","Dew Point":"3 F (-16 C)","Relative Humidity":"78%","Pressure (altimeter)":"30.62 in. Hg (1037 hPa)","ob":"EPGD 062200Z VRB02KT 6000 -SN FEW003 BKN006 M13/M16 Q1037 R11/490152","cycle":"22"},
{"_id":"4495a8a111ec85eb6d2389a681dbe00d","_rev":"1-d379c231f7fb0782bd06b6923d385af3","Location":"Gdansk-Rebiechowo, Poland (EPGD) 54-23N 018-28E 138M","Date":"Feb 11, 2012 - 08:00 PM EST / 2012.02.12 0100 UTC","Wind":"from the W (270 degrees) at 5 MPH (4 KT):0","Visibility":"greater than 7 mile(s):0","Sky conditions":"mostly cloudy","Weather":"light snow","Temperature":"19 F (-7 C)","Windchill":"12 F (-11 C):1","Dew Point":"15 F (-9 C)","Relative Humidity":"85%","Pressure (altimeter)":"30.42 in. Hg (1030 hPa)","ob":"EPGD 120100Z 27004KT 9999 -SN FEW013 SCT033 BKN040 M07/M09 Q1030 R29/490241","cycle":"1"},
{"_id":"4495a8a111ec85eb6d2389a681dbe62c","_rev":"1-ea5d911511df30a9905991a9106d3fb5","Location":"Gdansk-Rebiechowo, Poland (EPGD) 54-23N 018-28E 138M","Date":"Feb 02, 2012 - 04:00 PM EST / 2012.02.02 2100 UTC","Wind":"Variable at 2 MPH (2 KT):0","Visibility":"1 mile(s):0","Weather":"mist","Temperature":"-7 F (-22 C)","Dew Point":"-11 F (-24 C)","Relative Humidity":"83%","Pressure (altimeter)":"30.53 in. Hg (1034 hPa)","ob":"EPGD 022100Z VRB02KT 2000 BR NSC M22/M24 Q1034 R11/190095","cycle":"21"},
{"_id":"4495a8a111ec85eb6d2389a681dbe684","_rev":"1-0301f186436e6a37cb2567dd61df25ac","Location":"Gdansk-Rebiechowo, Poland (EPGD) 54-23N 018-28E 138M","Date":"Dec 29, 2011 - 02:00 AM EST / 2011.12.29 0700 UTC","Wind":"from the SW (220 degrees) at 12 MPH (10 KT) (direction variable):0","Visibility":"greater than 7 mile(s):0","Sky conditions":"mostly cloudy","Temperature":"41 F (5 C)","Dew Point":"35 F (2 C)","Relative Humidity":"80%","Pressure (altimeter)":"29.74 in. Hg (1007 hPa)","ob":"EPGD 290700Z 22010KT 190V250 9999 BKN025 05/02 Q1007","cycle":"7"},
{"_id":"4495a8a111ec85eb6d2389a681dbf267","_rev":"1-b28a3c8b6f0caae6b0e8d1ec90b7b435","Location":"Gdansk-Rebiechowo, Poland (EPGD) 54-23N 018-28E 138M","Date":"Feb 13, 2012 - 07:00 PM EST / 2012.02.14 0000 UTC","Wind":"from the W (260 degrees) at 5 MPH (4 KT):0","Visibility":"greater than 7 mile(s):0","Temperature":"26 F (-3 C)","Windchill":"19 F (-7 C):1","Dew Point":"23 F (-5 C)","Relative Humidity":"86%","Pressure (altimeter)":"29.97 in. Hg (1015 hPa)","ob":"EPGD 140000Z 26004KT CAVOK M03/M05 Q1015 R11/190095","cycle":"0"},
{"_id":"4495a8a111ec85eb6d2389a681dc015d","_rev":"1-d690ac06ccbe6deb40c5a7f3325d7b25","Location":"Gdansk-Rebiechowo, Poland (EPGD) 54-23N 018-28E 138M","Date":"Jan 21, 2012 - 02:00 AM EST / 2012.01.21 0700 UTC","Wind":"from the W (280 degrees) at 5 MPH (4 KT):0","Visibility":"greater than 7 mile(s):0","Sky conditions":"mostly clear","Temperature":"28 F (-2 C)","Windchill":"23 F (-5 C):1","Dew Point":"24 F (-4 C)","Relative Humidity":"86%","Pressure (altimeter)":"29.74 in. Hg (1007 hPa)","ob":"EPGD 210700Z 28004KT 9999 FEW015 M02/M04 Q1007 R11/290095","cycle":"7"},
{"_id":"4495a8a111ec85eb6d2389a681dc0505","_rev":"1-8b82eacb62b3d5b938268c97c070b123","Location":"Gdansk-Rebiechowo, Poland (EPGD) 54-23N 018-28E 138M","Date":"Jan 14, 2012 - 06:00 PM EST / 2012.01.14 2300 UTC","Wind":"from the NNW (330 degrees) at 21 MPH (18 KT):0","Visibility":"greater than 7 mile(s):0","Sky conditions":"partly cloudy","Temperature":"32 F (0 C)","Windchill":"19 F (-7 C):1","Dew Point":"21 F (-6 C)","Relative Humidity":"63%","Pressure (altimeter)":"29.88 in. Hg (1012 hPa)","ob":"EPGD 142300Z 33018KT 9999 SCT030 00/M06 Q1012 R11/590255","cycle":"23"},
{"_id":"4495a8a111ec85eb6d2389a681dc14e7","_rev":"1-70a57191dae951e8afda9b9ba0983acc","Location":"Gdansk-Rebiechowo, Poland (EPGD) 54-23N 018-28E 138M","Date":"Feb 17, 2012 - 04:00 AM EST / 2012.02.17 0900 UTC","Wind":"from the WSW (240 degrees) at 7 MPH (6 KT):0","Visibility":"1 mile(s):0","Sky conditions":"mostly cloudy","Weather":"light snow; mist","Temperature":"32 F (0 C)","Windchill":"24 F (-4 C):1","Dew Point":"30 F (-1 C)","Relative Humidity":"92%","Pressure (altimeter)":"29.71 in. Hg (1006 hPa)","ob":"EPGD 170900Z 24006KT 2000 -SN BR BKN004 00/M01 Q1006 R11/590057","cycle":"9"},
{"_id":"4495a8a111ec85eb6d2389a681dc1f47","_rev":"1-c20e2ea6a2cca7bb723d5b4bc1e5609c","Location":"Gdansk-Rebiechowo, Poland (EPGD) 54-23N 018-28E 138M","Date":"Feb 08, 2012 - 06:00 AM EST / 2012.02.08 1100 UTC","Wind":"Variable at 1 MPH (1 KT):0","Visibility":"3 mile(s):0","Sky conditions":"mostly cloudy","Weather":"light snow; mist","Temperature":"24 F (-4 C)","Dew Point":"17 F (-8 C)","Relative Humidity":"73%","Pressure (altimeter)":"30.68 in. Hg (1039 hPa)","ob":"EPGD 081100Z VRB01KT 5000 -SN BR FEW005 BKN011 M04/M08 Q1039 R11/490159","cycle":"11"},
{"_id":"4495a8a111ec85eb6d2389a681dc27ca","_rev":"1-39fb8027e608b1797a972189182193c5","Location":"Gdansk-Rebiechowo, Poland (EPGD) 54-23N 018-28E 138M","Date":"Jan 19, 2012 - 04:00 AM EST / 2012.01.19 0900 UTC","Wind":"from the W (270 degrees) at 10 MPH (9 KT):0","Visibility":"greater than 7 mile(s):0","Sky conditions":"mostly cloudy","Temperature":"37 F (3 C)","Dew Point":"33 F (1 C)","Relative Humidity":"86%","Pressure (altimeter)":"29.74 in. Hg (1007 hPa)","ob":"EPGD 190900Z 27009KT 9999 BKN009 03/01 Q1007 R11/290095","cycle":"9"},
{"_id":"4495a8a111ec85eb6d2389a681dc30c9","_rev":"1-0e20246bd8b67fffa5d28b9e2532b986","Location":"Gdansk-Rebiechowo, Poland (EPGD) 54-23N 018-28E 138M","Date":"Jan 29, 2012 - 08:00 AM EST / 2012.01.29 1300 UTC","Wind":"from the E (100 degrees) at 12 MPH (10 KT):0","Visibility":"greater than 7 mile(s):0","Temperature":"17 F (-8 C)","Windchill":"3 F (-16 C):1","Dew Point":"5 F (-15 C)","Relative Humidity":"57%","Pressure (altimeter)":"30.77 in. Hg (1042 hPa)","ob":"EPGD 291300Z 10010KT CAVOK M08/M15 Q1042 R11/190095","cycle":"13"},
{"_id":"4495a8a111ec85eb6d2389a681dc4014","_rev":"1-0c5996bc8a68bee7f18710e2a901cd49","Location":"Gdansk-Rebiechowo, Poland (EPGD) 54-23N 018-28E 138M","Date":"Feb 13, 2012 - 01:00 AM EST / 2012.02.13 0600 UTC","Wind":"from the WNW (290 degrees) at 7 MPH (6 KT):0","Visibility":"3 mile(s):0","Sky conditions":"mostly cloudy","Temperature":"26 F (-3 C)","Windchill":"17 F (-8 C):1","Dew Point":"23 F (-5 C)","Relative Humidity":"86%","Pressure (altimeter)":"30.03 in. Hg (1017 hPa)","ob":"EPGD 130600Z 29006KT 6000 BKN030 M03/M05 Q1017 R29/490144","cycle":"6"},
{"_id":"4495a8a111ec85eb6d2389a681dc41bf","_rev":"1-5fb3a83c43d8966d73ff5a947fb524f1","Location":"Gdansk-Rebiechowo, Poland (EPGD) 54-23N 018-28E 138M","Date":"Jan 28, 2012 - 01:00 PM EST / 2012.01.28 1800 UTC","Wind":"from the ESE (120 degrees) at 9 MPH (8 KT):0","Visibility":"greater than 7 mile(s):0","Temperature":"10 F (-12 C)","Windchill":"-2 F (-19 C):1","Dew Point":"5 F (-15 C)","Relative Humidity":"78%","Pressure (altimeter)":"30.59 in. Hg (1036 hPa)","ob":"EPGD 281800Z 12008KT CAVOK M12/M15 Q1036 R11/190095","cycle":"18"},
{"_id":"4495a8a111ec85eb6d2389a681dc439c","_rev":"1-0bf032f290d99a29ab6799273a2064f2","Location":"Gdansk-Rebiechowo, Poland (EPGD) 54-23N 018-28E 138M","Date":"Jan 30, 2012 - 09:00 PM EST / 2012.01.31 0200 UTC","Wind":"from the ESE (110 degrees) at 6 MPH (5 KT):0","Visibility":"greater than 7 mile(s):0","Temperature":"5 F (-15 C)","Windchill":"-5 F (-21 C):2","Dew Point":"0 F (-18 C)","Relative Humidity":"77%","Pressure (altimeter)":"30.74 in. Hg (1041 hPa)","ob":"EPGD 310200Z 11005KT CAVOK M15/M18 Q1041","cycle":"2"},
{"_id":"4495a8a111ec85eb6d2389a681dc4762","_rev":"1-305c7000daff4755f209bf83abe2bcfc","Location":"Gdansk-Rebiechowo, Poland (EPGD) 54-23N 018-28E 138M","Date":"Feb 03, 2012 - 09:00 AM EST / 2012.02.03 1400 UTC","Wind":"from the SW (230 degrees) at 6 MPH (5 KT) (direction variable):0","Visibility":"greater than 7 mile(s):0","Sky conditions":"mostly cloudy","Temperature":"14 F (-10 C)","Windchill":"5 F (-15 C):1","Dew Point":"5 F (-15 C)","Relative Humidity":"66%","Pressure (altimeter)":"30.47 in. Hg (1032 hPa)","ob":"EPGD 031400Z 23005KT 190V270 9999 BKN024 M10/M15 Q1032","cycle":"14"},
{"_id":"4495a8a111ec85eb6d2389a681dc48e9","_rev":"1-012101723dfb45c5f00cb0ec601a5aa5","Location":"Gdansk-Rebiechowo, Poland (EPGD) 54-23N 018-28E 138M","Date":"Jan 06, 2012 - 08:00 AM EST / 2012.01.06 1300 UTC","Wind":"from the NNW (330 degrees) at 17 MPH (15 KT):0","Visibility":"greater than 7 mile(s):0","Sky conditions":"mostly cloudy","Weather":"light rain showers","Temperature":"35 F (2 C)","Windchill":"24 F (-4 C):1","Dew Point":"32 F (0 C)","Relative Humidity":"86%","Pressure (altimeter)":"29.50 in. Hg (0999 hPa)","ob":"EPGD 061300Z 33015KT 9999 -SHRA FEW006 BKN013 02/M00 Q0999","cycle":"13"},
{"_id":"4495a8a111ec85eb6d2389a681dc55ca","_rev":"1-628a342ebd06d84dd6b23ecb03b62fe4","Location":"Gdansk-Rebiechowo, Poland (EPGD) 54-23N 018-28E 138M","Date":"Feb 16, 2012 - 08:00 AM EST / 2012.02.16 1300 UTC","Wind":"Variable at 2 MPH (2 KT):0","Visibility":"greater than 7 mile(s):0","Sky conditions":"mostly clear","Temperature":"33 F (1 C)","Dew Point":"19 F (-7 C)","Relative Humidity":"55%","Pressure (altimeter)":"30.00 in. Hg (1016 hPa)","ob":"EPGD 161300Z VRB02KT 9999 FEW021 01/M07 Q1016 R11/190095","cycle":"13"},
{"_id":"4495a8a111ec85eb6d2389a681dc5626","_rev":"1-2769f17eff209a6fd51fb214c55b660b","Location":"Gdansk-Rebiechowo, Poland (EPGD) 54-23N 018-28E 138M","Date":"Jan 13, 2012 - 08:00 AM EST / 2012.01.13 1300 UTC","Wind":"from the WNW (290 degrees) at 22 MPH (19 KT):0","Visibility":"greater than 7 mile(s):0","Sky conditions":"partly cloudy","Temperature":"37 F (3 C)","Dew Point":"28 F (-2 C)","Relative Humidity":"69%","Pressure (altimeter)":"29.53 in. Hg (1000 hPa)","ob":"EPGD 131300Z 29019KT 9999 SCT030 03/M02 Q1000","cycle":"13"},
{"_id":"4495a8a111ec85eb6d2389a681dc5e96","_rev":"1-49bdde29e7d83cec54db0163f9cb7c7a","Location":"Gdansk-Rebiechowo, Poland (EPGD) 54-23N 018-28E 138M","Date":"Jan 20, 2012 - 06:00 PM EST / 2012.01.20 2300 UTC","Wind":"from the NW (310 degrees) at 9 MPH (8 KT):0","Visibility":"4 mile(s):0","Sky conditions":"mostly cloudy","Weather":"light snow","Temperature":"33 F (1 C)","Windchill":"24 F (-4 C):1","Dew Point":"32 F (0 C)","Relative Humidity":"93%","Pressure (altimeter)":"29.65 in. Hg (1004 hPa)","ob":"EPGD 202300Z 31008KT 8000 -SN BKN004 01/M00 Q1004 R11/190095","cycle":"23"},
{"_id":"4495a8a111ec85eb6d2389a681dc626c","_rev":"1-92bb244ec48ccde151d48f67e12ad548","Location":"Gdansk-Rebiechowo, Poland (EPGD) 54-23N 018-28E 138M","Date":"Feb 04, 2012 - 09:00 AM EST / 2012.02.04 1400 UTC","Wind":"from the ESE (120 degrees) at 8 MPH (7 KT):0","Visibility":"1 mile(s):0","Sky conditions":"mostly cloudy","Weather":"light snow; mist","Temperature":"8 F (-13 C)","Windchill":"-4 F (-20 C):1","Dew Point":"3 F (-16 C)","Relative Humidity":"78%","Pressure (altimeter)":"30.56 in. Hg (1035 hPa)","ob":"EPGD 041400Z 12007KT 2000 -SN BR BKN009 M13/M16 Q1035 R11/490136","cycle":"14"},
{"_id":"4495a8a111ec85eb6d2389a681dc6701","_rev":"1-341a4963f7773eca0b6224a2761fb35a","Location":"Gdansk-Rebiechowo, Poland (EPGD) 54-23N 018-28E 138M","Date":"Jan 31, 2012 - 01:00 PM EST / 2012.01.31 1800 UTC","Wind":"Calm:0","Visibility":"greater than 7 mile(s):0","Temperature":"10 F (-12 C)","Dew Point":"5 F (-15 C)","Relative Humidity":"78%","Pressure (altimeter)":"30.68 in. Hg (1039 hPa)","ob":"EPGD 311800Z 00000KT CAVOK M12/M15 Q1039 R11/190095","cycle":"18"},
{"_id":"4495a8a111ec85eb6d2389a681dc73e7","_rev":"1-1d016778703087e29f2382c8ca0613ac","Location":"Gdansk-Rebiechowo, Poland (EPGD) 54-23N 018-28E 138M","Date":"Dec 27, 2011 - 03:00 PM EST / 2011.12.27 2000 UTC","Wind":"from the W (280 degrees) at 14 MPH (12 KT):0","Visibility":"greater than 7 mile(s):0","Sky conditions":"mostly clear","Temperature":"39 F (4 C)","Dew Point":"35 F (2 C)","Relative Humidity":"86%","Pressure (altimeter)":"30.36 in. Hg (1028 hPa)","ob":"EPGD 272000Z 28012KT 9999 FEW017 04/02 Q1028","cycle":"20"},
{"_id":"4495a8a111ec85eb6d2389a681dc7c2c","_rev":"1-e592336c21f6fc5a77cf12ddd238cbd9","Location":"Gdansk-Rebiechowo, Poland (EPGD) 54-23N 018-28E 138M","Date":"Dec 30, 2011 - 08:00 AM EST / 2011.12.30 1300 UTC","Wind":"from the W (260 degrees) at 3 MPH (3 KT) (direction variable):0","Visibility":"4 mile(s):0","Sky conditions":"mostly cloudy","Temperature":"37 F (3 C)","Dew Point":"33 F (1 C)","Relative Humidity":"86%","Pressure (altimeter)":"29.50 in. Hg (0999 hPa)","ob":"EPGD 301300Z 26003KT 220V290 8000 FEW005 BKN008 03/01 Q0999","cycle":"13"},
{"_id":"4495a8a111ec85eb6d2389a681dc8152","_rev":"1-59e93a24060506eed65c57b5a2b7d942","Location":"Gdansk-Rebiechowo, Poland (EPGD) 54-23N 018-28E 138M","Date":"Dec 18, 2011 - 12:00 PM EST / 2011.12.18 1700 UTC","Wind":"from the WSW (240 degrees) at 18 MPH (16 KT) gusting to 33 MPH (29 KT):0","Visibility":"greater than 7 mile(s):0","Sky conditions":"mostly cloudy","Temperature":"33 F (1 C)","Windchill":"21 F (-6 C):1","Dew Point":"28 F (-2 C)","Relative Humidity":"80%","Pressure (altimeter)":"29.38 in. Hg (0995 hPa)","ob":"EPGD 181700Z 24016G29KT 9999 FEW015 BKN017 01/M02 Q0995","cycle":"17"},
{"_id":"4495a8a111ec85eb6d2389a681dc8b23","_rev":"1-1dbaba489744f78a8d215f75df7df329","Location":"Gdansk-Rebiechowo, Poland (EPGD) 54-23N 018-28E 138M","Date":"Jan 21, 2012 - 12:00 PM EST / 2012.01.21 1700 UTC","Wind":"from the SSE (150 degrees) at 9 MPH (8 KT) (direction variable):0","Visibility":"2 mile(s):0","Sky conditions":"mostly cloudy","Weather":"light drizzle","Temperature":"33 F (1 C)","Windchill":"24 F (-4 C):1","Dew Point":"30 F (-1 C)","Relative Humidity":"86%","Pressure (altimeter)":"29.41 in. Hg (0996 hPa)","ob":"EPGD 211700Z 15008KT 110V190 4000 -DZ BKN004 01/M01 Q0996 R11/290095","cycle":"17"},
{"_id":"4495a8a111ec85eb6d2389a681dc8f89","_rev":"1-a226ec913c1714e125f76fb7521dd618","Location":"Gdansk-Rebiechowo, Poland (EPGD) 54-23N 018-28E 138M","Date":"Dec 16, 2011 - 11:00 PM EST / 2011.12.17 0400 UTC","Wind":"from the S (170 degrees) at 9 MPH (8 KT) (direction variable):0","Visibility":"3 mile(s):0","Sky conditions":"mostly cloudy","Weather":"mist","Temperature":"37 F (3 C)","Dew Point":"30 F (-1 C)","Relative Humidity":"74%","Pressure (altimeter)":"28.70 in. Hg (0972 hPa)","ob":"EPGD 170400Z 17008KT 130V210 5000 BR BKN021 03/M01 Q0972 R11/290064","cycle":"4"},
{"_id":"4495a8a111ec85eb6d2389a681dc92a4","_rev":"1-8b4e483d67f37f8fef33b08f57cefcfe","Location":"Gdansk-Rebiechowo, Poland (EPGD) 54-23N 018-28E 138M","Date":"Jan 02, 2012 - 12:00 PM EST / 2012.01.02 1700 UTC","Wind":"from the W (270 degrees) at 7 MPH (6 KT):0","Visibility":"greater than 7 mile(s):0","Sky conditions":"partly cloudy","Weather":"light rain showers; Towering cumulus clouds observed","Temperature":"44 F (7 C)","Dew Point":"41 F (5 C)","Relative Humidity":"87%","Pressure (altimeter)":"29.65 in. Hg (1004 hPa)","ob":"EPGD 021700Z 27006KT 9999 -SHRA FEW013TCU SCT015 07/05 Q1004","cycle":"17"},
{"_id":"4495a8a111ec85eb6d2389a681dca008","_rev":"1-f8d3100c440cdc3db8bb6de1f540649d","Location":"Gdansk-Rebiechowo, Poland (EPGD) 54-23N 018-28E 138M","Date":"Dec 18, 2011 - 01:00 AM EST / 2011.12.18 0600 UTC","Wind":"from the WSW (250 degrees) at 10 MPH (9 KT):0","Visibility":"greater than 7 mile(s):0","Sky conditions":"mostly cloudy","Temperature":"33 F (1 C)","Windchill":"24 F (-4 C):1","Dew Point":"32 F (0 C)","Relative Humidity":"93%","Pressure (altimeter)":"29.21 in. Hg (0989 hPa)","ob":"EPGD 180600Z 25009KT 9999 FEW008 BKN026 01/M00 Q0989","cycle":"6"},
{"_id":"4495a8a111ec85eb6d2389a681dca999","_rev":"1-fbe076495cb0d4ef4b619af792ff14b3","Location":"Gdansk-Rebiechowo, Poland (EPGD) 54-23N 018-28E 138M","Date":"Dec 27, 2011 - 06:00 AM EST / 2011.12.27 1100 UTC","Wind":"from the W (260 degrees) at 24 MPH (21 KT) gusting to 40 MPH (35 KT):0","Visibility":"greater than 7 mile(s):0","Sky conditions":"mostly cloudy","Weather":"light rain","Temperature":"48 F (9 C)","Dew Point":"41 F (5 C)","Relative Humidity":"75%","Pressure (altimeter)":"30.21 in. Hg (1023 hPa)","ob":"EPGD 271100Z 26021G35KT 9999 -RA BKN017 09/05 Q1023","cycle":"11"},
{"_id":"4495a8a111ec85eb6d2389a681dcb915","_rev":"1-ec1e03080891dccab612a2e306d43ff3","Location":"Gdansk-Rebiechowo, Poland (EPGD) 54-23N 018-28E 138M","Date":"Feb 02, 2012 - 06:00 AM EST / 2012.02.02 1100 UTC","Wind":"from the SE (130 degrees) at 6 MPH (5 KT):0","Visibility":"greater than 7 mile(s):0","Temperature":"3 F (-16 C)","Windchill":"-7 F (-22 C):2","Dew Point":"-5 F (-21 C)","Relative Humidity":"65%","Pressure (altimeter)":"30.59 in. Hg (1036 hPa)","ob":"EPGD 021100Z 13005KT CAVOK M16/M21 Q1036 R11/490140","cycle":"11"},
{"_id":"4495a8a111ec85eb6d2389a681dcbe18","_rev":"1-0ca3bf84c31977434c75520e194b132f","Location":"Gdansk-Rebiechowo, Poland (EPGD) 54-23N 018-28E 138M","Date":"Jan 20, 2012 - 01:00 PM EST / 2012.01.20 1800 UTC","Wind":"Variable at 2 MPH (2 KT):0","Visibility":"greater than 7 mile(s):0","Sky conditions":"mostly cloudy","Temperature":"33 F (1 C)","Dew Point":"32 F (0 C)","Relative Humidity":"93%","Pressure (altimeter)":"29.56 in. Hg (1001 hPa)","ob":"EPGD 201800Z VRB02KT 9999 BKN007 01/M00 Q1001 R11/190095","cycle":"18"},
{"_id":"4495a8a111ec85eb6d2389a681dcbf08","_rev":"1-ba162c91fe8deb36a29f6626d8e360da","Location":"Gdansk-Rebiechowo, Poland (EPGD) 54-23N 018-28E 138M","Date":"Jan 18, 2012 - 12:00 PM EST / 2012.01.18 1700 UTC","Wind":"from the SW (230 degrees) at 6 MPH (5 KT) (direction variable):0","Visibility":"greater than 7 mile(s):0","Sky conditions":"mostly cloudy","Temperature":"33 F (1 C)","Windchill":"26 F (-3 C):1","Dew Point":"30 F (-1 C)","Relative Humidity":"86%","Pressure (altimeter)":"30.03 in. Hg (1017 hPa)","ob":"EPGD 181700Z 23005KT 200V260 9999 SCT011 BKN019 01/M01 Q1017","cycle":"17"},
{"_id":"4495a8a111ec85eb6d2389a681dcc99c","_rev":"1-d80b2573ebf166d953fb43a56bea2123","Location":"Gdansk-Rebiechowo, Poland (EPGD) 54-23N 018-28E 138M","Date":"Feb 19, 2012 - 03:00 PM EST / 2012.02.19 2000 UTC","Wind":"from the W (260 degrees) at 15 MPH (13 KT):0","Visibility":"greater than 7 mile(s):0","Sky conditions":"mostly cloudy","Temperature":"35 F (2 C)","Windchill":"24 F (-4 C):1","Dew Point":"28 F (-2 C)","Relative Humidity":"74%","Pressure (altimeter)":"29.83 in. Hg (1010 hPa)","ob":"EPGD 192000Z 26013KT 9999 BKN037 02/M02 Q1010 R11/290095","cycle":"20"},
{"_id":"4495a8a111ec85eb6d2389a681dcccd1","_rev":"1-284e76f444eeed11ad303f6f1f0ea815","Location":"Gdansk-Rebiechowo, Poland (EPGD) 54-23N 018-28E 138M","Date":"Jan 04, 2012 - 03:00 PM EST / 2012.01.04 2000 UTC","Wind":"from the WSW (240 degrees) at 16 MPH (14 KT) gusting to 29 MPH (25 KT) (direction variable):0","Visibility":"greater than 7 mile(s):0","Sky conditions":"partly cloudy","Temperature":"39 F (4 C)","Dew Point":"32 F (0 C)","Relative Humidity":"75%","Pressure (altimeter)":"29.47 in. Hg (0998 hPa)","ob":"EPGD 042000Z 24014G25KT 200V270 9999 FEW016 SCT020 04/00 Q0998","cycle":"20"},
{"_id":"4495a8a111ec85eb6d2389a681dcd0b6","_rev":"1-90b25356df8034fd001ba40b838f8c2d","Location":"Gdansk-Rebiechowo, Poland (EPGD) 54-23N 018-28E 138M","Date":"Jan 25, 2012 - 07:00 AM EST / 2012.01.25 1200 UTC","Wind":"from the NW (320 degrees) at 10 MPH (9 KT) (direction variable):0","Visibility":"less than 1 mile:0","Sky conditions":"mostly cloudy","Weather":"snow showers; Towering cumulus clouds observed","Temperature":"32 F (0 C)","Windchill":"23 F (-5 C):1","Dew Point":"28 F (-2 C)","Relative Humidity":"86%","Pressure (altimeter)":"30.18 in. Hg (1022 hPa)","ob":"EPGD 251200Z 32009KT 1000 R29/0800V1800 SHSN BKN004 SCT013TCU M00/M02 Q1022 RESHSN R11/290095","cycle":"12"},
{"_id":"4495a8a111ec85eb6d2389a681dcd9ba","_rev":"1-9b1c823895d7cafaf277d2c4d8d51bb8","Location":"Gdansk-Rebiechowo, Poland (EPGD) 54-23N 018-28E 138M","Date":"Feb 05, 2012 - 06:00 AM EST / 2012.02.05 1100 UTC","Wind":"from the SE (130 degrees) at 5 MPH (4 KT):0","Visibility":"greater than 7 mile(s):0","Temperature":"5 F (-15 C)","Windchill":"-4 F (-20 C):1","Dew Point":"-4 F (-20 C)","Relative Humidity":"65%","Pressure (altimeter)":"30.71 in. Hg (1040 hPa)","ob":"EPGD 051100Z 13004KT CAVOK M15/M20 Q1040 R11/490162","cycle":"11"},
{"_id":"4495a8a111ec85eb6d2389a681dcde5e","_rev":"1-5c304edf44f70e11f3328f697e55c847","Location":"Gdansk-Rebiechowo, Poland (EPGD) 54-23N 018-28E 138M","Date":"Feb 12, 2012 - 07:00 PM EST / 2012.02.13 0000 UTC","Wind":"from the W (270 degrees) at 7 MPH (6 KT) (direction variable):0","Visibility":"3 mile(s):0","Sky conditions":"mostly cloudy","Temperature":"23 F (-5 C)","Windchill":"14 F (-10 C):1","Dew Point":"21 F (-6 C)","Relative Humidity":"92%","Pressure (altimeter)":"30.09 in. Hg (1019 hPa)","ob":"EPGD 130000Z 27006KT 230V290 6000 BKN006 M05/M06 Q1019 R29/490233","cycle":"0"},
{"_id":"4495a8a111ec85eb6d2389a681dce76d","_rev":"1-7c5ab8b43cbc92fb3c578eab0b1f75b6","Location":"Gdansk-Rebiechowo, Poland (EPGD) 54-23N 018-28E 138M","Date":"Jan 19, 2012 - 10:00 PM EST / 2012.01.20 0300 UTC","Wind":"from the WNW (290 degrees) at 10 MPH (9 KT):0","Visibility":"less than 1 mile:0","Sky conditions":"mostly cloudy","Weather":"snow","Temperature":"32 F (0 C)","Windchill":"23 F (-5 C):1","Dew Point":"32 F (0 C)","Relative Humidity":"100%","Pressure (altimeter)":"29.41 in. Hg (0996 hPa)","ob":"EPGD 200300Z 29009KT 1400 R29/P2000 SN BKN005 00/M00 Q0996","cycle":"3"},
{"_id":"4495a8a111ec85eb6d2389a681dcf1ed","_rev":"1-aeec2674964f088e8e3842d9e71b6efd","Location":"Gdansk-Rebiechowo, Poland (EPGD) 54-23N 018-28E 138M","Date":"Dec 18, 2011 - 11:00 PM EST / 2011.12.19 0400 UTC","Wind":"from the WSW (240 degrees) at 16 MPH (14 KT) gusting to 28 MPH (24 KT) (direction variable):0","Visibility":"greater than 7 mile(s):0","Sky conditions":"mostly cloudy","Weather":"light rain showers; Towering cumulus clouds observed","Temperature":"35 F (2 C)","Windchill":"24 F (-4 C):1","Dew Point":"32 F (0 C)","Relative Humidity":"86%","Pressure (altimeter)":"29.62 in. Hg (1003 hPa)","ob":"EPGD 190400Z 24014G24KT 200V270 9999 -SHRA FEW005 BKN012 FEW015TCU 02/M00 Q1003 R11/690061","cycle":"4"},
{"_id":"4495a8a111ec85eb6d2389a681dd00af","_rev":"1-134c10b320864b9c23dc4981351db942","Location":"Gdansk-Rebiechowo, Poland (EPGD) 54-23N 018-28E 138M","Date":"Dec 20, 2011 - 02:00 PM EST / 2011.12.20 1900 UTC","Wind":"Variable at 1 MPH (1 KT):0","Visibility":"1 mile(s):0","Sky conditions":"mostly cloudy","Weather":"mist","Temperature":"32 F (0 C)","Dew Point":"28 F (-2 C)","Relative Humidity":"86%","Pressure (altimeter)":"29.85 in. Hg (1011 hPa)","ob":"EPGD 201900Z VRB01KT 3000 BR BKN048 M00/M02 Q1011 R11/190095","cycle":"19"},
{"_id":"4495a8a111ec85eb6d2389a681dd0d66","_rev":"1-f7ace9f454b7849a2a9ccf993adad137","Location":"Gdansk-Rebiechowo, Poland (EPGD) 54-23N 018-28E 138M","Date":"Jan 10, 2012 - 07:00 PM EST / 2012.01.11 0000 UTC","Wind":"from the W (260 degrees) at 8 MPH (7 KT):0","Visibility":"greater than 7 mile(s):0","Sky conditions":"mostly cloudy","Temperature":"35 F (2 C)","Windchill":"28 F (-2 C):1","Dew Point":"33 F (1 C)","Relative Humidity":"93%","Pressure (altimeter)":"30.24 in. Hg (1024 hPa)","ob":"EPGD 110000Z 26007KT 9999 BKN006 02/01 Q1024 R11/290060","cycle":"0"},
{"_id":"4495a8a111ec85eb6d2389a681dd16d4","_rev":"1-1e6464c1d6f419afb69d82f737326b96","Location":"Gdansk-Rebiechowo, Poland (EPGD) 54-23N 018-28E 138M","Date":"Dec 31, 2011 - 11:00 AM EST / 2011.12.31 1600 UTC","Wind":"from the W (260 degrees) at 3 MPH (3 KT):0","Visibility":"greater than 7 mile(s):0","Temperature":"32 F (0 C)","Dew Point":"28 F (-2 C)","Relative Humidity":"86%","Pressure (altimeter)":"29.85 in. Hg (1011 hPa)","ob":"EPGD 311600Z 26003KT CAVOK M00/M02 Q1011","cycle":"16"},
{"_id":"4495a8a111ec85eb6d2389a681dd1f19","_rev":"1-c9f22b91fa7b2197393f5aae40baf2cb","Location":"Gdansk-Rebiechowo, Poland (EPGD) 54-23N 018-28E 138M","Date":"Jan 30, 2012 - 10:00 AM EST / 2012.01.30 1500 UTC","Wind":"from the ESE (110 degrees) at 6 MPH (5 KT):0","Visibility":"greater than 7 mile(s):0","Temperature":"10 F (-12 C)","Windchill":"0 F (-18 C):1","Dew Point":"3 F (-16 C)","Relative Humidity":"72%","Pressure (altimeter)":"30.77 in. Hg (1042 hPa)","ob":"EPGD 301500Z 11005KT CAVOK M12/M16 Q1042","cycle":"15"},
{"_id":"4495a8a111ec85eb6d2389a681dd2c23","_rev":"1-9d8e87c3d3a63c4bbc499a4a91012da0","Location":"Gdansk-Rebiechowo, Poland (EPGD) 54-23N 018-28E 138M","Date":"Feb 05, 2012 - 03:00 PM EST / 2012.02.05 2000 UTC","Wind":"from the NW (310 degrees) at 2 MPH (2 KT):0","Visibility":"4 mile(s):0","Temperature":"-11 F (-24 C)","Dew Point":"-14 F (-26 C)","Relative Humidity":"83%","Pressure (altimeter)":"30.71 in. Hg (1040 hPa)","ob":"EPGD 052000Z 31002KT 7000 NSC M24/M26 Q1040 R11/190095","cycle":"20"},
{"_id":"4495a8a111ec85eb6d2389a681dd3684","_rev":"1-ff4f5277b70a51510722082cd81d4a25","Location":"Gdansk-Rebiechowo, Poland (EPGD) 54-23N 018-28E 138M","Date":"Dec 24, 2011 - 03:00 PM EST / 2011.12.24 2000 UTC","Wind":"from the WNW (300 degrees) at 10 MPH (9 KT):0","Visibility":"greater than 7 mile(s):0","Sky conditions":"mostly cloudy","Temperature":"37 F (3 C)","Dew Point":"35 F (2 C)","Relative Humidity":"93%","Pressure (altimeter)":"29.91 in. Hg (1013 hPa)","ob":"EPGD 242000Z 30009KT 9999 BKN006 03/02 Q1013","cycle":"20"},
{"_id":"4495a8a111ec85eb6d2389a681dd44b7","_rev":"1-69d5fb37dd0e1cf926b2d656a66ae3b3","Location":"Gdansk-Rebiechowo, Poland (EPGD) 54-23N 018-28E 138M","Date":"Feb 16, 2012 - 09:00 PM EST / 2012.02.17 0200 UTC","Wind":"from the S (190 degrees) at 9 MPH (8 KT) (direction variable):0","Visibility":"greater than 7 mile(s):0","Sky conditions":"mostly cloudy","Temperature":"28 F (-2 C)","Windchill":"19 F (-7 C):1","Dew Point":"23 F (-5 C)","Relative Humidity":"79%","Pressure (altimeter)":"29.83 in. Hg (1010 hPa)","ob":"EPGD 170200Z 19008KT 160V220 9999 BKN023 M02/M05 Q1010 R29/090095","cycle":"2"},
{"_id":"4495a8a111ec85eb6d2389a681dd4c42","_rev":"1-05249255c0c199e362deed2bef37ef9b","Location":"Gdansk-Rebiechowo, Poland (EPGD) 54-23N 018-28E 138M","Date":"Feb 20, 2012 - 01:00 AM EST / 2012.02.20 0600 UTC","Wind":"from the W (260 degrees) at 15 MPH (13 KT):0","Visibility":"greater than 7 mile(s):0","Sky conditions":"mostly cloudy","Temperature":"32 F (0 C)","Windchill":"21 F (-6 C):1","Dew Point":"26 F (-3 C)","Relative Humidity":"80%","Pressure (altimeter)":"30.09 in. Hg (1019 hPa)","ob":"EPGD 200600Z 26013KT 9999 BKN015 00/M03 Q1019 R11/290095","cycle":"6"},
{"_id":"4495a8a111ec85eb6d2389a681dd5bee","_rev":"1-1d644442217cebd6f8f2504e80f82788","Location":"Gdansk-Rebiechowo, Poland (EPGD) 54-23N 018-28E 138M","Date":"Jan 28, 2012 - 11:00 PM EST / 2012.01.29 0400 UTC","Wind":"from the ESE (120 degrees) at 12 MPH (10 KT):0","Visibility":"greater than 7 mile(s):0","Temperature":"8 F (-13 C)","Windchill":"-7 F (-22 C):2","Dew Point":"1 F (-17 C)","Relative Humidity":"71%","Pressure (altimeter)":"30.68 in. Hg (1039 hPa)","ob":"EPGD 290400Z 12010KT CAVOK M13/M17 Q1039","cycle":"4"},
{"_id":"4495a8a111ec85eb6d2389a681dd6396","_rev":"1-7a4f3ae1b00607e68e4c0628450a8f0a","Location":"Gdansk-Rebiechowo, Poland (EPGD) 54-23N 018-28E 138M","Date":"Jan 25, 2012 - 02:00 AM EST / 2012.01.25 0700 UTC","Wind":"from the W (260 degrees) at 3 MPH (3 KT):0","Visibility":"greater than 7 mile(s):0","Sky conditions":"mostly cloudy","Temperature":"24 F (-4 C)","Dew Point":"24 F (-4 C)","Relative Humidity":"100%","Pressure (altimeter)":"30.15 in. Hg (1021 hPa)","ob":"EPGD 250700Z 26003KT 9999 FEW017 BKN048 M04/M04 Q1021 R11/520146","cycle":"7"},
{"_id":"4495a8a111ec85eb6d2389a681dd6f5a","_rev":"1-73c0b62abf2d311825b700ef16e59eae","Location":"Gdansk-Rebiechowo, Poland (EPGD) 54-23N 018-28E 138M","Date":"Dec 27, 2011 - 09:00 PM EST / 2011.12.28 0200 UTC","Wind":"from the W (270 degrees) at 8 MPH (7 KT):0","Visibility":"greater than 7 mile(s):0","Sky conditions":"partly cloudy","Temperature":"37 F (3 C)","Dew Point":"33 F (1 C)","Relative Humidity":"86%","Pressure (altimeter)":"30.36 in. Hg (1028 hPa)","ob":"EPGD 280200Z 27007KT 9999 SCT009 03/01 Q1028","cycle":"2"},
{"_id":"4495a8a111ec85eb6d2389a681dd7733","_rev":"1-415fa8ab8464325adc43edd951f87473","Location":"Gdansk-Rebiechowo, Poland (EPGD) 54-23N 018-28E 138M","Date":"Jan 07, 2012 - 02:00 PM EST / 2012.01.07 1900 UTC","Wind":"from the SSW (200 degrees) at 7 MPH (6 KT) (direction variable):0","Visibility":"greater than 7 mile(s):0","Sky conditions":"mostly cloudy","Temperature":"35 F (2 C)","Windchill":"28 F (-2 C):1","Dew Point":"33 F (1 C)","Relative Humidity":"93%","Pressure (altimeter)":"29.50 in. Hg (0999 hPa)","ob":"EPGD 071900Z 20006KT 150V260 9999 BKN006 02/01 Q0999","cycle":"19"},
{"_id":"4495a8a111ec85eb6d2389a681dd7a0f","_rev":"1-eb3782d1e9c05cc5bf4a1b8f70824b2b","Location":"Gdansk-Rebiechowo, Poland (EPGD) 54-23N 018-28E 138M","Date":"Jan 16, 2012 - 03:00 AM EST / 2012.01.16 0800 UTC","Wind":"from the WNW (290 degrees) at 6 MPH (5 KT):0","Visibility":"greater than 7 mile(s):0","Sky conditions":"mostly cloudy","Temperature":"30 F (-1 C)","Windchill":"23 F (-5 C):1","Dew Point":"26 F (-3 C)","Relative Humidity":"86%","Pressure (altimeter)":"30.15 in. Hg (1021 hPa)","ob":"EPGD 160800Z 29005KT 9999 FEW020 BKN043 M01/M03 Q1021 R11/590345","cycle":"8"},
{"_id":"4495a8a111ec85eb6d2389a681dd7b5b","_rev":"1-572e2c7113b89c20fc5b3a13edec1a9e","Location":"Gdansk-Rebiechowo, Poland (EPGD) 54-23N 018-28E 138M","Date":"Feb 18, 2012 - 01:00 AM EST / 2012.02.18 0600 UTC","Wind":"from the WSW (250 degrees) at 6 MPH (5 KT) (direction variable):0","Visibility":"greater than 7 mile(s):0","Sky conditions":"mostly cloudy","Temperature":"32 F (0 C)","Windchill":"26 F (-3 C):1","Dew Point":"30 F (-1 C)","Relative Humidity":"92%","Pressure (altimeter)":"29.91 in. Hg (1013 hPa)","ob":"EPGD 180600Z 25005KT 220V280 9999 BKN004 M00/M01 Q1013 R11/190095","cycle":"6"},
{"_id":"4495a8a111ec85eb6d2389a681dd87e4","_rev":"1-0b9f29578105d94085db4f7f643b4310","Location":"Gdansk-Rebiechowo, Poland (EPGD) 54-23N 018-28E 138M","Date":"Dec 29, 2011 - 03:00 AM EST / 2011.12.29 0800 UTC","Wind":"from the SW (230 degrees) at 13 MPH (11 KT) (direction variable):0","Visibility":"greater than 7 mile(s):0","Sky conditions":"mostly cloudy","Temperature":"41 F (5 C)","Dew Point":"35 F (2 C)","Relative Humidity":"80%","Pressure (altimeter)":"29.74 in. Hg (1007 hPa)","ob":"EPGD 290800Z 23011KT 180V260 9999 BKN023 05/02 Q1007","cycle":"8"},
{"_id":"4495a8a111ec85eb6d2389a681dd96b3","_rev":"1-3c727e481e10401b29b8efa80e689341","Location":"Gdansk-Rebiechowo, Poland (EPGD) 54-23N 018-28E 138M","Date":"Jan 08, 2012 - 04:00 PM EST / 2012.01.08 2100 UTC","Wind":"from the NW (310 degrees) at 12 MPH (10 KT):0","Visibility":"greater than 7 mile(s):0","Sky conditions":"mostly cloudy","Temperature":"37 F (3 C)","Dew Point":"33 F (1 C)","Relative Humidity":"86%","Pressure (altimeter)":"29.88 in. Hg (1012 hPa)","ob":"EPGD 082100Z 31010KT 9999 BKN009 03/01 Q1012","cycle":"21"},
{"_id":"4495a8a111ec85eb6d2389a681dda633","_rev":"1-f24416ae779bf433c1a6f3cb1332e2b6","Location":"Gdansk-Rebiechowo, Poland (EPGD) 54-23N 018-28E 138M","Date":"Dec 22, 2011 - 06:00 AM EST / 2011.12.22 1100 UTC","Wind":"from the SW (220 degrees) at 3 MPH (3 KT) (direction variable):0","Visibility":"3 mile(s):0","Temperature":"30 F (-1 C)","Dew Point":"23 F (-5 C)","Relative Humidity":"74%","Pressure (altimeter)":"30.12 in. Hg (1020 hPa)","ob":"EPGD 221100Z 22003KT 170V260 6000 NSC M01/M05 Q1020","cycle":"11"},
{"_id":"4495a8a111ec85eb6d2389a681ddac2a","_rev":"1-dbfac9eff8b217072e906473f9d0574c","Location":"Gdansk-Rebiechowo, Poland (EPGD) 54-23N 018-28E 138M","Date":"Dec 31, 2011 - 10:00 PM EST / 2012.01.01 0300 UTC","Wind":"from the S (190 degrees) at 3 MPH (3 KT) (direction variable):0","Visibility":"greater than 7 mile(s):0","Sky conditions":"partly cloudy","Temperature":"28 F (-2 C)","Dew Point":"24 F (-4 C)","Relative Humidity":"86%","Pressure (altimeter)":"29.91 in. Hg (1013 hPa)","ob":"EPGD 010300Z 19003KT 160V220 9999 SCT013 M02/M04 Q1013","cycle":"3"},
{"_id":"4495a8a111ec85eb6d2389a681ddaefb","_rev":"1-e9efee2b13e1711f992533771b83a1fe","Location":"Gdansk-Rebiechowo, Poland (EPGD) 54-23N 018-28E 138M","Date":"Feb 15, 2012 - 09:00 PM EST / 2012.02.16 0200 UTC","Wind":"from the N (350 degrees) at 8 MPH (7 KT):0","Visibility":"greater than 7 mile(s):0","Sky conditions":"mostly cloudy","Temperature":"28 F (-2 C)","Windchill":"19 F (-7 C):1","Dew Point":"21 F (-6 C)","Relative Humidity":"74%","Pressure (altimeter)":"29.74 in. Hg (1007 hPa)","ob":"EPGD 160200Z 35007KT 9999 BKN022 M02/M06 Q1007 R11/490348","cycle":"2"},
{"_id":"4495a8a111ec85eb6d2389a681ddb60a","_rev":"1-677d8694b0711b229bc51b26b63902da","Location":"Gdansk-Rebiechowo, Poland (EPGD) 54-23N 018-28E 138M","Date":"Dec 22, 2011 - 07:00 AM EST / 2011.12.22 1200 UTC","Wind":"from the S (190 degrees) at 5 MPH (4 KT) (direction variable):0","Visibility":"greater than 7 mile(s):0","Temperature":"32 F (0 C)","Windchill":"26 F (-3 C):1","Dew Point":"23 F (-5 C)","Relative Humidity":"69%","Pressure (altimeter)":"30.09 in. Hg (1019 hPa)","ob":"EPGD 221200Z 19004KT 160V240 CAVOK M00/M05 Q1019","cycle":"12"},
{"_id":"4495a8a111ec85eb6d2389a681ddb8ec","_rev":"1-71e70d0312285722e755b64f5d32edd0","Location":"Gdansk-Rebiechowo, Poland (EPGD) 54-23N 018-28E 138M","Date":"Feb 04, 2012 - 10:00 PM EST / 2012.02.05 0300 UTC","Wind":"Calm:0","Visibility":"1 mile(s):0","Weather":"mist","Temperature":"-13 F (-25 C)","Dew Point":"-18 F (-28 C)","Relative Humidity":"76%","Pressure (altimeter)":"30.65 in. Hg (1038 hPa)","ob":"EPGD 050300Z 00000KT 2500 BR NSC M25/M28 Q1038 R11/490136","cycle":"3"},
{"_id":"4495a8a111ec85eb6d2389a681ddc714","_rev":"1-ad86804c11561348cad5edbf1c4c1c90","Location":"Gdansk-Rebiechowo, Poland (EPGD) 54-23N 018-28E 138M","Date":"Feb 17, 2012 - 05:00 PM EST / 2012.02.17 2200 UTC","Wind":"from the WNW (290 degrees) at 8 MPH (7 KT):0","Visibility":"greater than 7 mile(s):0","Sky conditions":"mostly cloudy","Temperature":"33 F (1 C)","Windchill":"26 F (-3 C):1","Dew Point":"32 F (0 C)","Relative Humidity":"93%","Pressure (altimeter)":"29.83 in. Hg (1010 hPa)","ob":"EPGD 172200Z 29007KT 9999 BKN005 01/M00 Q1010 R11/190095","cycle":"22"},
{"_id":"4495a8a111ec85eb6d2389a681ddd630","_rev":"1-8ea69beceb92b44248d0b3f72ed26755","Location":"Gdansk-Rebiechowo, Poland (EPGD) 54-23N 018-28E 138M","Date":"Jan 12, 2012 - 01:00 PM EST / 2012.01.12 1800 UTC","Wind":"from the W (270 degrees) at 30 MPH (26 KT) gusting to 53 MPH (46 KT):0","Visibility":"greater than 7 mile(s):0","Sky conditions":"mostly cloudy","Weather":"light rain showers; Cumulonimbus clouds observed","Temperature":"44 F (7 C)","Dew Point":"39 F (4 C)","Relative Humidity":"81%","Pressure (altimeter)":"29.32 in. Hg (0993 hPa)","ob":"EPGD 121800Z 27026G46KT 9999 -SHRA FEW011CB BKN019 07/04 Q0993","cycle":"18"},
{"_id":"4495a8a111ec85eb6d2389a681dddcbb","_rev":"1-eb242c72385984949449cc1817c3049d","Location":"Gdansk-Rebiechowo, Poland (EPGD) 54-23N 018-28E 138M","Date":"Jan 09, 2012 - 10:00 PM EST / 2012.01.10 0300 UTC","Wind":"from the SE (130 degrees) at 8 MPH (7 KT):0","Visibility":"2 mile(s):0","Sky conditions":"mostly cloudy","Weather":"light snow","Temperature":"30 F (-1 C)","Windchill":"23 F (-5 C):1","Dew Point":"28 F (-2 C)","Relative Humidity":"92%","Pressure (altimeter)":"29.97 in. Hg (1015 hPa)","ob":"EPGD 100300Z 13007KT 3500 -SN BKN003 M01/M02 Q1015 R11/290095","cycle":"3"},
{"_id":"4495a8a111ec85eb6d2389a681dde81c","_rev":"1-2a63f65f514bbdd5075261ee030559ca","Location":"Gdansk-Rebiechowo, Poland (EPGD) 54-23N 018-28E 138M","Date":"Jan 21, 2012 - 01:00 PM EST / 2012.01.21 1800 UTC","Wind":"from the SSE (150 degrees) at 9 MPH (8 KT) (direction variable):0","Visibility":"less than 1 mile:0","Sky conditions":"mostly cloudy","Weather":"snow","Temperature":"32 F (0 C)","Windchill":"24 F (-4 C):1","Dew Point":"30 F (-1 C)","Relative Humidity":"92%","Pressure (altimeter)":"29.35 in. Hg (0994 hPa)","ob":"EPGD 211800Z 15008KT 110V200 1200 R29/1900 SN BKN004 00/M01 Q0994 R11/290095","cycle":"18"},
{"_id":"4495a8a111ec85eb6d2389a681ddf119","_rev":"1-f2965876269c4a98b3573cbf46225bde","Location":"Gdansk-Rebiechowo, Poland (EPGD) 54-23N 018-28E 138M","Date":"Jan 31, 2012 - 11:00 AM EST / 2012.01.31 1600 UTC","Wind":"from the ENE (060 degrees) at 2 MPH (2 KT):0","Visibility":"greater than 7 mile(s):0","Temperature":"17 F (-8 C)","Dew Point":"8 F (-13 C)","Relative Humidity":"67%","Pressure (altimeter)":"30.71 in. Hg (1040 hPa)","ob":"EPGD 311600Z 06002KT CAVOK M08/M13 Q1040 R11/190095","cycle":"16"},
{"_id":"4495a8a111ec85eb6d2389a681ddf212","_rev":"1-b13036c69da05b01be330da7df83d48d","Location":"Gdansk-Rebiechowo, Poland (EPGD) 54-23N 018-28E 138M","Date":"Dec 31, 2011 - 12:00 PM EST / 2011.12.31 1700 UTC","Wind":"from the W (280 degrees) at 2 MPH (2 KT):0","Visibility":"greater than 7 mile(s):0","Temperature":"30 F (-1 C)","Dew Point":"28 F (-2 C)","Relative Humidity":"92%","Pressure (altimeter)":"29.88 in. Hg (1012 hPa)","ob":"EPGD 311700Z 28002KT CAVOK M01/M02 Q1012","cycle":"17"},
{"_id":"4495a8a111ec85eb6d2389a681ddf740","_rev":"1-8042d73f292fc9f5a8ddf5739818dabd","Location":"Gdansk-Rebiechowo, Poland (EPGD) 54-23N 018-28E 138M","Date":"Jan 03, 2012 - 03:00 AM EST / 2012.01.03 0800 UTC","Wind":"from the SW (230 degrees) at 8 MPH (7 KT) (direction variable):0","Visibility":"greater than 7 mile(s):0","Sky conditions":"partly cloudy","Temperature":"39 F (4 C)","Dew Point":"33 F (1 C)","Relative Humidity":"80%","Pressure (altimeter)":"29.91 in. Hg (1013 hPa)","ob":"EPGD 030800Z 23007KT 200V270 9999 SCT017 04/01 Q1013","cycle":"8"},
{"_id":"4495a8a111ec85eb6d2389a681ddf8bd","_rev":"1-7d6625a37f7db2fe085f8a7663c483cb","Location":"Gdansk-Rebiechowo, Poland (EPGD) 54-23N 018-28E 138M","Date":"Dec 25, 2011 - 05:00 PM EST / 2011.12.25 2200 UTC","Wind":"from the SW (230 degrees) at 14 MPH (12 KT) (direction variable):0","Visibility":"greater than 7 mile(s):0","Sky conditions":"mostly cloudy","Temperature":"42 F (6 C)","Dew Point":"39 F (4 C)","Relative Humidity":"86%","Pressure (altimeter)":"30.12 in. Hg (1020 hPa)","ob":"EPGD 252200Z 23012KT 190V260 9999 BKN006 06/04 Q1020","cycle":"22"},
{"_id":"4495a8a111ec85eb6d2389a681ddfab2","_rev":"1-5bf98198d935c3c1ac7f75a510cccd36","Location":"Gdansk-Rebiechowo, Poland (EPGD) 54-23N 018-28E 138M","Date":"Dec 20, 2011 - 06:00 PM EST / 2011.12.20 2300 UTC","Wind":"from the ESE (120 degrees) at 3 MPH (3 KT):0","Visibility":"3 mile(s):0","Sky conditions":"mostly cloudy","Weather":"mist","Temperature":"28 F (-2 C)","Dew Point":"26 F (-3 C)","Relative Humidity":"92%","Pressure (altimeter)":"29.83 in. Hg (1010 hPa)","ob":"EPGD 202300Z 12003KT 5000 BR BKN040 M02/M03 Q1010 R11/190095","cycle":"23"},
{"_id":"4495a8a111ec85eb6d2389a681de0052","_rev":"1-04a72df154558c49f61623a404db3c0b","Location":"Gdansk-Rebiechowo, Poland (EPGD) 54-23N 018-28E 138M","Date":"Feb 18, 2012 - 03:00 AM EST / 2012.02.18 0800 UTC","Wind":"from the W (280 degrees) at 9 MPH (8 KT):0","Visibility":"greater than 7 mile(s):0","Sky conditions":"mostly cloudy","Temperature":"32 F (0 C)","Windchill":"24 F (-4 C):1","Dew Point":"30 F (-1 C)","Relative Humidity":"92%","Pressure (altimeter)":"29.94 in. Hg (1014 hPa)","ob":"EPGD 180800Z 28008KT 9999 BKN005 00/M01 Q1014 R11/190095","cycle":"8"},
{"_id":"4495a8a111ec85eb6d2389a681de0cbb","_rev":"1-cd98848cb6c9c58f159ee4165d7b50f3","Location":"Gdansk-Rebiechowo, Poland (EPGD) 54-23N 018-28E 138M","Date":"Feb 12, 2012 - 08:00 PM EST / 2012.02.13 0100 UTC","Wind":"from the W (260 degrees) at 6 MPH (5 KT):0","Visibility":"3 mile(s):0","Sky conditions":"mostly cloudy","Temperature":"24 F (-4 C)","Windchill":"17 F (-8 C):1","Dew Point":"21 F (-6 C)","Relative Humidity":"85%","Pressure (altimeter)":"30.06 in. Hg (1018 hPa)","ob":"EPGD 130100Z 26005KT 6000 BKN006 M04/M06 Q1018 R29/490233","cycle":"1"},
{"_id":"4495a8a111ec85eb6d2389a681de14a1","_rev":"1-dc694a4a35012590f37e71e602d29373","Location":"Gdansk-Rebiechowo, Poland (EPGD) 54-23N 018-28E 138M","Date":"Jan 20, 2012 - 07:00 PM EST / 2012.01.21 0000 UTC","Wind":"from the NW (310 degrees) at 7 MPH (6 KT):0","Visibility":"greater than 7 mile(s):0","Sky conditions":"mostly cloudy","Temperature":"33 F (1 C)","Windchill":"26 F (-3 C):1","Dew Point":"32 F (0 C)","Relative Humidity":"93%","Pressure (altimeter)":"29.65 in. Hg (1004 hPa)","ob":"EPGD 210000Z 31006KT 9999 BKN004 01/M00 Q1004 R11/190095","cycle":"0"},
{"_id":"4495a8a111ec85eb6d2389a681de1d4d","_rev":"1-7bd183a1baae28d1f874bc2a28dd407a","Location":"Gdansk-Rebiechowo, Poland (EPGD) 54-23N 018-28E 138M","Date":"Jan 03, 2012 - 09:00 PM EST / 2012.01.04 0200 UTC","Wind":"from the SW (230 degrees) at 13 MPH (11 KT) (direction variable):0","Visibility":"greater than 7 mile(s):0","Sky conditions":"partly cloudy","Temperature":"42 F (6 C)","Dew Point":"37 F (3 C)","Relative Humidity":"81%","Pressure (altimeter)":"29.38 in. Hg (0995 hPa)","ob":"EPGD 040200Z 23011KT 190V260 9999 SCT017 06/03 Q0995","cycle":"2"},
{"_id":"4495a8a111ec85eb6d2389a681de1e0f","_rev":"1-4f36c4a3357c3d15a68ad871157cd954","Location":"Gdansk-Rebiechowo, Poland (EPGD) 54-23N 018-28E 138M","Date":"Jan 19, 2012 - 12:00 PM EST / 2012.01.19 1700 UTC","Wind":"from the SSW (200 degrees) at 8 MPH (7 KT) (direction variable):0","Visibility":"3 mile(s):0","Sky conditions":"mostly cloudy","Weather":"light rain; mist","Temperature":"35 F (2 C)","Windchill":"28 F (-2 C):1","Dew Point":"33 F (1 C)","Relative Humidity":"93%","Pressure (altimeter)":"29.56 in. Hg (1001 hPa)","ob":"EPGD 191700Z 20007KT 170V230 5000 -RA BR BKN005 02/01 Q1001 R11/290095","cycle":"17"},
{"_id":"4495a8a111ec85eb6d2389a681de22c7","_rev":"1-6eeac1ecb4b4ea5ab7cd4b89bcab3cc3","Location":"Gdansk-Rebiechowo, Poland (EPGD) 54-23N 018-28E 138M","Date":"Jan 04, 2012 - 07:00 PM EST / 2012.01.05 0000 UTC","Wind":"from the SW (220 degrees) at 14 MPH (12 KT):0","Visibility":"greater than 7 mile(s):0","Sky conditions":"mostly cloudy","Temperature":"37 F (3 C)","Dew Point":"32 F (0 C)","Relative Humidity":"80%","Pressure (altimeter)":"29.35 in. Hg (0994 hPa)","ob":"EPGD 050000Z 22012KT 9999 BKN021 03/M00 Q0994","cycle":"0"},
{"_id":"4495a8a111ec85eb6d2389a681de2c61","_rev":"1-cd49ced9531747474dc02ce1a36c8d7f","Location":"Gdansk-Rebiechowo, Poland (EPGD) 54-23N 018-28E 138M","Date":"Jan 03, 2012 - 10:00 AM EST / 2012.01.03 1500 UTC","Wind":"from the S (180 degrees) at 12 MPH (10 KT) gusting to 24 MPH (21 KT) (direction variable):0","Visibility":"greater than 7 mile(s):0","Sky conditions":"mostly clear","Temperature":"39 F (4 C)","Dew Point":"33 F (1 C)","Relative Humidity":"80%","Pressure (altimeter)":"29.77 in. Hg (1008 hPa)","ob":"EPGD 031500Z 18010G21KT 150V220 9999 FEW017 04/01 Q1008","cycle":"15"},
{"_id":"4495a8a111ec85eb6d2389a681de2ff8","_rev":"1-808350ad429cafdc8c48ec22269baae0","Location":"Gdansk-Rebiechowo, Poland (EPGD) 54-23N 018-28E 138M","Date":"Jan 14, 2012 - 05:00 AM EST / 2012.01.14 1000 UTC","Wind":"from the NW (320 degrees) at 22 MPH (19 KT):0","Visibility":"3 mile(s):0","Sky conditions":"partly cloudy","Weather":"light snow showers; low drifting snow; Towering cumulus clouds observed","Temperature":"32 F (0 C)","Windchill":"19 F (-7 C):1","Dew Point":"26 F (-3 C)","Relative Humidity":"80%","Pressure (altimeter)":"29.77 in. Hg (1008 hPa)","ob":"EPGD 141000Z 32019KT 6000 -SHSN DRSN FEW005 SCT015TCU SCT023 M00/M03 Q1008 R11/590233","cycle":"10"},
{"_id":"4495a8a111ec85eb6d2389a681de37c0","_rev":"1-a915232d20f77c3b8e85dd16e547ccd3","Location":"Gdansk-Rebiechowo, Poland (EPGD) 54-23N 018-28E 138M","Date":"Feb 06, 2012 - 04:00 AM EST / 2012.02.06 0900 UTC","Wind":"Variable at 1 MPH (1 KT):0","Visibility":"1 mile(s):0","Sky conditions":"mostly cloudy","Weather":"light snow; mist","Temperature":"6 F (-14 C)","Dew Point":"1 F (-17 C)","Relative Humidity":"77%","Pressure (altimeter)":"30.65 in. Hg (1038 hPa)","ob":"EPGD 060900Z VRB01KT 2500 -SN BR BKN008 M14/M17 Q1038 R11/490152","cycle":"9"},
{"_id":"4495a8a111ec85eb6d2389a681de4538","_rev":"1-284fcb0405c8448130cdae5fec3141b6","Location":"Gdansk-Rebiechowo, Poland (EPGD) 54-23N 018-28E 138M","Date":"Jan 25, 2012 - 12:00 PM EST / 2012.01.25 1700 UTC","Wind":"from the NW (320 degrees) at 3 MPH (3 KT):0","Visibility":"greater than 7 mile(s):0","Sky conditions":"mostly cloudy","Temperature":"30 F (-1 C)","Dew Point":"26 F (-3 C)","Relative Humidity":"86%","Pressure (altimeter)":"30.21 in. Hg (1023 hPa)","ob":"EPGD 251700Z 32003KT 9999 FEW010 BKN018 M01/M03 Q1023 R11/290095","cycle":"17"},
{"_id":"4495a8a111ec85eb6d2389a681de4662","_rev":"1-ae3e3c8acee7c67bf61e83ef46fa8b6e","Location":"Gdansk-Rebiechowo, Poland (EPGD) 54-23N 018-28E 138M","Date":"Jan 02, 2012 - 11:00 AM EST / 2012.01.02 1600 UTC","Wind":"from the W (270 degrees) at 7 MPH (6 KT):0","Visibility":"greater than 7 mile(s):0","Sky conditions":"partly cloudy","Weather":"light rain showers; Towering cumulus clouds observed","Temperature":"44 F (7 C)","Dew Point":"42 F (6 C)","Relative Humidity":"93%","Pressure (altimeter)":"29.62 in. Hg (1003 hPa)","ob":"EPGD 021600Z 27006KT 9999 -SHRA FEW013TCU SCT015 07/06 Q1003","cycle":"16"},
{"_id":"4495a8a111ec85eb6d2389a681de4b75","_rev":"1-f149a8228bab34190917881c0b081b98","Location":"Gdansk-Rebiechowo, Poland (EPGD) 54-23N 018-28E 138M","Date":"Jan 05, 2012 - 08:00 PM EST / 2012.01.06 0100 UTC","Wind":"from the SSE (160 degrees) at 3 MPH (3 KT) (direction variable):0","Visibility":"greater than 7 mile(s):0","Sky conditions":"mostly cloudy","Weather":"light rain showers","Temperature":"37 F (3 C)","Dew Point":"33 F (1 C)","Relative Humidity":"86%","Pressure (altimeter)":"28.76 in. Hg (0974 hPa)","ob":"EPGD 060100Z 16003KT 110V200 9999 -SHRA BKN007 03/01 Q0974","cycle":"1"},
{"_id":"4495a8a111ec85eb6d2389a681de5a4a","_rev":"1-8675584586e6d7d757f5509cbbb58761","Location":"Gdansk-Rebiechowo, Poland (EPGD) 54-23N 018-28E 138M","Date":"Dec 21, 2011 - 08:00 AM EST / 2011.12.21 1300 UTC","Wind":"from the ESE (110 degrees) at 3 MPH (3 KT):0","Visibility":"3 mile(s):0","Temperature":"28 F (-2 C)","Dew Point":"23 F (-5 C)","Relative Humidity":"79%","Pressure (altimeter)":"29.83 in. Hg (1010 hPa)","ob":"EPGD 211300Z 11003KT 6000 NSC M02/M05 Q1010 R11/190095","cycle":"13"},
{"_id":"4495a8a111ec85eb6d2389a681de656d","_rev":"1-ad67020a28de445ec689076c1da54bc7","Location":"Gdansk-Rebiechowo, Poland (EPGD) 54-23N 018-28E 138M","Date":"Dec 15, 2011 - 08:00 PM EST / 2011.12.16 0100 UTC","Wind":"from the S (190 degrees) at 7 MPH (6 KT) (direction variable):0","Visibility":"greater than 7 mile(s):0","Temperature":"35 F (2 C)","Windchill":"28 F (-2 C):1","Dew Point":"33 F (1 C)","Relative Humidity":"93%","Pressure (altimeter)":"29.59 in. Hg (1002 hPa)","ob":"EPGD 160100Z 19006KT 140V220 CAVOK 02/01 Q1002","cycle":"1"},
{"_id":"4495a8a111ec85eb6d2389a681de71a3","_rev":"1-ccf5193bbab97e116733f132bc93d285","Location":"Gdansk-Rebiechowo, Poland (EPGD) 54-23N 018-28E 138M","Date":"Jan 12, 2012 - 04:00 AM EST / 2012.01.12 0900 UTC","Wind":"from the SW (230 degrees) at 14 MPH (12 KT) (direction variable):0","Visibility":"2 mile(s):0","Sky conditions":"mostly cloudy","Weather":"light rain, drizzle; mist","Temperature":"42 F (6 C)","Dew Point":"41 F (5 C)","Relative Humidity":"93%","Pressure (altimeter)":"29.74 in. Hg (1007 hPa)","ob":"EPGD 120900Z 23012KT 170V260 3500 -RADZ BR BKN006 06/05 Q1007 R11/290095","cycle":"9"},
{"_id":"4495a8a111ec85eb6d2389a681de806a","_rev":"1-aaa304acb53857d82f9d43c6ae32f33f","Location":"Gdansk-Rebiechowo, Poland (EPGD) 54-23N 018-28E 138M","Date":"Feb 12, 2012 - 09:00 PM EST / 2012.02.13 0200 UTC","Wind":"from the W (280 degrees) at 6 MPH (5 KT):0","Visibility":"3 mile(s):0","Sky conditions":"mostly cloudy","Temperature":"24 F (-4 C)","Windchill":"17 F (-8 C):1","Dew Point":"21 F (-6 C)","Relative Humidity":"85%","Pressure (altimeter)":"30.06 in. Hg (1018 hPa)","ob":"EPGD 130200Z 28005KT 6000 BKN005 M04/M06 Q1018 R29/490233","cycle":"2"},
{"_id":"4495a8a111ec85eb6d2389a681de80f2","_rev":"1-1171d1772a57ff62e8c2ba2fd33271a1","Location":"Gdansk-Rebiechowo, Poland (EPGD) 54-23N 018-28E 138M","Date":"Jan 21, 2012 - 03:00 PM EST / 2012.01.21 2000 UTC","Wind":"from the SE (140 degrees) at 15 MPH (13 KT) (direction variable):0","Visibility":"less than 1 mile:0","Sky conditions":"overcast","Weather":"snow","Temperature":"32 F (0 C)","Windchill":"21 F (-6 C):1","Dew Point":"32 F (0 C)","Relative Humidity":"100%","Pressure (altimeter)":"29.23 in. Hg (0990 hPa)","ob":"EPGD 212000Z 14013KT 110V180 0600 R29/1000N SN OVC003 M00/M00 Q0990 R11/590231","cycle":"20"},
{"_id":"4495a8a111ec85eb6d2389a681de8a53","_rev":"1-dbee7e02f5d48c672b33c2ce7c394815","Location":"Gdansk-Rebiechowo, Poland (EPGD) 54-23N 018-28E 138M","Date":"Jan 26, 2012 - 02:00 PM EST / 2012.01.26 1900 UTC","Wind":"from the ESE (110 degrees) at 13 MPH (11 KT):0","Visibility":"4 mile(s):0","Sky conditions":"mostly cloudy","Temperature":"23 F (-5 C)","Windchill":"10 F (-12 C):1","Dew Point":"19 F (-7 C)","Relative Humidity":"85%","Pressure (altimeter)":"30.42 in. Hg (1030 hPa)","ob":"EPGD 261900Z 11011KT 8000 BKN006 M05/M07 Q1030 R11/290095","cycle":"19"},
{"_id":"4495a8a111ec85eb6d2389a681de903b","_rev":"1-19124e933c7849705a0457eb9ce8214a","Location":"Gdansk-Rebiechowo, Poland (EPGD) 54-23N 018-28E 138M","Date":"Jan 08, 2012 - 06:00 AM EST / 2012.01.08 1100 UTC","Wind":"from the WSW (240 degrees) at 5 MPH (4 KT) (direction variable):0","Visibility":"greater than 7 mile(s):0","Sky conditions":"mostly cloudy","Temperature":"41 F (5 C)","Dew Point":"37 F (3 C)","Relative Humidity":"86%","Pressure (altimeter)":"29.68 in. Hg (1005 hPa)","ob":"EPGD 081100Z 24004KT 210V270 9999 BKN011 05/03 Q1005","cycle":"11"},
{"_id":"4495a8a111ec85eb6d2389a681de98f0","_rev":"1-84ffd79b69372173dcd98f239d57c365","Location":"Gdansk-Rebiechowo, Poland (EPGD) 54-23N 018-28E 138M","Date":"Jan 01, 2012 - 06:00 PM EST / 2012.01.01 2300 UTC","Wind":"from the WSW (240 degrees) at 6 MPH (5 KT) (direction variable):0","Visibility":"1 mile(s):0","Sky conditions":"mostly cloudy","Weather":"light drizzle; mist","Temperature":"39 F (4 C)","Dew Point":"37 F (3 C)","Relative Humidity":"93%","Pressure (altimeter)":"29.74 in. Hg (1007 hPa)","ob":"EPGD 012300Z 24005KT 200V280 2500 -DZ BR BKN002 04/03 Q1007","cycle":"23"},
{"_id":"4495a8a111ec85eb6d2389a681dea0f7","_rev":"1-38bb0839e7e100d91705e4161360dc70","Location":"Gdansk-Rebiechowo, Poland (EPGD) 54-23N 018-28E 138M","Date":"Jan 20, 2012 - 08:00 PM EST / 2012.01.21 0100 UTC","Wind":"from the WNW (300 degrees) at 8 MPH (7 KT):0","Visibility":"greater than 7 mile(s):0","Sky conditions":"mostly cloudy","Temperature":"33 F (1 C)","Windchill":"26 F (-3 C):1","Dew Point":"32 F (0 C)","Relative Humidity":"93%","Pressure (altimeter)":"29.68 in. Hg (1005 hPa)","ob":"EPGD 210100Z 30007KT 9999 SCT007 BKN040 01/M00 Q1005 R11/190095","cycle":"1"},
{"_id":"4495a8a111ec85eb6d2389a681dea836","_rev":"1-58513a0d959d070ecf9d05932c3e7372","Location":"Gdansk-Rebiechowo, Poland (EPGD) 54-23N 018-28E 138M","Date":"Jan 29, 2012 - 07:00 AM EST / 2012.01.29 1200 UTC","Wind":"from the ESE (110 degrees) at 10 MPH (9 KT):0","Visibility":"greater than 7 mile(s):0","Temperature":"15 F (-9 C)","Windchill":"3 F (-16 C):1","Dew Point":"5 F (-15 C)","Relative Humidity":"61%","Pressure (altimeter)":"30.77 in. Hg (1042 hPa)","ob":"EPGD 291200Z 11009KT CAVOK M09/M15 Q1042 R11/190095","cycle":"12"},
{"_id":"4495a8a111ec85eb6d2389a681deace4","_rev":"1-ca76ea64eee814ebdebbf0704715c466","Location":"Gdansk-Rebiechowo, Poland (EPGD) 54-23N 018-28E 138M","Date":"Dec 20, 2011 - 01:00 PM EST / 2011.12.20 1800 UTC","Wind":"from the ESE (120 degrees) at 3 MPH (3 KT):0","Visibility":"3 mile(s):0","Sky conditions":"mostly cloudy","Weather":"mist","Temperature":"32 F (0 C)","Dew Point":"30 F (-1 C)","Relative Humidity":"92%","Pressure (altimeter)":"29.85 in. Hg (1011 hPa)","ob":"EPGD 201800Z 12003KT 5000 BR FEW005 BKN048 M00/M01 Q1011 R11/190095","cycle":"18"},
{"_id":"4495a8a111ec85eb6d2389a681deafd8","_rev":"1-72df6ed3a022c8c27360c841c50dcfe5","Location":"Gdansk-Rebiechowo, Poland (EPGD) 54-23N 018-28E 138M","Date":"Jan 21, 2012 - 04:00 AM EST / 2012.01.21 0900 UTC","Wind":"from the SSW (200 degrees) at 3 MPH (3 KT) (direction variable):0","Visibility":"greater than 7 mile(s):0","Sky conditions":"mostly cloudy","Temperature":"33 F (1 C)","Dew Point":"26 F (-3 C)","Relative Humidity":"74%","Pressure (altimeter)":"29.71 in. Hg (1006 hPa)","ob":"EPGD 210900Z 20003KT 170V230 9999 BKN020 01/M03 Q1006 R11/290095","cycle":"9"},
{"_id":"4495a8a111ec85eb6d2389a681deafe1","_rev":"1-6ca9a96613465e00c075b926f6d55f5d","Location":"Gdansk-Rebiechowo, Poland (EPGD) 54-23N 018-28E 138M","Date":"Dec 29, 2011 - 07:00 AM EST / 2011.12.29 1200 UTC","Wind":"from the WSW (240 degrees) at 14 MPH (12 KT) gusting to 25 MPH (22 KT) (direction variable):0","Visibility":"greater than 7 mile(s):0","Sky conditions":"mostly cloudy","Weather":"light rain showers","Temperature":"41 F (5 C)","Dew Point":"35 F (2 C)","Relative Humidity":"80%","Pressure (altimeter)":"29.68 in. Hg (1005 hPa)","ob":"EPGD 291200Z 24012G22KT 210V270 9999 -SHRA BKN021 05/02 Q1005","cycle":"12"},
{"_id":"4495a8a111ec85eb6d2389a681deb05c","_rev":"1-f6d65df96a7813171103cd521a635a90","Location":"Gdansk-Rebiechowo, Poland (EPGD) 54-23N 018-28E 138M","Date":"Dec 17, 2011 - 02:00 AM EST / 2011.12.17 0700 UTC","Wind":"from the SSE (160 degrees) at 6 MPH (5 KT) (direction variable):0","Visibility":"2 mile(s):0","Sky conditions":"mostly cloudy","Weather":"light snow","Temperature":"33 F (1 C)","Windchill":"26 F (-3 C):1","Dew Point":"32 F (0 C)","Relative Humidity":"93%","Pressure (altimeter)":"28.73 in. Hg (0973 hPa)","ob":"EPGD 170700Z 16005KT 120V210 3500 -SN FEW005 BKN009 01/M00 Q0973 R11/290064","cycle":"7"},
{"_id":"4495a8a111ec85eb6d2389a681deb59b","_rev":"1-f3908b67eadbe4c1e9fd06031cec68bd","Location":"Gdansk-Rebiechowo, Poland (EPGD) 54-23N 018-28E 138M","Date":"Dec 16, 2011 - 09:00 AM EST / 2011.12.16 1400 UTC","Wind":"from the ESE (120 degrees) at 14 MPH (12 KT):0","Visibility":"greater than 7 mile(s):0","Temperature":"35 F (2 C)","Windchill":"26 F (-3 C):1","Dew Point":"32 F (0 C)","Relative Humidity":"86%","Pressure (altimeter)":"29.12 in. Hg (0986 hPa)","ob":"EPGD 161400Z 12012KT CAVOK 02/M00 Q0986","cycle":"14"},
{"_id":"4495a8a111ec85eb6d2389a681dec01c","_rev":"1-73de4b197ffc3a36e5da12bee91c7597","Location":"Gdansk-Rebiechowo, Poland (EPGD) 54-23N 018-28E 138M","Date":"Jan 16, 2012 - 11:00 PM EST / 2012.01.17 0400 UTC","Wind":"Calm:0","Visibility":"less than 1 mile:0","Sky conditions":"mostly cloudy","Weather":"mist","Temperature":"28 F (-2 C)","Dew Point":"26 F (-3 C)","Relative Humidity":"92%","Pressure (altimeter)":"30.12 in. Hg (1020 hPa)","ob":"EPGD 170400Z 00000KT 1200 R29/1800 BR FEW004 BKN014 M02/M03 Q1020 R11/290053","cycle":"4"},
{"_id":"4495a8a111ec85eb6d2389a681dec51e","_rev":"1-00684bbafaee05989e2fcbb23c8c54f4","Location":"Gdansk-Rebiechowo, Poland (EPGD) 54-23N 018-28E 138M","Date":"Dec 19, 2011 - 12:00 AM EST / 2011.12.19 0500 UTC","Wind":"from the SW (230 degrees) at 15 MPH (13 KT) gusting to 28 MPH (24 KT):0","Visibility":"greater than 7 mile(s):0","Sky conditions":"mostly cloudy","Temperature":"35 F (2 C)","Windchill":"24 F (-4 C):1","Dew Point":"30 F (-1 C)","Relative Humidity":"80%","Pressure (altimeter)":"29.62 in. Hg (1003 hPa)","ob":"EPGD 190500Z 23013G24KT 9999 BKN013 02/M01 Q1003 R11/290062","cycle":"5"},
{"_id":"4495a8a111ec85eb6d2389a681deca89","_rev":"1-c40a4e0f21fbd94e44f5eb8ddb2e1ea1","Location":"Gdansk-Rebiechowo, Poland (EPGD) 54-23N 018-28E 138M","Date":"Dec 21, 2011 - 04:00 PM EST / 2011.12.21 2100 UTC","Wind":"Calm:0","Visibility":"1 mile(s):0","Sky conditions":"overcast","Weather":"mist","Temperature":"23 F (-5 C)","Dew Point":"21 F (-6 C)","Relative Humidity":"92%","Pressure (altimeter)":"29.97 in. Hg (1015 hPa)","ob":"EPGD 212100Z 00000KT 2000 BR OVC021 M05/M06 Q1015 R11/190095","cycle":"21"},
{"_id":"4495a8a111ec85eb6d2389a681ded0af","_rev":"1-0aa1fb8a89f0390805c41b125e56f57a","Location":"Gdansk-Rebiechowo, Poland (EPGD) 54-23N 018-28E 138M","Date":"Jan 31, 2012 - 02:00 AM EST / 2012.01.31 0700 UTC","Wind":"Calm:0","Visibility":"greater than 7 mile(s):0","Temperature":"0 F (-18 C)","Dew Point":"-5 F (-21 C)","Relative Humidity":"77%","Pressure (altimeter)":"30.71 in. Hg (1040 hPa)","ob":"EPGD 310700Z 00000KT CAVOK M18/M21 Q1040 R11/190095","cycle":"7"},
{"_id":"4495a8a111ec85eb6d2389a681dedb4a","_rev":"1-38fdb50ce7ad10ec552e7e83b110562c","Location":"Gdansk-Rebiechowo, Poland (EPGD) 54-23N 018-28E 138M","Date":"Jan 11, 2012 - 03:00 AM EST / 2012.01.11 0800 UTC","Wind":"from the WSW (250 degrees) at 12 MPH (10 KT):0","Visibility":"4 mile(s):0","Sky conditions":"mostly cloudy","Weather":"light drizzle","Temperature":"39 F (4 C)","Dew Point":"37 F (3 C)","Relative Humidity":"93%","Pressure (altimeter)":"30.09 in. Hg (1019 hPa)","ob":"EPGD 110800Z 25010KT 8000 -DZ BKN007 04/03 Q1019 R11/290095","cycle":"8"},
{"_id":"4495a8a111ec85eb6d2389a681dedc06","_rev":"1-64d8df08ddfa71cb67d9d26f8e60385f","Location":"Gdansk-Rebiechowo, Poland (EPGD) 54-23N 018-28E 138M","Date":"Feb 07, 2012 - 09:00 AM EST / 2012.02.07 1400 UTC","Wind":"from the ENE (060 degrees) at 9 MPH (8 KT) (direction variable):0","Visibility":"greater than 7 mile(s):0","Sky conditions":"mostly cloudy","Temperature":"19 F (-7 C)","Windchill":"8 F (-13 C):1","Dew Point":"12 F (-11 C)","Relative Humidity":"73%","Pressure (altimeter)":"30.74 in. Hg (1041 hPa)","ob":"EPGD 071400Z 06008KT 030V100 9999 FEW007 BKN012 M07/M11 Q1041 R/490238","cycle":"14"},
{"_id":"4495a8a111ec85eb6d2389a681dee111","_rev":"1-5f479eee3e13359d2deb5c6f05905e48","Location":"Gdansk-Rebiechowo, Poland (EPGD) 54-23N 018-28E 138M","Date":"Feb 18, 2012 - 08:00 AM EST / 2012.02.18 1300 UTC","Wind":"from the S (190 degrees) at 7 MPH (6 KT) (direction variable):0","Visibility":"greater than 7 mile(s):0","Sky conditions":"partly cloudy","Temperature":"37 F (3 C)","Dew Point":"30 F (-1 C)","Relative Humidity":"74%","Pressure (altimeter)":"29.88 in. Hg (1012 hPa)","ob":"EPGD 181300Z 19006KT 140V250 9999 SCT014 03/M01 Q1012 R11/190095","cycle":"13"},
{"_id":"4495a8a111ec85eb6d2389a681dee6cc","_rev":"1-333d04fc3e7756d8599d7f25d522bf08","Location":"Gdansk-Rebiechowo, Poland (EPGD) 54-23N 018-28E 138M","Date":"Feb 17, 2012 - 03:00 PM EST / 2012.02.17 2000 UTC","Wind":"from the W (280 degrees) at 13 MPH (11 KT):0","Visibility":"greater than 7 mile(s):0","Sky conditions":"mostly cloudy","Temperature":"33 F (1 C)","Windchill":"23 F (-5 C):1","Dew Point":"30 F (-1 C)","Relative Humidity":"86%","Pressure (altimeter)":"29.80 in. Hg (1009 hPa)","ob":"EPGD 172000Z 28011KT 9999 FEW009 BKN020 01/M01 Q1009 R11/290095","cycle":"20"},
{"_id":"4495a8a111ec85eb6d2389a681dee970","_rev":"1-4eddae75bb4135ff4d4afb24c97b2010","Location":"Gdansk-Rebiechowo, Poland (EPGD) 54-23N 018-28E 138M","Date":"Jan 07, 2012 - 03:00 AM EST / 2012.01.07 0800 UTC","Wind":"from the WSW (240 degrees) at 10 MPH (9 KT):0","Visibility":"greater than 7 mile(s):0","Sky conditions":"mostly cloudy","Temperature":"35 F (2 C)","Windchill":"26 F (-3 C):1","Dew Point":"32 F (0 C)","Relative Humidity":"86%","Pressure (altimeter)":"29.65 in. Hg (1004 hPa)","ob":"EPGD 070800Z 24009KT 9999 BKN007 02/00 Q1004 R11/190095","cycle":"8"},
{"_id":"4495a8a111ec85eb6d2389a681def0cc","_rev":"1-92f2d66164d982c6bd9c8b362f7b199d","Location":"Gdansk-Rebiechowo, Poland (EPGD) 54-23N 018-28E 138M","Date":"Jan 13, 2012 - 12:00 PM EST / 2012.01.13 1700 UTC","Wind":"from the W (280 degrees) at 17 MPH (15 KT):0","Visibility":"less than 1 mile:0","Sky conditions":"mostly cloudy","Weather":"snow showers; Cumulonimbus clouds observed","Temperature":"32 F (0 C)","Windchill":"21 F (-6 C):1","Dew Point":"30 F (-1 C)","Relative Humidity":"92%","Pressure (altimeter)":"29.53 in. Hg (1000 hPa)","ob":"EPGD 131700Z 28015KT 1200 SHSN BKN005CB 00/M01 Q1000","cycle":"17"},
{"_id":"4495a8a111ec85eb6d2389a681def685","_rev":"1-9e44229bfc10942208727bc840b0235f","Location":"Gdansk-Rebiechowo, Poland (EPGD) 54-23N 018-28E 138M","Date":"Feb 18, 2012 - 12:00 AM EST / 2012.02.18 0500 UTC","Wind":"from the W (280 degrees) at 7 MPH (6 KT):0","Visibility":"greater than 7 mile(s):0","Sky conditions":"mostly cloudy","Temperature":"32 F (0 C)","Windchill":"24 F (-4 C):1","Dew Point":"30 F (-1 C)","Relative Humidity":"92%","Pressure (altimeter)":"29.91 in. Hg (1013 hPa)","ob":"EPGD 180500Z 28006KT 9999 BKN003 00/M01 Q1013 R11/190095","cycle":"5"},
{"_id":"4495a8a111ec85eb6d2389a681defff2","_rev":"1-88fae3736efbc176c743c03c77902ac3","Location":"Gdansk-Rebiechowo, Poland (EPGD) 54-23N 018-28E 138M","Date":"Feb 08, 2012 - 04:00 PM EST / 2012.02.08 2100 UTC","Wind":"from the W (270 degrees) at 3 MPH (3 KT):0","Visibility":"1 mile(s):0","Sky conditions":"mostly cloudy","Weather":"light snow; mist","Temperature":"24 F (-4 C)","Dew Point":"23 F (-5 C)","Relative Humidity":"92%","Pressure (altimeter)":"30.47 in. Hg (1032 hPa)","ob":"EPGD 082100Z 27003KT 2500 -SN BR FEW005 BKN010 M04/M05 Q1032 R11/490042","cycle":"21"},
{"_id":"4495a8a111ec85eb6d2389a681df018c","_rev":"1-b638c1f0d7280c6ce602a71e3913897d","Location":"Gdansk-Rebiechowo, Poland (EPGD) 54-23N 018-28E 138M","Date":"Jan 25, 2012 - 09:00 PM EST / 2012.01.26 0200 UTC","Wind":"Variable at 2 MPH (2 KT):0","Visibility":"greater than 7 mile(s):0","Sky conditions":"partly cloudy","Weather":"light snow showers; Towering cumulus clouds observed","Temperature":"28 F (-2 C)","Dew Point":"26 F (-3 C)","Relative Humidity":"92%","Pressure (altimeter)":"30.30 in. Hg (1026 hPa)","ob":"EPGD 260200Z VRB02KT 9999 -SHSN SCT006TCU SCT017 M02/M03 Q1026 R11/290095","cycle":"2"},
{"_id":"4495a8a111ec85eb6d2389a681df0db8","_rev":"1-8b9ed2873b8b357b7aa0fc9369bbbc2c","Location":"Gdansk-Rebiechowo, Poland (EPGD) 54-23N 018-28E 138M","Date":"Feb 13, 2012 - 01:00 PM EST / 2012.02.13 1800 UTC","Wind":"from the SW (230 degrees) at 3 MPH (3 KT) (direction variable):0","Visibility":"greater than 7 mile(s):0","Sky conditions":"mostly cloudy","Temperature":"28 F (-2 C)","Dew Point":"24 F (-4 C)","Relative Humidity":"86%","Pressure (altimeter)":"29.97 in. Hg (1015 hPa)","ob":"EPGD 131800Z 23003KT 200V260 9999 BKN036 M02/M04 Q1015 R11/190095","cycle":"18"},
{"_id":"4495a8a111ec85eb6d2389a681df1378","_rev":"1-537c0c822f0746763acb167b774e5293","Location":"Gdansk-Rebiechowo, Poland (EPGD) 54-23N 018-28E 138M","Date":"Jan 15, 2012 - 07:00 PM EST / 2012.01.16 0000 UTC","Wind":"from the WNW (300 degrees) at 5 MPH (4 KT):0","Visibility":"4 mile(s):0","Sky conditions":"partly cloudy","Weather":"light snow showers; Towering cumulus clouds observed","Temperature":"28 F (-2 C)","Windchill":"23 F (-5 C):1","Dew Point":"26 F (-3 C)","Relative Humidity":"92%","Pressure (altimeter)":"30.15 in. Hg (1021 hPa)","ob":"EPGD 160000Z 30004KT 8000 -SHSN FEW009 SCT016TCU SCT025 M02/M03 Q1021 R11/590142","cycle":"0"},
{"_id":"4495a8a111ec85eb6d2389a681df15bf","_rev":"1-e684fc2ff02ad54f3f43b2dbd451878d","Location":"Gdansk-Rebiechowo, Poland (EPGD) 54-23N 018-28E 138M","Date":"Dec 20, 2011 - 10:00 PM EST / 2011.12.21 0300 UTC","Wind":"from the ESE (120 degrees) at 3 MPH (3 KT) (direction variable):0","Visibility":"less than 1 mile:0","Sky conditions":"obscured","Weather":"freezing fog","Temperature":"23 F (-5 C)","Dew Point":"21 F (-6 C)","Relative Humidity":"92%","Pressure (altimeter)":"29.80 in. Hg (1009 hPa)","ob":"EPGD 210300Z 12003KT 0400 R29/0700V0900 FZFG VV001 M05/M06 Q1009 R11/190095","cycle":"3"},
{"_id":"4495a8a111ec85eb6d2389a681df19db","_rev":"1-f350e654b3068fe461457727f2a72b62","Location":"Gdansk-Rebiechowo, Poland (EPGD) 54-23N 018-28E 138M","Date":"Dec 30, 2011 - 07:00 PM EST / 2011.12.31 0000 UTC","Wind":"from the WSW (250 degrees) at 2 MPH (2 KT):0","Visibility":"greater than 7 mile(s):0","Sky conditions":"overcast","Temperature":"33 F (1 C)","Dew Point":"32 F (0 C)","Relative Humidity":"93%","Pressure (altimeter)":"29.65 in. Hg (1004 hPa)","ob":"EPGD 310000Z 25002KT 9999 OVC004 01/M00 Q1004","cycle":"0"},
{"_id":"4495a8a111ec85eb6d2389a681df273d","_rev":"1-a5aa7995277746857d38716fb8adf949","Location":"Gdansk-Rebiechowo, Poland (EPGD) 54-23N 018-28E 138M","Date":"Jan 29, 2012 - 09:00 PM EST / 2012.01.30 0200 UTC","Wind":"from the E (100 degrees) at 5 MPH (4 KT):0","Visibility":"greater than 7 mile(s):0","Temperature":"3 F (-16 C)","Windchill":"-7 F (-22 C):2","Dew Point":"-4 F (-20 C)","Relative Humidity":"71%","Pressure (altimeter)":"30.77 in. Hg (1042 hPa)","ob":"EPGD 300200Z 10004KT CAVOK M16/M20 Q1042 R11/190095","cycle":"2"},
{"_id":"4495a8a111ec85eb6d2389a681df2a0e","_rev":"1-5c277b01800fd4b6e95365fee2b97c15","Location":"Gdansk-Rebiechowo, Poland (EPGD) 54-23N 018-28E 138M","Date":"Jan 18, 2012 - 02:00 PM EST / 2012.01.18 1900 UTC","Wind":"from the SW (220 degrees) at 8 MPH (7 KT) (direction variable):0","Visibility":"greater than 7 mile(s):0","Sky conditions":"mostly cloudy","Temperature":"32 F (0 C)","Windchill":"24 F (-4 C):1","Dew Point":"28 F (-2 C)","Relative Humidity":"86%","Pressure (altimeter)":"29.97 in. Hg (1015 hPa)","ob":"EPGD 181900Z 22007KT 180V250 9999 BKN011 00/M02 Q1015","cycle":"19"},
{"_id":"4495a8a111ec85eb6d2389a681df310e","_rev":"1-a85cbd08b43be11589550d150f1b6a9e","Location":"Gdansk-Rebiechowo, Poland (EPGD) 54-23N 018-28E 138M","Date":"Feb 19, 2012 - 06:00 AM EST / 2012.02.19 1100 UTC","Wind":"from the W (280 degrees) at 9 MPH (8 KT):0","Visibility":"greater than 7 mile(s):0","Sky conditions":"mostly cloudy","Temperature":"35 F (2 C)","Windchill":"28 F (-2 C):1","Dew Point":"32 F (0 C)","Relative Humidity":"86%","Pressure (altimeter)":"29.65 in. Hg (1004 hPa)","ob":"EPGD 191100Z 28008KT 9999 FEW005 BKN023 02/00 Q1004 R11/290095","cycle":"11"},
{"_id":"4495a8a111ec85eb6d2389a681df3c8e","_rev":"1-b57894f1ab7f2b34bcd0c5133e57d326","Location":"Gdansk-Rebiechowo, Poland (EPGD) 54-23N 018-28E 138M","Date":"Jan 29, 2012 - 05:00 PM EST / 2012.01.29 2200 UTC","Wind":"Calm:0","Visibility":"greater than 7 mile(s):0","Temperature":"6 F (-14 C)","Dew Point":"1 F (-17 C)","Relative Humidity":"77%","Pressure (altimeter)":"30.80 in. Hg (1043 hPa)","ob":"EPGD 292200Z 00000KT CAVOK M14/M17 Q1043 R11/190095","cycle":"22"},
{"_id":"4495a8a111ec85eb6d2389a681df43c1","_rev":"1-10e58b77b4c9e2a06acda0f6670a4cab","Location":"Gdansk-Rebiechowo, Poland (EPGD) 54-23N 018-28E 138M","Date":"Jan 03, 2012 - 08:00 PM EST / 2012.01.04 0100 UTC","Wind":"from the WSW (240 degrees) at 17 MPH (15 KT) gusting to 30 MPH (26 KT) (direction variable):0","Visibility":"greater than 7 mile(s):0","Sky conditions":"partly cloudy","Temperature":"42 F (6 C)","Dew Point":"37 F (3 C)","Relative Humidity":"81%","Pressure (altimeter)":"29.38 in. Hg (0995 hPa)","ob":"EPGD 040100Z 24015G26KT 200V260 9999 SCT024 06/03 Q0995","cycle":"1"},
{"_id":"4495a8a111ec85eb6d2389a681df4673","_rev":"1-57911bc819f3ffaa5a9fb34077fe2b9b","Location":"Gdansk-Rebiechowo, Poland (EPGD) 54-23N 018-28E 138M","Date":"Jan 29, 2012 - 05:00 AM EST / 2012.01.29 1000 UTC","Wind":"from the ESE (120 degrees) at 9 MPH (8 KT):0","Visibility":"greater than 7 mile(s):0","Temperature":"12 F (-11 C)","Windchill":"0 F (-18 C):1","Dew Point":"1 F (-17 C)","Relative Humidity":"61%","Pressure (altimeter)":"30.77 in. Hg (1042 hPa)","ob":"EPGD 291000Z 12008KT CAVOK M11/M17 Q1042 R11/190095","cycle":"10"},
{"_id":"4495a8a111ec85eb6d2389a681df46d0","_rev":"1-bdedeaf5eef4602d3525fdcdd0e4a8a9","Location":"Gdansk-Rebiechowo, Poland (EPGD) 54-23N 018-28E 138M","Date":"Feb 16, 2012 - 04:00 PM EST / 2012.02.16 2100 UTC","Wind":"from the SSW (210 degrees) at 3 MPH (3 KT) (direction variable):0","Visibility":"4 mile(s):0","Sky conditions":"mostly cloudy","Temperature":"28 F (-2 C)","Dew Point":"24 F (-4 C)","Relative Humidity":"86%","Pressure (altimeter)":"29.94 in. Hg (1014 hPa)","ob":"EPGD 162100Z 21003KT 170V250 7000 BKN019 M02/M04 Q1014 R11/090095","cycle":"21"},
{"_id":"4495a8a111ec85eb6d2389a681df48a0","_rev":"1-23c8aa450192ff4a983be48561aa6953","Location":"Gdansk-Rebiechowo, Poland (EPGD) 54-23N 018-28E 138M","Date":"Feb 15, 2012 - 05:00 PM EST / 2012.02.15 2200 UTC","Wind":"from the N (010 degrees) at 8 MPH (7 KT) (direction variable):0","Visibility":"2 mile(s):0","Sky conditions":"mostly cloudy","Weather":"mist","Temperature":"28 F (-2 C)","Windchill":"19 F (-7 C):1","Dew Point":"21 F (-6 C)","Relative Humidity":"74%","Pressure (altimeter)":"29.59 in. Hg (1002 hPa)","ob":"EPGD 152200Z 01007KT 330V040 4000 BR BKN015 M02/M06 Q1002 R11/490339","cycle":"22"},
{"_id":"4495a8a111ec85eb6d2389a681df4c82","_rev":"1-022f1f2d6270f8b616bdcc46c32f5716","Location":"Gdansk-Rebiechowo, Poland (EPGD) 54-23N 018-28E 138M","Date":"Dec 14, 2011 - 05:00 AM EST / 2011.12.14 1000 UTC","Wind":"from the SW (220 degrees) at 12 MPH (10 KT) (direction variable):0","Visibility":"greater than 7 mile(s):0","Temperature":"42 F (6 C)","Dew Point":"35 F (2 C)","Relative Humidity":"75%","Pressure (altimeter)":"29.62 in. Hg (1003 hPa)","ob":"EPGD 141000Z 22010KT 190V250 CAVOK 06/02 Q1003","cycle":"10"},
{"_id":"4495a8a111ec85eb6d2389a681df4d74","_rev":"1-9183db7f89fc8711029760a44cc59969","Location":"Gdansk-Rebiechowo, Poland (EPGD) 54-23N 018-28E 138M","Date":"Jan 23, 2012 - 06:00 PM EST / 2012.01.23 2300 UTC","Wind":"from the NW (320 degrees) at 6 MPH (5 KT):0","Visibility":"2 mile(s):0","Sky conditions":"mostly cloudy","Weather":"light snow showers; Cumulonimbus clouds observed","Temperature":"32 F (0 C)","Windchill":"26 F (-3 C):1","Dew Point":"32 F (0 C)","Relative Humidity":"100%","Pressure (altimeter)":"29.74 in. Hg (1007 hPa)","ob":"EPGD 232300Z 32005KT 4000 -SHSN BKN006 FEW010CB 00/M00 Q1007 RESHSN","cycle":"23"},
{"_id":"4495a8a111ec85eb6d2389a681df4f74","_rev":"1-644992b2305660aa4b17022e12597732","Location":"Gdansk-Rebiechowo, Poland (EPGD) 54-23N 018-28E 138M","Date":"Dec 16, 2011 - 04:00 PM EST / 2011.12.16 2100 UTC","Wind":"from the ESE (120 degrees) at 20 MPH (17 KT) (direction variable):0","Visibility":"less than 1 mile:0","Sky conditions":"mostly cloudy","Weather":"snow; mist","Temperature":"33 F (1 C)","Windchill":"21 F (-6 C):1","Dew Point":"32 F (0 C)","Relative Humidity":"93%","Pressure (altimeter)":"28.73 in. Hg (0973 hPa)","ob":"EPGD 162100Z 12017KT 1600 R29/1300V2000D SN BR BKN004 01/M00 Q0973 R11/690095","cycle":"21"},
{"_id":"4495a8a111ec85eb6d2389a681df5efa","_rev":"1-69fa2ddc3d043eb57d8e528a1745fac0","Location":"Gdansk-Rebiechowo, Poland (EPGD) 54-23N 018-28E 138M","Date":"Feb 13, 2012 - 02:00 AM EST / 2012.02.13 0700 UTC","Wind":"from the W (270 degrees) at 6 MPH (5 KT):0","Visibility":"3 mile(s):0","Sky conditions":"mostly cloudy","Temperature":"26 F (-3 C)","Windchill":"19 F (-7 C):1","Dew Point":"24 F (-4 C)","Relative Humidity":"92%","Pressure (altimeter)":"30.03 in. Hg (1017 hPa)","ob":"EPGD 130700Z 27005KT 6000 FEW013 BKN033 M03/M04 Q1017 R29/490144","cycle":"7"},
{"_id":"4495a8a111ec85eb6d2389a681df62d3","_rev":"1-555d0b11db5378440ef604f281ea9891","Location":"Gdansk-Rebiechowo, Poland (EPGD) 54-23N 018-28E 138M","Date":"Jan 19, 2012 - 12:00 AM EST / 2012.01.19 0500 UTC","Wind":"from the W (270 degrees) at 15 MPH (13 KT):0","Visibility":"greater than 7 mile(s):0","Sky conditions":"mostly cloudy","Temperature":"35 F (2 C)","Windchill":"24 F (-4 C):1","Dew Point":"33 F (1 C)","Relative Humidity":"93%","Pressure (altimeter)":"29.71 in. Hg (1006 hPa)","ob":"EPGD 190500Z 27013KT 9999 BKN011 02/01 Q1006 R11/290095","cycle":"5"},
{"_id":"4495a8a111ec85eb6d2389a681df6634","_rev":"1-be4d985d4a100fa41c382910485bdcb2","Location":"Gdansk-Rebiechowo, Poland (EPGD) 54-23N 018-28E 138M","Date":"Jan 18, 2012 - 07:00 PM EST / 2012.01.19 0000 UTC","Wind":"from the WSW (250 degrees) at 8 MPH (7 KT) (direction variable):0","Visibility":"1 mile(s):0","Sky conditions":"mostly cloudy","Weather":"snow","Temperature":"32 F (0 C)","Windchill":"24 F (-4 C):1","Dew Point":"30 F (-1 C)","Relative Humidity":"92%","Pressure (altimeter)":"29.80 in. Hg (1009 hPa)","ob":"EPGD 190000Z 25007KT 210V270 3000 SN BKN006 M00/M01 Q1009 R11/290095","cycle":"0"},
{"_id":"4495a8a111ec85eb6d2389a681df6c5e","_rev":"1-95a743d4995c2bd5a4351ea5c1f2e5a9","Location":"Gdansk-Rebiechowo, Poland (EPGD) 54-23N 018-28E 138M","Date":"Feb 07, 2012 - 03:00 PM EST / 2012.02.07 2000 UTC","Wind":"from the ENE (070 degrees) at 10 MPH (9 KT):0","Visibility":"greater than 7 mile(s):0","Sky conditions":"overcast","Temperature":"21 F (-6 C)","Windchill":"10 F (-12 C):1","Dew Point":"15 F (-9 C)","Relative Humidity":"79%","Pressure (altimeter)":"30.77 in. Hg (1042 hPa)","ob":"EPGD 072000Z 07009KT 9999 OVC011 M06/M09 Q1042 R11/490138","cycle":"20"},
{"_id":"4495a8a111ec85eb6d2389a681df7538","_rev":"1-27455976a32ec511bebbde148241ed4c","Location":"Gdansk-Rebiechowo, Poland (EPGD) 54-23N 018-28E 138M","Date":"Dec 13, 2011 - 08:00 PM EST / 2011.12.14 0100 UTC","Wind":"from the SSW (210 degrees) at 8 MPH (7 KT) (direction variable):0","Visibility":"greater than 7 mile(s):0","Sky conditions":"mostly cloudy","Temperature":"41 F (5 C)","Dew Point":"37 F (3 C)","Relative Humidity":"86%","Pressure (altimeter)":"29.53 in. Hg (1000 hPa)","ob":"EPGD 140100Z 21007KT 170V250 9999 BKN009 05/03 Q1000","cycle":"1"},
{"_id":"4495a8a111ec85eb6d2389a681df78b2","_rev":"1-15e48f076cbbf538b105cb910834201e","Location":"Gdansk-Rebiechowo, Poland (EPGD) 54-23N 018-28E 138M","Date":"Jan 26, 2012 - 01:00 AM EST / 2012.01.26 0600 UTC","Wind":"from the ESE (120 degrees) at 8 MPH (7 KT):0","Visibility":"less than 1 mile:0","Sky conditions":"obscured","Weather":"freezing fog","Temperature":"28 F (-2 C)","Windchill":"19 F (-7 C):1","Dew Point":"26 F (-3 C)","Relative Humidity":"92%","Pressure (altimeter)":"30.33 in. Hg (1027 hPa)","ob":"EPGD 260600Z 12007KT 0400 R29/0400N FZFG VV002 M02/M03 Q1027 R11/290095","cycle":"6"},
{"_id":"4495a8a111ec85eb6d2389a681df878e","_rev":"1-90fcbb14714ef4bcea6512497585147d","Location":"Gdansk-Rebiechowo, Poland (EPGD) 54-23N 018-28E 138M","Date":"Jan 09, 2012 - 05:00 AM EST / 2012.01.09 1000 UTC","Wind":"from the W (280 degrees) at 10 MPH (9 KT):0","Visibility":"greater than 7 mile(s):0","Sky conditions":"mostly cloudy","Temperature":"32 F (0 C)","Windchill":"23 F (-5 C):1","Dew Point":"28 F (-2 C)","Relative Humidity":"86%","Pressure (altimeter)":"30.09 in. Hg (1019 hPa)","ob":"EPGD 091000Z 28009KT 9999 FEW013 BKN020 00/M02 Q1019 R11/290095","cycle":"10"},
{"_id":"4495a8a111ec85eb6d2389a681df96d3","_rev":"1-a1bc348bdd1aec5bd610a57a4fef6dd5","Location":"Gdansk-Rebiechowo, Poland (EPGD) 54-23N 018-28E 138M","Date":"Feb 01, 2012 - 09:00 PM EST / 2012.02.02 0200 UTC","Wind":"Calm:0","Visibility":"2 mile(s):0","Sky conditions":"mostly cloudy","Weather":"light snow","Temperature":"1 F (-17 C)","Dew Point":"-2 F (-19 C)","Relative Humidity":"84%","Pressure (altimeter)":"30.62 in. Hg (1037 hPa)","ob":"EPGD 020200Z 00000KT 4000 -SN SCT005 BKN008 M17/M19 Q1037 R11/490150","cycle":"2"},
{"_id":"4495a8a111ec85eb6d2389a681dfa28a","_rev":"1-c090176aa38012e99711c3895b1ace3c","Location":"Gdansk-Rebiechowo, Poland (EPGD) 54-23N 018-28E 138M","Date":"Feb 01, 2012 - 04:00 PM EST / 2012.02.01 2100 UTC","Wind":"Calm:0","Visibility":"4 mile(s):0","Sky conditions":"mostly cloudy","Weather":"light snow","Temperature":"8 F (-13 C)","Dew Point":"3 F (-16 C)","Relative Humidity":"78%","Pressure (altimeter)":"30.68 in. Hg (1039 hPa)","ob":"EPGD 012100Z 00000KT 7000 -SN SCT011 BKN025 M13/M16 Q1039 R11/190095","cycle":"21"},
{"_id":"4495a8a111ec85eb6d2389a681dfac12","_rev":"1-a288683e82d0c1e46d481474647e5ac2","Location":"Gdansk-Rebiechowo, Poland (EPGD) 54-23N 018-28E 138M","Date":"Jan 31, 2012 - 04:00 AM EST / 2012.01.31 0900 UTC","Wind":"Calm:0","Visibility":"2 mile(s):0","Weather":"mist","Temperature":"8 F (-13 C)","Dew Point":"3 F (-16 C)","Relative Humidity":"78%","Pressure (altimeter)":"30.74 in. Hg (1041 hPa)","ob":"EPGD 310900Z 00000KT 4000 BR NSC M13/M16 Q1041 R11/190095","cycle":"9"},
{"_id":"4495a8a111ec85eb6d2389a681dfb9da","_rev":"1-1276d0484d834a78398809fbf3b0e296","Location":"Gdansk-Rebiechowo, Poland (EPGD) 54-23N 018-28E 138M","Date":"Dec 22, 2011 - 03:00 AM EST / 2011.12.22 0800 UTC","Wind":"Calm:0","Visibility":"3 mile(s):0","Weather":"mist","Temperature":"23 F (-5 C)","Dew Point":"21 F (-6 C)","Relative Humidity":"92%","Pressure (altimeter)":"30.09 in. Hg (1019 hPa)","ob":"EPGD 220800Z 00000KT 5000 BR NSC M05/M06 Q1019","cycle":"8"},
{"_id":"4495a8a111ec85eb6d2389a681dfc3c5","_rev":"1-edf8649e226235f96fb191c87a630fe3","Location":"Gdansk-Rebiechowo, Poland (EPGD) 54-23N 018-28E 138M","Date":"Dec 13, 2011 - 11:00 AM EST / 2011.12.13 1600 UTC","Wind":"from the S (180 degrees) at 15 MPH (13 KT) (direction variable):0","Visibility":"greater than 7 mile(s):0","Sky conditions":"mostly cloudy","Temperature":"39 F (4 C)","Dew Point":"30 F (-1 C)","Relative Humidity":"69%","Pressure (altimeter)":"29.53 in. Hg (1000 hPa)","ob":"EPGD 131600Z 18013KT 130V240 9999 BKN026 04/M01 Q1000","cycle":"16"},
{"_id":"4495a8a111ec85eb6d2389a681dfd073","_rev":"1-e03ba7a5c6214818ee1ebb5a7aebe1d4","Location":"Gdansk-Rebiechowo, Poland (EPGD) 54-23N 018-28E 138M","Date":"Feb 05, 2012 - 04:00 AM EST / 2012.02.05 0900 UTC","Wind":"Variable at 1 MPH (1 KT):0","Visibility":"1 mile(s):0","Sky conditions":"mostly clear","Weather":"mist","Temperature":"-4 F (-20 C)","Dew Point":"-9 F (-23 C)","Relative Humidity":"76%","Pressure (altimeter)":"30.71 in. Hg (1040 hPa)","ob":"EPGD 050900Z VRB01KT 2500 BR FEW006 M20/M23 Q1040 R11/490162","cycle":"9"},
{"_id":"4495a8a111ec85eb6d2389a681dfd895","_rev":"1-0847d3bd99f8b0669c8f4a0803d99a15","Location":"Gdansk-Rebiechowo, Poland (EPGD) 54-23N 018-28E 138M","Date":"Dec 31, 2011 - 04:00 AM EST / 2011.12.31 0900 UTC","Wind":"from the WNW (290 degrees) at 3 MPH (3 KT):0","Visibility":"greater than 7 mile(s):0","Temperature":"33 F (1 C)","Dew Point":"30 F (-1 C)","Relative Humidity":"86%","Pressure (altimeter)":"29.80 in. Hg (1009 hPa)","ob":"EPGD 310900Z 29003KT CAVOK 01/M01 Q1009","cycle":"9"},
{"_id":"4495a8a111ec85eb6d2389a681dfe48a","_rev":"1-9785996a47e102a9fbd50dd31e952af0","Location":"Gdansk-Rebiechowo, Poland (EPGD) 54-23N 018-28E 138M","Date":"Jan 18, 2012 - 01:00 AM EST / 2012.01.18 0600 UTC","Wind":"from the W (260 degrees) at 6 MPH (5 KT):0","Visibility":"3 mile(s):0","Sky conditions":"mostly cloudy","Temperature":"33 F (1 C)","Windchill":"26 F (-3 C):1","Dew Point":"32 F (0 C)","Relative Humidity":"93%","Pressure (altimeter)":"30.15 in. Hg (1021 hPa)","ob":"EPGD 180600Z 26005KT 6000 BKN006 01/00 Q1021 R11/290095","cycle":"6"},
{"_id":"4495a8a111ec85eb6d2389a681dff341","_rev":"1-7028c679c2c84ad1642528d8ed69d8a1","Location":"Gdansk-Rebiechowo, Poland (EPGD) 54-23N 018-28E 138M","Date":"Dec 31, 2011 - 08:00 PM EST / 2012.01.01 0100 UTC","Wind":"from the SSW (200 degrees) at 3 MPH (3 KT) (direction variable):0","Visibility":"greater than 7 mile(s):0","Sky conditions":"mostly cloudy","Temperature":"30 F (-1 C)","Dew Point":"28 F (-2 C)","Relative Humidity":"92%","Pressure (altimeter)":"29.91 in. Hg (1013 hPa)","ob":"EPGD 010100Z 20003KT 160V240 9999 BKN017 M01/M02 Q1013","cycle":"1"},
{"_id":"4495a8a111ec85eb6d2389a681e002fd","_rev":"1-2857e00b40a2848d8a11be0ac5c8314a","Location":"Gdansk-Rebiechowo, Poland (EPGD) 54-23N 018-28E 138M","Date":"Jan 25, 2012 - 08:00 AM EST / 2012.01.25 1300 UTC","Wind":"from the NW (310 degrees) at 8 MPH (7 KT):0","Visibility":"4 mile(s):0","Sky conditions":"partly cloudy","Weather":"Towering cumulus clouds observed","Temperature":"30 F (-1 C)","Windchill":"23 F (-5 C):1","Dew Point":"28 F (-2 C)","Relative Humidity":"92%","Pressure (altimeter)":"30.18 in. Hg (1022 hPa)","ob":"EPGD 251300Z 31007KT 8000 FEW009 FEW013TCU SCT020 M01/M02 Q1022 R11/290095","cycle":"13"},
{"_id":"4495a8a111ec85eb6d2389a681e00afe","_rev":"1-bfe05ba687bcdf054a1d61e19e9eb022","Location":"Gdansk-Rebiechowo, Poland (EPGD) 54-23N 018-28E 138M","Date":"Dec 18, 2011 - 04:00 PM EST / 2011.12.18 2100 UTC","Wind":"from the WSW (240 degrees) at 14 MPH (12 KT) gusting to 26 MPH (23 KT) (direction variable):0","Visibility":"2 mile(s):0","Sky conditions":"mostly cloudy","Weather":"light snow showers; Cumulonimbus clouds observed","Temperature":"33 F (1 C)","Windchill":"23 F (-5 C):1","Dew Point":"30 F (-1 C)","Relative Humidity":"86%","Pressure (altimeter)":"29.47 in. Hg (0998 hPa)","ob":"EPGD 182100Z 24012G23KT 190V280 4000 -SHSN SCT009CB BKN016 01/M01 Q0998 R11/690061","cycle":"21"},
{"_id":"4495a8a111ec85eb6d2389a681e00ea2","_rev":"1-c973558998af0625df778c32ecbc71fc","Location":"Gdansk-Rebiechowo, Poland (EPGD) 54-23N 018-28E 138M","Date":"Dec 14, 2011 - 09:00 AM EST / 2011.12.14 1400 UTC","Wind":"from the SE (140 degrees) at 6 MPH (5 KT) (direction variable):0","Visibility":"greater than 7 mile(s):0","Temperature":"42 F (6 C)","Dew Point":"35 F (2 C)","Relative Humidity":"75%","Pressure (altimeter)":"29.56 in. Hg (1001 hPa)","ob":"EPGD 141400Z 14005KT 110V180 CAVOK 06/02 Q1001","cycle":"14"},
{"_id":"4495a8a111ec85eb6d2389a681e01273","_rev":"1-354a33ac3bac8f90826e1eafa4d514f2","Location":"Gdansk-Rebiechowo, Poland (EPGD) 54-23N 018-28E 138M","Date":"Feb 10, 2012 - 11:00 AM EST / 2012.02.10 1600 UTC","Wind":"from the NNE (030 degrees) at 6 MPH (5 KT) (direction variable):0","Visibility":"greater than 7 mile(s):0","Sky conditions":"mostly cloudy","Temperature":"15 F (-9 C)","Windchill":"6 F (-14 C):1","Dew Point":"10 F (-12 C)","Relative Humidity":"78%","Pressure (altimeter)":"30.68 in. Hg (1039 hPa)","ob":"EPGD 101600Z 03005KT 350V070 9999 BKN011 M09/M12 Q1039 R29/090095","cycle":"16"},
{"_id":"4495a8a111ec85eb6d2389a681e015b7","_rev":"1-f280d9b95006fb0bebabd2192d303884","Location":"Gdansk-Rebiechowo, Poland (EPGD) 54-23N 018-28E 138M","Date":"Jan 06, 2012 - 06:00 AM EST / 2012.01.06 1100 UTC","Wind":"from the NNW (340 degrees) at 20 MPH (17 KT):0","Visibility":"greater than 7 mile(s):0","Sky conditions":"mostly cloudy","Weather":"light rain showers","Temperature":"37 F (3 C)","Dew Point":"33 F (1 C)","Relative Humidity":"86%","Pressure (altimeter)":"29.41 in. Hg (0996 hPa)","ob":"EPGD 061100Z 34017KT 9999 -SHRA BKN008 03/01 Q0996","cycle":"11"},
{"_id":"4495a8a111ec85eb6d2389a681e01d24","_rev":"1-351d5185699f5e753733f5eccff9b733","Location":"Gdansk-Rebiechowo, Poland (EPGD) 54-23N 018-28E 138M","Date":"Dec 26, 2011 - 09:00 AM EST / 2011.12.26 1400 UTC","Wind":"from the W (270 degrees) at 15 MPH (13 KT):0","Visibility":"greater than 7 mile(s):0","Sky conditions":"mostly cloudy","Temperature":"48 F (9 C)","Dew Point":"46 F (8 C)","Relative Humidity":"93%","Pressure (altimeter)":"30.24 in. Hg (1024 hPa)","ob":"EPGD 261400Z 27013KT 9999 BKN005 09/08 Q1024","cycle":"14"},
{"_id":"4495a8a111ec85eb6d2389a681e027d8","_rev":"1-3d826053266a47b6c58dfdf75ae094fe","Location":"Gdansk-Rebiechowo, Poland (EPGD) 54-23N 018-28E 138M","Date":"Feb 13, 2012 - 10:00 PM EST / 2012.02.14 0300 UTC","Wind":"from the WSW (250 degrees) at 3 MPH (3 KT):0","Visibility":"greater than 7 mile(s):0","Sky conditions":"mostly clear","Temperature":"24 F (-4 C)","Dew Point":"21 F (-6 C)","Relative Humidity":"85%","Pressure (altimeter)":"29.94 in. Hg (1014 hPa)","ob":"EPGD 140300Z 25003KT 9999 FEW019 M04/M06 Q1014 R11/190095","cycle":"3"},
{"_id":"4495a8a111ec85eb6d2389a681e032d7","_rev":"1-fba0995c9be4e56f464f9cbe28f8988a","Location":"Gdansk-Rebiechowo, Poland (EPGD) 54-23N 018-28E 138M","Date":"Dec 21, 2011 - 11:00 AM EST / 2011.12.21 1600 UTC","Wind":"from the E (100 degrees) at 5 MPH (4 KT):0","Visibility":"1 mile(s):0","Weather":"mist","Temperature":"21 F (-6 C)","Windchill":"14 F (-10 C):1","Dew Point":"19 F (-7 C)","Relative Humidity":"92%","Pressure (altimeter)":"29.88 in. Hg (1012 hPa)","ob":"EPGD 211600Z 10004KT 3000 BR NSC M06/M07 Q1012 R11/190095","cycle":"16"},
{"_id":"4495a8a111ec85eb6d2389a681e03774","_rev":"1-03aa6618632a61fba391189323397995","Location":"Gdansk-Rebiechowo, Poland (EPGD) 54-23N 018-28E 138M","Date":"Dec 30, 2011 - 04:00 AM EST / 2011.12.30 0900 UTC","Wind":"Calm:0","Visibility":"greater than 7 mile(s):0","Sky conditions":"mostly cloudy","Temperature":"35 F (2 C)","Dew Point":"33 F (1 C)","Relative Humidity":"93%","Pressure (altimeter)":"29.47 in. Hg (0998 hPa)","ob":"EPGD 300900Z 00000KT 9999 FEW004 BKN007 02/01 Q0998","cycle":"9"},
{"_id":"4495a8a111ec85eb6d2389a681e0405f","_rev":"1-2e5797809ecf9ca5065af0acc0d568fd","Location":"Gdansk-Rebiechowo, Poland (EPGD) 54-23N 018-28E 138M","Date":"Jan 08, 2012 - 05:00 PM EST / 2012.01.08 2200 UTC","Wind":"from the NW (320 degrees) at 13 MPH (11 KT):0","Visibility":"greater than 7 mile(s):0","Sky conditions":"mostly cloudy","Temperature":"37 F (3 C)","Dew Point":"33 F (1 C)","Relative Humidity":"86%","Pressure (altimeter)":"29.88 in. Hg (1012 hPa)","ob":"EPGD 082200Z 32011KT 9999 BKN009 03/01 Q1012","cycle":"22"},
{"_id":"4495a8a111ec85eb6d2389a681e0434f","_rev":"1-f6fbf50731d539add334ff28f7cdc560","Location":"Gdansk-Rebiechowo, Poland (EPGD) 54-23N 018-28E 138M","Date":"Feb 09, 2012 - 04:00 AM EST / 2012.02.09 0900 UTC","Wind":"from the E (080 degrees) at 14 MPH (12 KT):0","Visibility":"3 mile(s):0","Sky conditions":"mostly cloudy","Weather":"light snow; mist","Temperature":"17 F (-8 C)","Windchill":"3 F (-16 C):1","Dew Point":"12 F (-11 C)","Relative Humidity":"78%","Pressure (altimeter)":"30.56 in. Hg (1035 hPa)","ob":"EPGD 090900Z 08012KT 5000 -SN BR FEW006 BKN012 M08/M11 Q1035 R11/490333","cycle":"9"},
{"_id":"4495a8a111ec85eb6d2389a681e04f4c","_rev":"1-b0e53349d4921126f358ae9037e3f519","Location":"Gdansk-Rebiechowo, Poland (EPGD) 54-23N 018-28E 138M","Date":"Jan 22, 2012 - 02:00 PM EST / 2012.01.22 1900 UTC","Wind":"from the WSW (240 degrees) at 6 MPH (5 KT) (direction variable):0","Visibility":"4 mile(s):0","Sky conditions":"mostly cloudy","Weather":"light rain showers","Temperature":"33 F (1 C)","Windchill":"26 F (-3 C):1","Dew Point":"32 F (0 C)","Relative Humidity":"93%","Pressure (altimeter)":"29.29 in. Hg (0992 hPa)","ob":"EPGD 221900Z 24005KT 200V280 8000 -SHRA FEW005 SCT008 BKN016 01/00 Q0992 R11/290066","cycle":"19"},
{"_id":"4495a8a111ec85eb6d2389a681e0539c","_rev":"1-c1560899a1d9e73de2a3c7291668b444","Location":"Gdansk-Rebiechowo, Poland (EPGD) 54-23N 018-28E 138M","Date":"Jan 29, 2012 - 02:00 AM EST / 2012.01.29 0700 UTC","Wind":"from the ESE (120 degrees) at 10 MPH (9 KT):0","Visibility":"greater than 7 mile(s):0","Temperature":"6 F (-14 C)","Windchill":"-7 F (-22 C):2","Dew Point":"0 F (-18 C)","Relative Humidity":"71%","Pressure (altimeter)":"30.71 in. Hg (1040 hPa)","ob":"EPGD 290700Z 12009KT CAVOK M14/M18 Q1040 R11/190095","cycle":"7"},
{"_id":"4495a8a111ec85eb6d2389a681e05402","_rev":"1-3beebc06ed9c6240de3d58d348462352","Location":"Gdansk-Rebiechowo, Poland (EPGD) 54-23N 018-28E 138M","Date":"Jan 04, 2012 - 01:00 AM EST / 2012.01.04 0600 UTC","Wind":"from the SW (230 degrees) at 16 MPH (14 KT) gusting to 30 MPH (26 KT) (direction variable):0","Visibility":"greater than 7 mile(s):0","Sky conditions":"partly cloudy","Temperature":"39 F (4 C)","Dew Point":"32 F (0 C)","Relative Humidity":"75%","Pressure (altimeter)":"29.41 in. Hg (0996 hPa)","ob":"EPGD 040600Z 23014G26KT 190V270 9999 SCT026 04/M00 Q0996","cycle":"6"},
{"_id":"4495a8a111ec85eb6d2389a681e06398","_rev":"1-fa51a5549674e851ee25cd32195d28c2","Location":"Gdansk-Rebiechowo, Poland (EPGD) 54-23N 018-28E 138M","Date":"Feb 18, 2012 - 06:00 AM EST / 2012.02.18 1100 UTC","Wind":"from the SSW (210 degrees) at 3 MPH (3 KT) (direction variable):0","Visibility":"greater than 7 mile(s):0","Sky conditions":"mostly cloudy","Temperature":"35 F (2 C)","Dew Point":"30 F (-1 C)","Relative Humidity":"80%","Pressure (altimeter)":"29.91 in. Hg (1013 hPa)","ob":"EPGD 181100Z 21003KT 180V250 9999 BKN009 02/M01 Q1013 R11/190095","cycle":"11"},
{"_id":"4495a8a111ec85eb6d2389a681e06c7d","_rev":"1-cccfbea7683b1cfa59a35d625b0ec5ab","Location":"Gdansk-Rebiechowo, Poland (EPGD) 54-23N 018-28E 138M","Date":"Dec 31, 2011 - 10:00 AM EST / 2011.12.31 1500 UTC","Wind":"from the W (270 degrees) at 5 MPH (4 KT):0","Visibility":"greater than 7 mile(s):0","Temperature":"33 F (1 C)","Windchill":"28 F (-2 C):1","Dew Point":"26 F (-3 C)","Relative Humidity":"74%","Pressure (altimeter)":"29.85 in. Hg (1011 hPa)","ob":"EPGD 311500Z 27004KT CAVOK 01/M03 Q1011","cycle":"15"},
{"_id":"4495a8a111ec85eb6d2389a681e075a4","_rev":"1-5f867f26195d0b77ffa2777d5b45b325","Location":"Gdansk-Rebiechowo, Poland (EPGD) 54-23N 018-28E 138M","Date":"Dec 15, 2011 - 09:00 AM EST / 2011.12.15 1400 UTC","Wind":"from the S (190 degrees) at 10 MPH (9 KT):0","Visibility":"greater than 7 mile(s):0","Temperature":"37 F (3 C)","Dew Point":"32 F (0 C)","Relative Humidity":"80%","Pressure (altimeter)":"29.65 in. Hg (1004 hPa)","ob":"EPGD 151400Z 19009KT CAVOK 03/M00 Q1004","cycle":"14"},
{"_id":"4495a8a111ec85eb6d2389a681e07766","_rev":"1-0645c1cb0cc82b72879288f2164ff9b4","Location":"Gdansk-Rebiechowo, Poland (EPGD) 54-23N 018-28E 138M","Date":"Jan 25, 2012 - 01:00 AM EST / 2012.01.25 0600 UTC","Wind":"from the W (270 degrees) at 1 MPH (1 KT):0","Visibility":"greater than 7 mile(s):0","Sky conditions":"mostly cloudy","Temperature":"26 F (-3 C)","Dew Point":"24 F (-4 C)","Relative Humidity":"92%","Pressure (altimeter)":"30.15 in. Hg (1021 hPa)","ob":"EPGD 250600Z 27001KT 9999 BKN042 M03/M04 Q1021 R11/520146","cycle":"6"},
{"_id":"4495a8a111ec85eb6d2389a681e082fb","_rev":"1-fdf43837e6c40f660cb6e014cfc8c097","Location":"Gdansk-Rebiechowo, Poland (EPGD) 54-23N 018-28E 138M","Date":"Feb 14, 2012 - 04:00 PM EST / 2012.02.14 2100 UTC","Wind":"from the SSW (200 degrees) at 12 MPH (10 KT) gusting to 25 MPH (22 KT) (direction variable):0","Visibility":"3 mile(s):0","Sky conditions":"mostly cloudy","Weather":"light snow","Temperature":"24 F (-4 C)","Windchill":"12 F (-11 C):1","Dew Point":"21 F (-6 C)","Relative Humidity":"85%","Pressure (altimeter)":"29.47 in. Hg (0998 hPa)","ob":"EPGD 142100Z 20010G22KT 170V230 5000 -SN FEW005 BKN013 M04/M06 Q0998 R11/190095","cycle":"21"},
{"_id":"4495a8a111ec85eb6d2389a681e088ff","_rev":"1-5a21b02459dc16a9f6a43390f92f80db","Location":"Gdansk-Rebiechowo, Poland (EPGD) 54-23N 018-28E 138M","Date":"Feb 04, 2012 - 03:00 AM EST / 2012.02.04 0800 UTC","Wind":"from the SE (140 degrees) at 5 MPH (4 KT) (direction variable):0","Visibility":"less than 1 mile:0","Sky conditions":"partly cloudy","Weather":"snow showers; mist; Towering cumulus clouds observed","Temperature":"8 F (-13 C)","Windchill":"0 F (-18 C):1","Dew Point":"5 F (-15 C)","Relative Humidity":"84%","Pressure (altimeter)":"30.56 in. Hg (1035 hPa)","ob":"EPGD 040800Z 14004KT 110V180 1500 SHSN BR FEW004 SCT015TCU M13/M15 Q1035 R11/490136","cycle":"8"},
{"_id":"4495a8a111ec85eb6d2389a681e097d9","_rev":"1-9e384fe90904e158bc8dc3dd847dd970","Location":"Gdansk-Rebiechowo, Poland (EPGD) 54-23N 018-28E 138M","Date":"Jan 31, 2012 - 06:00 AM EST / 2012.01.31 1100 UTC","Wind":"Calm:0","Visibility":"3 mile(s):0","Weather":"mist","Temperature":"15 F (-9 C)","Dew Point":"6 F (-14 C)","Relative Humidity":"67%","Pressure (altimeter)":"30.71 in. Hg (1040 hPa)","ob":"EPGD 311100Z 00000KT 5000 BR NSC M09/M14 Q1040 R11/190095","cycle":"11"},
{"_id":"4495a8a111ec85eb6d2389a681e09d3e","_rev":"1-6dec29170df1efacc9249260350b8ae3","Location":"Gdansk-Rebiechowo, Poland (EPGD) 54-23N 018-28E 138M","Date":"Jan 15, 2012 - 12:00 PM EST / 2012.01.15 1700 UTC","Wind":"from the NW (320 degrees) at 6 MPH (5 KT):0","Visibility":"3 mile(s):0","Sky conditions":"mostly cloudy","Weather":"light snow showers; Cumulonimbus clouds observed","Temperature":"30 F (-1 C)","Windchill":"23 F (-5 C):1","Dew Point":"28 F (-2 C)","Relative Humidity":"92%","Pressure (altimeter)":"30.12 in. Hg (1020 hPa)","ob":"EPGD 151700Z 32005KT 5000 -SHSN SCT009 BKN030CB M01/M02 Q1020 R11/590142","cycle":"17"},
{"_id":"4495a8a111ec85eb6d2389a681e0a3a3","_rev":"1-7a46f1bfac68f9d63a2597aea4bebd20","Location":"Gdansk-Rebiechowo, Poland (EPGD) 54-23N 018-28E 138M","Date":"Feb 04, 2012 - 04:00 PM EST / 2012.02.04 2100 UTC","Wind":"from the ESE (110 degrees) at 5 MPH (4 KT):0","Visibility":"2 mile(s):0","Sky conditions":"mostly clear","Weather":"mist","Temperature":"0 F (-18 C)","Windchill":"-11 F (-24 C):2","Dew Point":"-5 F (-21 C)","Relative Humidity":"77%","Pressure (altimeter)":"30.65 in. Hg (1038 hPa)","ob":"EPGD 042100Z 11004KT 4000 BR FEW006 M18/M21 Q1038 R11/490136","cycle":"21"},
{"_id":"4495a8a111ec85eb6d2389a681e0b0dc","_rev":"1-75173fdd8bb9e25b8ee90ff0fcbdabc0","Location":"Gdansk-Rebiechowo, Poland (EPGD) 54-23N 018-28E 138M","Date":"Dec 21, 2011 - 02:00 AM EST / 2011.12.21 0700 UTC","Wind":"from the ESE (110 degrees) at 2 MPH (2 KT):0","Visibility":"1 mile(s):0","Weather":"mist","Temperature":"23 F (-5 C)","Dew Point":"21 F (-6 C)","Relative Humidity":"92%","Pressure (altimeter)":"29.80 in. Hg (1009 hPa)","ob":"EPGD 210700Z 11002KT 1700 BR NSC M05/M06 Q1009 R11/190095","cycle":"7"},
{"_id":"4495a8a111ec85eb6d2389a681e0b8a4","_rev":"1-107e8445b7c418ddf4a05ebf9228cdc5","Location":"Gdansk-Rebiechowo, Poland (EPGD) 54-23N 018-28E 138M","Date":"Jan 29, 2012 - 10:00 PM EST / 2012.01.30 0300 UTC","Wind":"from the E (100 degrees) at 7 MPH (6 KT):0","Visibility":"greater than 7 mile(s):0","Temperature":"3 F (-16 C)","Windchill":"-9 F (-23 C):2","Dew Point":"-4 F (-20 C)","Relative Humidity":"71%","Pressure (altimeter)":"30.77 in. Hg (1042 hPa)","ob":"EPGD 300300Z 10006KT CAVOK M16/M20 Q1042 R11/190095","cycle":"3"},
{"_id":"4495a8a111ec85eb6d2389a681e0c48a","_rev":"1-860528be50cd2dce64fc4913d27207fc","Location":"Gdansk-Rebiechowo, Poland (EPGD) 54-23N 018-28E 138M","Date":"Jan 25, 2012 - 06:00 AM EST / 2012.01.25 1100 UTC","Wind":"from the W (280 degrees) at 7 MPH (6 KT):0","Visibility":"greater than 7 mile(s):0","Sky conditions":"mostly clear","Temperature":"30 F (-1 C)","Windchill":"23 F (-5 C):1","Dew Point":"26 F (-3 C)","Relative Humidity":"86%","Pressure (altimeter)":"30.18 in. Hg (1022 hPa)","ob":"EPGD 251100Z 28006KT 9999 FEW009 M01/M03 Q1022 R11/590052","cycle":"11"},
{"_id":"4495a8a111ec85eb6d2389a681e0cf31","_rev":"1-e6b5f817e0bb86e7b32531228cf39e51","Location":"Gdansk-Rebiechowo, Poland (EPGD) 54-23N 018-28E 138M","Date":"Feb 16, 2012 - 01:00 PM EST / 2012.02.16 1800 UTC","Wind":"from the S (170 degrees) at 3 MPH (3 KT):0","Visibility":"greater than 7 mile(s):0","Sky conditions":"mostly cloudy","Temperature":"26 F (-3 C)","Dew Point":"21 F (-6 C)","Relative Humidity":"79%","Pressure (altimeter)":"30.00 in. Hg (1016 hPa)","ob":"EPGD 161800Z 17003KT 9999 BKN017 M03/M06 Q1016 R11/090095","cycle":"18"},
{"_id":"4495a8a111ec85eb6d2389a681e0cf9d","_rev":"1-b2d098aaa0180c18a1b1d3b31af55a21","Location":"Gdansk-Rebiechowo, Poland (EPGD) 54-23N 018-28E 138M","Date":"Jan 13, 2012 - 09:00 PM EST / 2012.01.14 0200 UTC","Wind":"from the NW (320 degrees) at 20 MPH (17 KT):0","Visibility":"2 mile(s):0","Sky conditions":"mostly cloudy","Weather":"snow; low drifting snow","Temperature":"32 F (0 C)","Windchill":"19 F (-7 C):1","Dew Point":"24 F (-4 C)","Relative Humidity":"74%","Pressure (altimeter)":"29.65 in. Hg (1004 hPa)","ob":"EPGD 140200Z 32017KT 4000 SN DRSN FEW009 BKN028 00/M04 Q1004 R11/590195","cycle":"2"},
{"_id":"4495a8a111ec85eb6d2389a681e0df74","_rev":"1-89848c0b92f04be873aa0eca9791a997","Location":"Gdansk-Rebiechowo, Poland (EPGD) 54-23N 018-28E 138M","Date":"Feb 17, 2012 - 08:00 PM EST / 2012.02.18 0100 UTC","Wind":"from the WNW (300 degrees) at 12 MPH (10 KT):0","Visibility":"greater than 7 mile(s):0","Sky conditions":"mostly cloudy","Temperature":"33 F (1 C)","Windchill":"24 F (-4 C):1","Dew Point":"30 F (-1 C)","Relative Humidity":"86%","Pressure (altimeter)":"29.88 in. Hg (1012 hPa)","ob":"EPGD 180100Z 30010KT 9999 BKN006 01/M01 Q1012 R11/190095","cycle":"1"},
{"_id":"4495a8a111ec85eb6d2389a681e0e0a5","_rev":"1-3fd54fd670609fd46e6dcc176a57ce34","Location":"Gdansk-Rebiechowo, Poland (EPGD) 54-23N 018-28E 138M","Date":"Jan 02, 2012 - 04:00 AM EST / 2012.01.02 0900 UTC","Wind":"from the SSW (210 degrees) at 12 MPH (10 KT) gusting to 23 MPH (20 KT) (direction variable):0","Visibility":"greater than 7 mile(s):0","Sky conditions":"mostly cloudy","Temperature":"48 F (9 C)","Dew Point":"46 F (8 C)","Relative Humidity":"93%","Pressure (altimeter)":"29.56 in. Hg (1001 hPa)","ob":"EPGD 020900Z 21010G20KT 170V240 9999 BKN009 09/08 Q1001","cycle":"9"},
{"_id":"4495a8a111ec85eb6d2389a681e0e907","_rev":"1-f548022bc5ad13dc9fc5e0b23246e91c","Location":"Gdansk-Rebiechowo, Poland (EPGD) 54-23N 018-28E 138M","Date":"Jan 27, 2012 - 10:00 AM EST / 2012.01.27 1500 UTC","Wind":"from the ESE (110 degrees) at 10 MPH (9 KT):0","Visibility":"4 mile(s):0","Temperature":"14 F (-10 C)","Windchill":"1 F (-17 C):1","Dew Point":"8 F (-13 C)","Relative Humidity":"78%","Pressure (altimeter)":"30.47 in. Hg (1032 hPa)","ob":"EPGD 271500Z 11009KT 8000 NSC M10/M13 Q1032 R11/190095","cycle":"15"},
{"_id":"4495a8a111ec85eb6d2389a681e0f65f","_rev":"1-428c8f58778740bbcca631eaf073024e","Location":"Gdansk-Rebiechowo, Poland (EPGD) 54-23N 018-28E 138M","Date":"Jan 17, 2012 - 04:00 AM EST / 2012.01.17 0900 UTC","Wind":"from the SE (130 degrees) at 3 MPH (3 KT):0","Visibility":"2 mile(s):0","Sky conditions":"mostly cloudy","Weather":"mist","Temperature":"28 F (-2 C)","Dew Point":"26 F (-3 C)","Relative Humidity":"92%","Pressure (altimeter)":"30.18 in. Hg (1022 hPa)","ob":"EPGD 170900Z 13003KT 3500 BR BKN003 M02/M03 Q1022 R11/290053","cycle":"9"},
{"_id":"4495a8a111ec85eb6d2389a681e0ff0a","_rev":"1-462bac0bb1ba623f5a70c397ac3f8a9b","Location":"Gdansk-Rebiechowo, Poland (EPGD) 54-23N 018-28E 138M","Date":"Dec 15, 2011 - 02:00 AM EST / 2011.12.15 0700 UTC","Wind":"from the SW (230 degrees) at 12 MPH (10 KT) gusting to 24 MPH (21 KT) (direction variable):0","Visibility":"greater than 7 mile(s):0","Sky conditions":"mostly clear","Temperature":"37 F (3 C)","Dew Point":"33 F (1 C)","Relative Humidity":"86%","Pressure (altimeter)":"29.62 in. Hg (1003 hPa)","ob":"EPGD 150700Z 23010G21KT 180V260 9999 FEW012 03/01 Q1003","cycle":"7"},
{"_id":"4495a8a111ec85eb6d2389a681e10537","_rev":"1-a236e29f1b8bf3525b510d294b0930ea","Location":"Gdansk-Rebiechowo, Poland (EPGD) 54-23N 018-28E 138M","Date":"Jan 31, 2012 - 08:00 PM EST / 2012.02.01 0100 UTC","Wind":"from the ESE (110 degrees) at 3 MPH (3 KT):0","Visibility":"greater than 7 mile(s):0","Temperature":"3 F (-16 C)","Dew Point":"-2 F (-19 C)","Relative Humidity":"77%","Pressure (altimeter)":"30.68 in. Hg (1039 hPa)","ob":"EPGD 010100Z 11003KT CAVOK M16/M19 Q1039 R11/190095","cycle":"1"},
{"_id":"4495a8a111ec85eb6d2389a681e10e36","_rev":"1-c0bd44ec93d1dc758099f71b50350b17","Location":"Gdansk-Rebiechowo, Poland (EPGD) 54-23N 018-28E 138M","Date":"Feb 12, 2012 - 05:00 PM EST / 2012.02.12 2200 UTC","Wind":"from the W (270 degrees) at 6 MPH (5 KT) (direction variable):0","Visibility":"3 mile(s):0","Sky conditions":"overcast","Temperature":"23 F (-5 C)","Windchill":"15 F (-9 C):1","Dew Point":"21 F (-6 C)","Relative Humidity":"92%","Pressure (altimeter)":"30.09 in. Hg (1019 hPa)","ob":"EPGD 122200Z 27005KT 230V290 6000 OVC005 M05/M06 Q1019 R29/490233","cycle":"22"},
{"_id":"4495a8a111ec85eb6d2389a681e11666","_rev":"1-7ce62107421fe3bc8a08ed0a6ae00a9c","Location":"Gdansk-Rebiechowo, Poland (EPGD) 54-23N 018-28E 138M","Date":"Jan 07, 2012 - 05:00 PM EST / 2012.01.07 2200 UTC","Wind":"from the WSW (240 degrees) at 7 MPH (6 KT) (direction variable):0","Visibility":"greater than 7 mile(s):0","Sky conditions":"mostly cloudy","Temperature":"35 F (2 C)","Windchill":"28 F (-2 C):1","Dew Point":"33 F (1 C)","Relative Humidity":"93%","Pressure (altimeter)":"29.53 in. Hg (1000 hPa)","ob":"EPGD 072200Z 24006KT 200V270 9999 BKN006 02/01 Q1000","cycle":"22"},
{"_id":"4495a8a111ec85eb6d2389a681e11f15","_rev":"1-9b48f3af3687d2cb373846ee879ee0fc","Location":"Gdansk-Rebiechowo, Poland (EPGD) 54-23N 018-28E 138M","Date":"Feb 07, 2012 - 04:00 PM EST / 2012.02.07 2100 UTC","Wind":"from the SE (140 degrees) at 6 MPH (5 KT) (direction variable):0","Visibility":"greater than 7 mile(s):0","Sky conditions":"overcast","Temperature":"15 F (-9 C)","Windchill":"6 F (-14 C):1","Dew Point":"12 F (-11 C)","Relative Humidity":"85%","Pressure (altimeter)":"30.77 in. Hg (1042 hPa)","ob":"EPGD 072100Z 14005KT 100V170 9999 OVC014 M09/M11 Q1042 R11/490138","cycle":"21"},
{"_id":"4495a8a111ec85eb6d2389a681e124a9","_rev":"1-c1d28ce4fc5dfec50e3c71376be30af3","Location":"Gdansk-Rebiechowo, Poland (EPGD) 54-23N 018-28E 138M","Date":"Feb 16, 2012 - 02:00 PM EST / 2012.02.16 1900 UTC","Wind":"from the S (190 degrees) at 5 MPH (4 KT):0","Visibility":"4 mile(s):0","Sky conditions":"partly cloudy","Temperature":"26 F (-3 C)","Windchill":"19 F (-7 C):1","Dew Point":"23 F (-5 C)","Relative Humidity":"86%","Pressure (altimeter)":"29.97 in. Hg (1015 hPa)","ob":"EPGD 161900Z 19004KT 7000 SCT015 M03/M05 Q1015 R11/090095","cycle":"19"},
{"_id":"4495a8a111ec85eb6d2389a681e12b8e","_rev":"1-03cd0da8423c1140ae68e1c4ecb8c617","Location":"Gdansk-Rebiechowo, Poland (EPGD) 54-23N 018-28E 138M","Date":"Feb 01, 2012 - 12:00 PM EST / 2012.02.01 1700 UTC","Wind":"Calm:0","Visibility":"greater than 7 mile(s):0","Sky conditions":"partly cloudy","Temperature":"6 F (-14 C)","Dew Point":"1 F (-17 C)","Relative Humidity":"77%","Pressure (altimeter)":"30.71 in. Hg (1040 hPa)","ob":"EPGD 011700Z 00000KT 9999 SCT015 M14/M17 Q1040 R11/190095","cycle":"17"},
{"_id":"4495a8a111ec85eb6d2389a681e13645","_rev":"1-fab4d655a9dac4aea37578410a365fbd","Location":"Gdansk-Rebiechowo, Poland (EPGD) 54-23N 018-28E 138M","Date":"Dec 31, 2011 - 07:00 AM EST / 2011.12.31 1200 UTC","Wind":"from the W (280 degrees) at 8 MPH (7 KT):0","Visibility":"greater than 7 mile(s):0","Temperature":"35 F (2 C)","Windchill":"28 F (-2 C):1","Dew Point":"30 F (-1 C)","Relative Humidity":"80%","Pressure (altimeter)":"29.83 in. Hg (1010 hPa)","ob":"EPGD 311200Z 28007KT CAVOK 02/M01 Q1010","cycle":"12"},
{"_id":"4495a8a111ec85eb6d2389a681e13d20","_rev":"1-7d29cdad6a99151ca0fc62c8323ee015","Location":"Gdansk-Rebiechowo, Poland (EPGD) 54-23N 018-28E 138M","Date":"Dec 26, 2011 - 01:00 AM EST / 2011.12.26 0600 UTC","Wind":"from the W (260 degrees) at 13 MPH (11 KT) (direction variable):0","Visibility":"1 mile(s):0","Sky conditions":"mostly cloudy","Weather":"light drizzle; mist","Temperature":"46 F (8 C)","Dew Point":"46 F (8 C)","Relative Humidity":"100%","Pressure (altimeter)":"30.12 in. Hg (1020 hPa)","ob":"EPGD 260600Z 26011KT 230V290 3000 -DZ BR BKN007 08/08 Q1020","cycle":"6"},
{"_id":"4495a8a111ec85eb6d2389a681e13d2d","_rev":"1-3c8ed435883e46468b4f4eda12cc1c4a","Location":"Gdansk-Rebiechowo, Poland (EPGD) 54-23N 018-28E 138M","Date":"Jan 28, 2012 - 09:00 AM EST / 2012.01.28 1400 UTC","Wind":"from the ESE (110 degrees) at 12 MPH (10 KT):0","Visibility":"4 mile(s):0","Sky conditions":"mostly clear","Temperature":"12 F (-11 C)","Windchill":"-2 F (-19 C):1","Dew Point":"6 F (-14 C)","Relative Humidity":"78%","Pressure (altimeter)":"30.56 in. Hg (1035 hPa)","ob":"EPGD 281400Z 11010KT 8000 FEW011 M11/M14 Q1035 R11/190095","cycle":"14"},
{"_id":"4495a8a111ec85eb6d2389a681e14c7c","_rev":"1-78e30b2808fd17841286f05733e68816","Location":"Gdansk-Rebiechowo, Poland (EPGD) 54-23N 018-28E 138M","Date":"Jan 04, 2012 - 06:00 PM EST / 2012.01.04 2300 UTC","Wind":"from the SW (230 degrees) at 14 MPH (12 KT) gusting to 26 MPH (23 KT) (direction variable):0","Visibility":"greater than 7 mile(s):0","Sky conditions":"partly cloudy","Temperature":"37 F (3 C)","Dew Point":"32 F (0 C)","Relative Humidity":"80%","Pressure (altimeter)":"29.41 in. Hg (0996 hPa)","ob":"EPGD 042300Z 23012G23KT 180V260 9999 FEW019 SCT025 03/M00 Q0996","cycle":"23"},
{"_id":"4495a8a111ec85eb6d2389a681e1541a","_rev":"1-f96d43d1058d98385d3813f3863a544c","Location":"Gdansk-Rebiechowo, Poland (EPGD) 54-23N 018-28E 138M","Date":"Jan 26, 2012 - 05:00 AM EST / 2012.01.26 1000 UTC","Wind":"from the SE (130 degrees) at 8 MPH (7 KT):0","Visibility":"1 mile(s):0","Sky conditions":"mostly cloudy","Weather":"mist","Temperature":"26 F (-3 C)","Windchill":"17 F (-8 C):1","Dew Point":"24 F (-4 C)","Relative Humidity":"92%","Pressure (altimeter)":"30.39 in. Hg (1029 hPa)","ob":"EPGD 261000Z 13007KT 2500 BR BKN003 M03/M04 Q1029 R11/290095","cycle":"10"},
{"_id":"4495a8a111ec85eb6d2389a681e157bd","_rev":"1-a1d60317a49b6736347e6144fbf69ee6","Location":"Gdansk-Rebiechowo, Poland (EPGD) 54-23N 018-28E 138M","Date":"Jan 17, 2012 - 10:00 AM EST / 2012.01.17 1500 UTC","Wind":"Calm:0","Visibility":"greater than 7 mile(s):0","Sky conditions":"partly cloudy","Temperature":"26 F (-3 C)","Dew Point":"23 F (-5 C)","Relative Humidity":"86%","Pressure (altimeter)":"30.21 in. Hg (1023 hPa)","ob":"EPGD 171500Z 00000KT 9999 SCT030 M03/M05 Q1023 R11/290095","cycle":"15"},
{"_id":"4495a8a111ec85eb6d2389a681e15d66","_rev":"1-d900a650084194ff9939df548c1ca022","Location":"Gdansk-Rebiechowo, Poland (EPGD) 54-23N 018-28E 138M","Date":"Dec 26, 2011 - 07:00 PM EST / 2011.12.27 0000 UTC","Wind":"from the WSW (250 degrees) at 20 MPH (17 KT) gusting to 33 MPH (29 KT):0","Visibility":"greater than 7 mile(s):0","Sky conditions":"mostly cloudy","Temperature":"50 F (10 C)","Dew Point":"44 F (7 C)","Relative Humidity":"81%","Pressure (altimeter)":"30.24 in. Hg (1024 hPa)","ob":"EPGD 270000Z 25017G29KT 9999 BKN015 10/07 Q1024","cycle":"0"},
{"_id":"4495a8a111ec85eb6d2389a681e165d5","_rev":"1-d1f45a001db3b9a07e82f6ab27cfb367","Location":"Gdansk-Rebiechowo, Poland (EPGD) 54-23N 018-28E 138M","Date":"Feb 15, 2012 - 10:00 PM EST / 2012.02.16 0300 UTC","Wind":"from the N (360 degrees) at 9 MPH (8 KT):0","Visibility":"greater than 7 mile(s):0","Sky conditions":"mostly cloudy","Temperature":"28 F (-2 C)","Windchill":"19 F (-7 C):1","Dew Point":"21 F (-6 C)","Relative Humidity":"74%","Pressure (altimeter)":"29.77 in. Hg (1008 hPa)","ob":"EPGD 160300Z 36008KT 9999 BKN020 M02/M06 Q1008 R11/490348","cycle":"3"},
{"_id":"4495a8a111ec85eb6d2389a681e170b4","_rev":"1-e1d02f3521fd7f564a2d087a86ee4a7f","Location":"Gdansk-Rebiechowo, Poland (EPGD) 54-23N 018-28E 138M","Date":"Jan 02, 2012 - 02:00 PM EST / 2012.01.02 1900 UTC","Wind":"from the W (260 degrees) at 5 MPH (4 KT):0","Visibility":"greater than 7 mile(s):0","Sky conditions":"mostly cloudy","Temperature":"42 F (6 C)","Dew Point":"41 F (5 C)","Relative Humidity":"93%","Pressure (altimeter)":"29.68 in. Hg (1005 hPa)","ob":"EPGD 021900Z 26004KT 9999 FEW011 BKN035 06/05 Q1005","cycle":"19"},
{"_id":"4495a8a111ec85eb6d2389a681e17f66","_rev":"1-cd9e6ac7e98592bcf03cf28414ab01aa","Location":"Gdansk-Rebiechowo, Poland (EPGD) 54-23N 018-28E 138M","Date":"Feb 04, 2012 - 07:00 PM EST / 2012.02.05 0000 UTC","Wind":"Calm:0","Visibility":"2 mile(s):0","Weather":"mist","Temperature":"-7 F (-22 C)","Dew Point":"-11 F (-24 C)","Relative Humidity":"83%","Pressure (altimeter)":"30.65 in. Hg (1038 hPa)","ob":"EPGD 050000Z 00000KT 4000 BR NSC M22/M24 Q1038 R11/490136","cycle":"0"},
{"_id":"4495a8a111ec85eb6d2389a681e18a4e","_rev":"1-53f58b76bd3a9d11215672fb06f2e4d5","Location":"Gdansk-Rebiechowo, Poland (EPGD) 54-23N 018-28E 138M","Date":"Dec 29, 2011 - 07:00 PM EST / 2011.12.30 0000 UTC","Wind":"from the SW (220 degrees) at 12 MPH (10 KT) (direction variable):0","Visibility":"greater than 7 mile(s):0","Sky conditions":"mostly cloudy","Temperature":"37 F (3 C)","Dew Point":"30 F (-1 C)","Relative Humidity":"74%","Pressure (altimeter)":"29.53 in. Hg (1000 hPa)","ob":"EPGD 300000Z 22010KT 190V250 9999 FEW023 BKN046 03/M01 Q1000","cycle":"0"},
{"_id":"4495a8a111ec85eb6d2389a681e19004","_rev":"1-b6d8701d507d8a545c1c7f7e58b4bc72","Location":"Gdansk-Rebiechowo, Poland (EPGD) 54-23N 018-28E 138M","Date":"Dec 19, 2011 - 01:00 AM EST / 2011.12.19 0600 UTC","Wind":"from the SW (230 degrees) at 15 MPH (13 KT) gusting to 28 MPH (24 KT) (direction variable):0","Visibility":"4 mile(s):0","Sky conditions":"mostly cloudy","Weather":"light rain showers; Towering cumulus clouds observed","Temperature":"33 F (1 C)","Windchill":"23 F (-5 C):1","Dew Point":"30 F (-1 C)","Relative Humidity":"86%","Pressure (altimeter)":"29.65 in. Hg (1004 hPa)","ob":"EPGD 190600Z 23013G24KT 200V260 8000 -SHRA FEW005 BKN011 FEW015TCU 01/M01 Q1004 R11/290062","cycle":"6"},
{"_id":"4495a8a111ec85eb6d2389a681e19265","_rev":"1-bbca97e82a15992359fa9c54cca20309","Location":"Gdansk-Rebiechowo, Poland (EPGD) 54-23N 018-28E 138M","Date":"Dec 30, 2011 - 11:00 PM EST / 2011.12.31 0400 UTC","Wind":"from the W (280 degrees) at 5 MPH (4 KT):0","Visibility":"greater than 7 mile(s):0","Sky conditions":"partly cloudy","Temperature":"32 F (0 C)","Windchill":"26 F (-3 C):1","Dew Point":"32 F (0 C)","Relative Humidity":"100%","Pressure (altimeter)":"29.71 in. Hg (1006 hPa)","ob":"EPGD 310400Z 28004KT 9999 SCT005 00/M00 Q1006","cycle":"4"},
{"_id":"4495a8a111ec85eb6d2389a681e1938d","_rev":"1-3a520af7443284a97a9f21c316f0f21f","Location":"Gdansk-Rebiechowo, Poland (EPGD) 54-23N 018-28E 138M","Date":"Jan 22, 2012 - 04:00 AM EST / 2012.01.22 0900 UTC","Wind":"from the SSW (200 degrees) at 8 MPH (7 KT) (direction variable):0","Visibility":"greater than 7 mile(s):0","Sky conditions":"mostly cloudy","Weather":"light snow","Temperature":"33 F (1 C)","Windchill":"26 F (-3 C):1","Dew Point":"33 F (1 C)","Relative Humidity":"100%","Pressure (altimeter)":"29.23 in. Hg (0990 hPa)","ob":"EPGD 220900Z 20007KT 180V240 9999 -SN BKN008 01/01 Q0990 R11/290066","cycle":"9"},
{"_id":"4495a8a111ec85eb6d2389a681e19d13","_rev":"1-15cac7082e367c7a4f84ed83541545aa","Location":"Gdansk-Rebiechowo, Poland (EPGD) 54-23N 018-28E 138M","Date":"Jan 18, 2012 - 01:00 PM EST / 2012.01.18 1800 UTC","Wind":"from the SW (220 degrees) at 6 MPH (5 KT) (direction variable):0","Visibility":"greater than 7 mile(s):0","Sky conditions":"mostly cloudy","Temperature":"33 F (1 C)","Windchill":"26 F (-3 C):1","Dew Point":"28 F (-2 C)","Relative Humidity":"80%","Pressure (altimeter)":"30.00 in. Hg (1016 hPa)","ob":"EPGD 181800Z 22005KT 170V250 9999 BKN012 01/M02 Q1016","cycle":"18"},
{"_id":"4495a8a111ec85eb6d2389a681e1a545","_rev":"1-bb162708e0fd2e1ec44ccfcae52801dc","Location":"Gdansk-Rebiechowo, Poland (EPGD) 54-23N 018-28E 138M","Date":"Feb 14, 2012 - 09:00 PM EST / 2012.02.15 0200 UTC","Wind":"from the S (170 degrees) at 10 MPH (9 KT) (direction variable):0","Visibility":"1 mile(s):0","Sky conditions":"mostly cloudy","Weather":"light snow; mist","Temperature":"24 F (-4 C)","Windchill":"14 F (-10 C):1","Dew Point":"23 F (-5 C)","Relative Humidity":"92%","Pressure (altimeter)":"29.06 in. Hg (0984 hPa)","ob":"EPGD 150200Z 17009KT 140V200 2500 -SN BR SCT005 BKN011 M04/M05 Q0984 R11/590243","cycle":"2"},
{"_id":"4495a8a111ec85eb6d2389a681e1b28b","_rev":"1-586a2325ff8cc02b8377edf1e46e4c40","Location":"Gdansk-Rebiechowo, Poland (EPGD) 54-23N 018-28E 138M","Date":"Jan 21, 2012 - 05:00 PM EST / 2012.01.21 2200 UTC","Wind":"from the SSE (160 degrees) at 9 MPH (8 KT) (direction variable):0","Visibility":"1 mile(s):0","Sky conditions":"overcast","Weather":"light snow","Temperature":"32 F (0 C)","Windchill":"24 F (-4 C):1","Dew Point":"30 F (-1 C)","Relative Humidity":"92%","Pressure (altimeter)":"29.18 in. Hg (0988 hPa)","ob":"EPGD 212200Z 16008KT 110V190 2200 -SN OVC004 M00/M01 Q0988 R11/590314","cycle":"22"},
{"_id":"4495a8a111ec85eb6d2389a681e1b7f3","_rev":"1-d66f5ec64b216af2f55ce78af2d4570f","Location":"Gdansk-Rebiechowo, Poland (EPGD) 54-23N 018-28E 138M","Date":"Dec 17, 2011 - 03:00 PM EST / 2011.12.17 2000 UTC","Wind":"from the W (280 degrees) at 14 MPH (12 KT):0","Visibility":"greater than 7 mile(s):0","Sky conditions":"mostly cloudy","Weather":"light rain","Temperature":"35 F (2 C)","Windchill":"26 F (-3 C):1","Dew Point":"33 F (1 C)","Relative Humidity":"93%","Pressure (altimeter)":"29.09 in. Hg (0985 hPa)","ob":"EPGD 172000Z 28012KT 9999 -RA FEW008 BKN011 02/01 Q0985 R11/290064","cycle":"20"},
{"_id":"4495a8a111ec85eb6d2389a681e1b96f","_rev":"1-ce81b6a9df1e0de5c6b1d80b51c6d384","Location":"Gdansk-Rebiechowo, Poland (EPGD) 54-23N 018-28E 138M","Date":"Jan 24, 2012 - 11:00 PM EST / 2012.01.25 0400 UTC","Wind":"from the NW (320 degrees) at 3 MPH (3 KT) (direction variable):0","Visibility":"1 mile(s):0","Sky conditions":"mostly cloudy","Weather":"snow showers; Towering cumulus clouds observed","Temperature":"26 F (-3 C)","Dew Point":"24 F (-4 C)","Relative Humidity":"92%","Pressure (altimeter)":"30.15 in. Hg (1021 hPa)","ob":"EPGD 250400Z 32003KT 1800 R29/1300V2000 SHSN BKN003 SCT017TCU M03/M04 Q1021 R11/590249","cycle":"4"},
{"_id":"4495a8a111ec85eb6d2389a681e1c416","_rev":"1-83f415985a30f3af6609a786486c5c5b","Location":"Gdansk-Rebiechowo, Poland (EPGD) 54-23N 018-28E 138M","Date":"Dec 28, 2011 - 03:00 AM EST / 2011.12.28 0800 UTC","Wind":"from the WSW (240 degrees) at 9 MPH (8 KT) (direction variable):0","Visibility":"4 mile(s):0","Sky conditions":"mostly cloudy","Temperature":"35 F (2 C)","Windchill":"28 F (-2 C):1","Dew Point":"33 F (1 C)","Relative Humidity":"93%","Pressure (altimeter)":"30.33 in. Hg (1027 hPa)","ob":"EPGD 280800Z 24008KT 210V270 8000 BKN004 02/01 Q1027","cycle":"8"},
{"_id":"4495a8a111ec85eb6d2389a681e1d1df","_rev":"1-ac24f631aecf86790812d5562d13e9ff","Location":"Gdansk-Rebiechowo, Poland (EPGD) 54-23N 018-28E 138M","Date":"Dec 24, 2011 - 07:00 AM EST / 2011.12.24 1200 UTC","Wind":"from the WSW (240 degrees) at 5 MPH (4 KT):0","Visibility":"1 mile(s):0","Sky conditions":"mostly cloudy","Weather":"light drizzle; mist","Temperature":"41 F (5 C)","Dew Point":"39 F (4 C)","Relative Humidity":"93%","Pressure (altimeter)":"29.74 in. Hg (1007 hPa)","ob":"EPGD 241200Z 24004KT 2500 -DZ BR BKN004 05/04 Q1007","cycle":"12"},
{"_id":"4495a8a111ec85eb6d2389a681e1d568","_rev":"1-38c9ae5c0da2e69b7d4b13cfe2c95899","Location":"Gdansk-Rebiechowo, Poland (EPGD) 54-23N 018-28E 138M","Date":"Dec 19, 2011 - 01:00 PM EST / 2011.12.19 1800 UTC","Wind":"from the SW (220 degrees) at 13 MPH (11 KT) (direction variable):0","Visibility":"greater than 7 mile(s):0","Sky conditions":"mostly cloudy","Temperature":"35 F (2 C)","Windchill":"26 F (-3 C):1","Dew Point":"30 F (-1 C)","Relative Humidity":"80%","Pressure (altimeter)":"29.85 in. Hg (1011 hPa)","ob":"EPGD 191800Z 22011KT 180V270 9999 BKN016 BKN046 02/M01 Q1011 R11/290095","cycle":"18"},
{"_id":"4495a8a111ec85eb6d2389a681e1e10c","_rev":"1-696c0b0170aee934353d9a43e9a206e9","Location":"Gdansk-Rebiechowo, Poland (EPGD) 54-23N 018-28E 138M","Date":"Feb 08, 2012 - 01:00 PM EST / 2012.02.08 1800 UTC","Wind":"from the W (280 degrees) at 7 MPH (6 KT):0","Visibility":"2 mile(s):0","Sky conditions":"mostly cloudy","Weather":"light snow","Temperature":"24 F (-4 C)","Windchill":"15 F (-9 C):1","Dew Point":"21 F (-6 C)","Relative Humidity":"85%","Pressure (altimeter)":"30.53 in. Hg (1034 hPa)","ob":"EPGD 081800Z 28006KT 4000 -SN FEW009 BKN011 M04/M06 Q1034 R11/190095","cycle":"18"},
{"_id":"4495a8a111ec85eb6d2389a681e1e1ae","_rev":"1-f465412995acfaf8ab82333c4e2c3723","Location":"Gdansk-Rebiechowo, Poland (EPGD) 54-23N 018-28E 138M","Date":"Jan 14, 2012 - 04:00 AM EST / 2012.01.14 0900 UTC","Wind":"from the NW (320 degrees) at 22 MPH (19 KT) (direction variable):0","Visibility":"less than 1 mile:0","Sky conditions":"partly cloudy","Weather":"heavy snow showers; low drifting snow; Towering cumulus clouds observed","Temperature":"30 F (-1 C)","Windchill":"17 F (-8 C):1","Dew Point":"26 F (-3 C)","Relative Humidity":"86%","Pressure (altimeter)":"29.74 in. Hg (1007 hPa)","ob":"EPGD 140900Z 32019KT 1000 R29/0900V2000 +SHSN DRSN SCT004 SCT011TCU SCT016 M01/M03 Q1007 R11/550233","cycle":"9"},
{"_id":"4495a8a111ec85eb6d2389a681e1e228","_rev":"1-5eda5fc99ecebf969dd0433b22aa1341","Location":"Gdansk-Rebiechowo, Poland (EPGD) 54-23N 018-28E 138M","Date":"Jan 26, 2012 - 02:00 AM EST / 2012.01.26 0700 UTC","Wind":"from the ESE (120 degrees) at 9 MPH (8 KT) (direction variable):0","Visibility":"less than 1 mile:0","Sky conditions":"mostly cloudy","Weather":"light snow showers; mist","Temperature":"26 F (-3 C)","Windchill":"17 F (-8 C):1","Dew Point":"24 F (-4 C)","Relative Humidity":"92%","Pressure (altimeter)":"30.36 in. Hg (1028 hPa)","ob":"EPGD 260700Z 12008KT 0800 R29/1600V2000 -SHSN BR BKN001 M03/M04 Q1028 R11/290095","cycle":"7"},
{"_id":"4495a8a111ec85eb6d2389a681e1f1c0","_rev":"1-3edef9582b4c1321cf4a0da9a44be7fb","Location":"Gdansk-Rebiechowo, Poland (EPGD) 54-23N 018-28E 138M","Date":"Feb 02, 2012 - 03:00 PM EST / 2012.02.02 2000 UTC","Wind":"from the WSW (240 degrees) at 2 MPH (2 KT):0","Visibility":"1 mile(s):0","Weather":"mist","Temperature":"-5 F (-21 C)","Dew Point":"-11 F (-24 C)","Relative Humidity":"76%","Pressure (altimeter)":"30.53 in. Hg (1034 hPa)","ob":"EPGD 022000Z 24002KT 2500 BR NSC M21/M24 Q1034 R11/190095","cycle":"20"},
{"_id":"4495a8a111ec85eb6d2389a681e1f3c1","_rev":"1-1d3d1b810fa5132fa2912e4afdf92302","Location":"Gdansk-Rebiechowo, Poland (EPGD) 54-23N 018-28E 138M","Date":"Dec 27, 2011 - 03:00 AM EST / 2011.12.27 0800 UTC","Wind":"from the W (270 degrees) at 22 MPH (19 KT) gusting to 38 MPH (33 KT):0","Visibility":"greater than 7 mile(s):0","Sky conditions":"mostly cloudy","Temperature":"50 F (10 C)","Dew Point":"44 F (7 C)","Relative Humidity":"81%","Pressure (altimeter)":"30.21 in. Hg (1023 hPa)","ob":"EPGD 270800Z 27019G33KT 9999 BKN016 10/07 Q1023","cycle":"8"},
{"_id":"4495a8a111ec85eb6d2389a681e1fa52","_rev":"1-2979c8243be8d18fb1c964d565b5fd1d","Location":"Gdansk-Rebiechowo, Poland (EPGD) 54-23N 018-28E 138M","Date":"Feb 07, 2012 - 11:00 AM EST / 2012.02.07 1600 UTC","Wind":"from the ENE (060 degrees) at 9 MPH (8 KT) (direction variable):0","Visibility":"4 mile(s):0","Sky conditions":"mostly cloudy","Weather":"light snow","Temperature":"19 F (-7 C)","Windchill":"8 F (-13 C):1","Dew Point":"14 F (-10 C)","Relative Humidity":"79%","Pressure (altimeter)":"30.74 in. Hg (1041 hPa)","ob":"EPGD 071600Z 06008KT 020V090 8000 -SN FEW006 BKN012 M07/M10 Q1041 R/490238","cycle":"16"},
{"_id":"4495a8a111ec85eb6d2389a681e2042f","_rev":"1-02ffb5c860adc762489e04c0629af733","Location":"Gdansk-Rebiechowo, Poland (EPGD) 54-23N 018-28E 138M","Date":"Jan 01, 2012 - 10:00 AM EST / 2012.01.01 1500 UTC","Wind":"from the SSE (160 degrees) at 6 MPH (5 KT) (direction variable):0","Visibility":"2 mile(s):0","Sky conditions":"mostly cloudy","Weather":"light rain; mist","Temperature":"33 F (1 C)","Windchill":"26 F (-3 C):1","Dew Point":"32 F (0 C)","Relative Humidity":"93%","Pressure (altimeter)":"29.74 in. Hg (1007 hPa)","ob":"EPGD 011500Z 16005KT 120V200 4000 -RA BR BKN005 01/M00 Q1007","cycle":"15"},
{"_id":"4495a8a111ec85eb6d2389a681e205f7","_rev":"1-521f33b6b7dbf2199f2371cf0df9ad7c","Location":"Gdansk-Rebiechowo, Poland (EPGD) 54-23N 018-28E 138M","Date":"Jan 28, 2012 - 07:00 PM EST / 2012.01.29 0000 UTC","Wind":"from the ESE (120 degrees) at 7 MPH (6 KT):0","Visibility":"greater than 7 mile(s):0","Temperature":"10 F (-12 C)","Windchill":"0 F (-18 C):1","Dew Point":"5 F (-15 C)","Relative Humidity":"78%","Pressure (altimeter)":"30.65 in. Hg (1038 hPa)","ob":"EPGD 290000Z 12006KT CAVOK M12/M15 Q1038 R11/190095","cycle":"0"},
{"_id":"4495a8a111ec85eb6d2389a681e206e0","_rev":"1-83884b4f136a5f9fe95e0d21213b9d7b","Location":"Gdansk-Rebiechowo, Poland (EPGD) 54-23N 018-28E 138M","Date":"Jan 31, 2012 - 05:00 AM EST / 2012.01.31 1000 UTC","Wind":"Calm:0","Visibility":"2 mile(s):0","Weather":"mist","Temperature":"12 F (-11 C)","Dew Point":"5 F (-15 C)","Relative Humidity":"72%","Pressure (altimeter)":"30.71 in. Hg (1040 hPa)","ob":"EPGD 311000Z 00000KT 4000 BR NSC M11/M15 Q1040 R11/190095","cycle":"10"},
{"_id":"4495a8a111ec85eb6d2389a681e20848","_rev":"1-a686bd7160ea37872def8a691942c059","Location":"Gdansk-Rebiechowo, Poland (EPGD) 54-23N 018-28E 138M","Date":"Jan 16, 2012 - 01:00 AM EST / 2012.01.16 0600 UTC","Wind":"from the WNW (300 degrees) at 7 MPH (6 KT):0","Visibility":"greater than 7 mile(s):0","Sky conditions":"mostly cloudy","Temperature":"28 F (-2 C)","Windchill":"21 F (-6 C):1","Dew Point":"26 F (-3 C)","Relative Humidity":"92%","Pressure (altimeter)":"30.15 in. Hg (1021 hPa)","ob":"EPGD 160600Z 30006KT 9999 FEW013 SCT020 BKN045 M02/M03 Q1021 R11/590345","cycle":"6"},
{"_id":"4495a8a111ec85eb6d2389a681e21065","_rev":"1-0e36fded3bc5bb9fef31c57f52aebbd0","Location":"Gdansk-Rebiechowo, Poland (EPGD) 54-23N 018-28E 138M","Date":"Dec 30, 2011 - 05:00 AM EST / 2011.12.30 1000 UTC","Wind":"from the SW (220 degrees) at 3 MPH (3 KT) (direction variable):0","Visibility":"greater than 7 mile(s):0","Sky conditions":"mostly cloudy","Temperature":"35 F (2 C)","Dew Point":"33 F (1 C)","Relative Humidity":"93%","Pressure (altimeter)":"29.47 in. Hg (0998 hPa)","ob":"EPGD 301000Z 22003KT 160V250 9999 FEW004 BKN007 02/01 Q0998","cycle":"10"},
{"_id":"4495a8a111ec85eb6d2389a681e21a34","_rev":"1-45eee48b6264772ed080e25195d84e7d","Location":"Gdansk-Rebiechowo, Poland (EPGD) 54-23N 018-28E 138M","Date":"Jan 10, 2012 - 09:00 PM EST / 2012.01.11 0200 UTC","Wind":"from the SSW (210 degrees) at 5 MPH (4 KT) (direction variable):0","Visibility":"4 mile(s):0","Sky conditions":"mostly cloudy","Temperature":"35 F (2 C)","Windchill":"30 F (-1 C):1","Dew Point":"35 F (2 C)","Relative Humidity":"100%","Pressure (altimeter)":"30.21 in. Hg (1023 hPa)","ob":"EPGD 110200Z 21004KT 160V250 7000 BKN003 02/02 Q1023 R11/290060","cycle":"2"},
{"_id":"4495a8a111ec85eb6d2389a681e21e44","_rev":"1-18a77b066d2a421403383149da249cd5","Location":"Gdansk-Rebiechowo, Poland (EPGD) 54-23N 018-28E 138M","Date":"Jan 11, 2012 - 08:00 PM EST / 2012.01.12 0100 UTC","Wind":"from the WSW (250 degrees) at 10 MPH (9 KT):0","Visibility":"greater than 7 mile(s):0","Sky conditions":"mostly clear","Temperature":"37 F (3 C)","Dew Point":"33 F (1 C)","Relative Humidity":"86%","Pressure (altimeter)":"30.06 in. Hg (1018 hPa)","ob":"EPGD 120100Z 25009KT 9999 FEW015 03/01 Q1018 R11/290095","cycle":"1"},
{"_id":"4495a8a111ec85eb6d2389a681e22afe","_rev":"1-2af6c7666d55213088e4b101900b4b35","Location":"Gdansk-Rebiechowo, Poland (EPGD) 54-23N 018-28E 138M","Date":"Jan 21, 2012 - 02:00 PM EST / 2012.01.21 1900 UTC","Wind":"from the SE (130 degrees) at 13 MPH (11 KT) (direction variable):0","Visibility":"less than 1 mile:0","Sky conditions":"mostly cloudy","Weather":"snow","Temperature":"32 F (0 C)","Windchill":"23 F (-5 C):1","Dew Point":"32 F (0 C)","Relative Humidity":"100%","Pressure (altimeter)":"29.29 in. Hg (0992 hPa)","ob":"EPGD 211900Z 13011KT 110V170 1100 R29/1600N SN SCT002 BKN004 00/M00 Q0992 R11/290095","cycle":"19"},
{"_id":"4495a8a111ec85eb6d2389a681e22d3b","_rev":"1-bd372d98ea94a480d2a81955c40844eb","Location":"Gdansk-Rebiechowo, Poland (EPGD) 54-23N 018-28E 138M","Date":"Dec 14, 2011 - 11:00 PM EST / 2011.12.15 0400 UTC","Wind":"from the SW (230 degrees) at 10 MPH (9 KT) (direction variable):0","Visibility":"greater than 7 mile(s):0","Sky conditions":"mostly cloudy","Temperature":"39 F (4 C)","Dew Point":"35 F (2 C)","Relative Humidity":"86%","Pressure (altimeter)":"29.56 in. Hg (1001 hPa)","ob":"EPGD 150400Z 23009KT 210V270 9999 BKN011 04/02 Q1001","cycle":"4"},
{"_id":"4495a8a111ec85eb6d2389a681e23bce","_rev":"1-ccb5f4e1d3caffaf507a6fce526939a1","Location":"Gdansk-Rebiechowo, Poland (EPGD) 54-23N 018-28E 138M","Date":"Feb 04, 2012 - 11:00 PM EST / 2012.02.05 0400 UTC","Wind":"from the W (270 degrees) at 2 MPH (2 KT):0","Visibility":"1 mile(s):0","Weather":"mist","Temperature":"-14 F (-26 C)","Dew Point":"-20 F (-29 C)","Relative Humidity":"75%","Pressure (altimeter)":"30.65 in. Hg (1038 hPa)","ob":"EPGD 050400Z 27002KT 2200 BR NSC M26/M29 Q1038 R11/490136","cycle":"4"},
{"_id":"4495a8a111ec85eb6d2389a681e246de","_rev":"1-050c848acaac4958ecec247fb020115b","Location":"Gdansk-Rebiechowo, Poland (EPGD) 54-23N 018-28E 138M","Date":"Feb 05, 2012 - 08:00 AM EST / 2012.02.05 1300 UTC","Wind":"from the SE (130 degrees) at 3 MPH (3 KT) (direction variable):0","Visibility":"greater than 7 mile(s):0","Temperature":"6 F (-14 C)","Dew Point":"-4 F (-20 C)","Relative Humidity":"60%","Pressure (altimeter)":"30.68 in. Hg (1039 hPa)","ob":"EPGD 051300Z 13003KT 100V190 CAVOK M14/M20 Q1039 R11/490162","cycle":"13"},
{"_id":"4495a8a111ec85eb6d2389a681e250a8","_rev":"1-4a9684176f134f58e96a1722afc447c0","Location":"Gdansk-Rebiechowo, Poland (EPGD) 54-23N 018-28E 138M","Date":"Jan 23, 2012 - 01:00 AM EST / 2012.01.23 0600 UTC","Wind":"from the W (270 degrees) at 7 MPH (6 KT):0","Visibility":"greater than 7 mile(s):0","Sky conditions":"mostly cloudy","Temperature":"33 F (1 C)","Windchill":"26 F (-3 C):1","Dew Point":"32 F (0 C)","Relative Humidity":"93%","Pressure (altimeter)":"29.47 in. Hg (0998 hPa)","ob":"EPGD 230600Z 27006KT 9999 FEW006 BKN040 01/M00 Q0998","cycle":"6"},
{"_id":"4495a8a111ec85eb6d2389a681e25cf2","_rev":"1-73041232bc12c8cfabfd13c6d8421f41","Location":"Gdansk-Rebiechowo, Poland (EPGD) 54-23N 018-28E 138M","Date":"Feb 03, 2012 - 06:00 AM EST / 2012.02.03 1100 UTC","Wind":"from the SW (220 degrees) at 7 MPH (6 KT):0","Visibility":"2 mile(s):0","Weather":"haze","Temperature":"8 F (-13 C)","Windchill":"-4 F (-20 C):1","Dew Point":"1 F (-17 C)","Relative Humidity":"71%","Pressure (altimeter)":"30.47 in. Hg (1032 hPa)","ob":"EPGD 031100Z 22006KT 4000 HZ NSC M13/M17 Q1032 R11/190095","cycle":"11"},
{"_id":"4495a8a111ec85eb6d2389a681e269ff","_rev":"1-dc8047378121a698932aa7aebcac4c65","Location":"Gdansk-Rebiechowo, Poland (EPGD) 54-23N 018-28E 138M","Date":"Feb 11, 2012 - 09:00 AM EST / 2012.02.11 1400 UTC","Wind":"from the W (260 degrees) at 5 MPH (4 KT):0","Visibility":"1 mile(s):0","Sky conditions":"mostly cloudy","Weather":"light snow; mist","Temperature":"21 F (-6 C)","Windchill":"14 F (-10 C):1","Dew Point":"17 F (-8 C)","Relative Humidity":"85%","Pressure (altimeter)":"30.53 in. Hg (1034 hPa)","ob":"EPGD 111400Z 26004KT 1700 -SN BR FEW007 BKN009 M06/M08 Q1034 R29/490154","cycle":"14"},
{"_id":"4495a8a111ec85eb6d2389a681e2745e","_rev":"1-de324b30c7f96c63b03adacc5529fdf0","Location":"Gdansk-Rebiechowo, Poland (EPGD) 54-23N 018-28E 138M","Date":"Jan 21, 2012 - 11:00 AM EST / 2012.01.21 1600 UTC","Wind":"from the SSE (160 degrees) at 12 MPH (10 KT) (direction variable):0","Visibility":"2 mile(s):0","Sky conditions":"mostly cloudy","Weather":"light drizzle","Temperature":"33 F (1 C)","Windchill":"24 F (-4 C):1","Dew Point":"30 F (-1 C)","Relative Humidity":"86%","Pressure (altimeter)":"29.44 in. Hg (0997 hPa)","ob":"EPGD 211600Z 16010KT 100V200 4000 -DZ BKN004 01/M01 Q0997 R11/290095","cycle":"16"},
{"_id":"4495a8a111ec85eb6d2389a681e2745f","_rev":"1-630c790cde3593d3ea5168baef2cf87a","Location":"Gdansk-Rebiechowo, Poland (EPGD) 54-23N 018-28E 138M","Date":"Jan 12, 2012 - 12:00 AM EST / 2012.01.12 0500 UTC","Wind":"from the SW (230 degrees) at 9 MPH (8 KT) (direction variable):0","Visibility":"greater than 7 mile(s):0","Sky conditions":"mostly cloudy","Temperature":"41 F (5 C)","Dew Point":"35 F (2 C)","Relative Humidity":"80%","Pressure (altimeter)":"29.91 in. Hg (1013 hPa)","ob":"EPGD 120500Z 23008KT 190V260 9999 BKN026 05/02 Q1013 R11/290095","cycle":"5"},
{"_id":"4495a8a111ec85eb6d2389a681e2796a","_rev":"1-66c4646354292ddb7754d4e95fee28bb","Location":"Gdansk-Rebiechowo, Poland (EPGD) 54-23N 018-28E 138M","Date":"Jan 12, 2012 - 11:00 PM EST / 2012.01.13 0400 UTC","Wind":"from the W (280 degrees) at 17 MPH (15 KT) gusting to 30 MPH (26 KT):0","Visibility":"greater than 7 mile(s):0","Sky conditions":"partly cloudy","Temperature":"35 F (2 C)","Windchill":"24 F (-4 C):1","Dew Point":"30 F (-1 C)","Relative Humidity":"80%","Pressure (altimeter)":"29.53 in. Hg (1000 hPa)","ob":"EPGD 130400Z 28015G26KT 9999 SCT023 02/M01 Q1000","cycle":"4"},
{"_id":"4495a8a111ec85eb6d2389a681e28564","_rev":"1-ae8f7a337a547cd436aa2f490e9e7e6e","Location":"Gdansk-Rebiechowo, Poland (EPGD) 54-23N 018-28E 138M","Date":"Feb 09, 2012 - 02:00 AM EST / 2012.02.09 0700 UTC","Wind":"from the E (090 degrees) at 14 MPH (12 KT):0","Visibility":"3 mile(s):0","Sky conditions":"mostly cloudy","Temperature":"17 F (-8 C)","Windchill":"3 F (-16 C):1","Dew Point":"14 F (-10 C)","Relative Humidity":"85%","Pressure (altimeter)":"30.50 in. Hg (1033 hPa)","ob":"EPGD 090700Z 09012KT 6000 BKN015 M08/M10 Q1033 R11/490333","cycle":"7"},
{"_id":"4495a8a111ec85eb6d2389a681e28fad","_rev":"1-458b49396d0c8cbc2243be22a92c209b","Location":"Gdansk-Rebiechowo, Poland (EPGD) 54-23N 018-28E 138M","Date":"Jan 04, 2012 - 10:00 PM EST / 2012.01.05 0300 UTC","Wind":"from the SSW (210 degrees) at 15 MPH (13 KT) gusting to 26 MPH (23 KT) (direction variable):0","Visibility":"greater than 7 mile(s):0","Sky conditions":"mostly cloudy","Temperature":"39 F (4 C)","Dew Point":"32 F (0 C)","Relative Humidity":"75%","Pressure (altimeter)":"29.21 in. Hg (0989 hPa)","ob":"EPGD 050300Z 21013G23KT 170V270 9999 BKN017 04/M00 Q0989","cycle":"3"},
{"_id":"4495a8a111ec85eb6d2389a681e2984a","_rev":"1-5cb71bc79735ce880d7c3a21687b3228","Location":"Gdansk-Rebiechowo, Poland (EPGD) 54-23N 018-28E 138M","Date":"Feb 06, 2012 - 10:00 AM EST / 2012.02.06 1500 UTC","Wind":"from the E (090 degrees) at 7 MPH (6 KT):0","Visibility":"4 mile(s):0","Sky conditions":"mostly cloudy","Weather":"light snow","Temperature":"12 F (-11 C)","Windchill":"1 F (-17 C):1","Dew Point":"6 F (-14 C)","Relative Humidity":"78%","Pressure (altimeter)":"30.59 in. Hg (1036 hPa)","ob":"EPGD 061500Z 09006KT 7000 -SN BKN007 M11/M14 Q1036 R11/490152","cycle":"15"},
{"_id":"4495a8a111ec85eb6d2389a681e29976","_rev":"1-b7e3f7d7aeba627d2bf85738977ff361","Location":"Gdansk-Rebiechowo, Poland (EPGD) 54-23N 018-28E 138M","Date":"Dec 18, 2011 - 07:00 PM EST / 2011.12.19 0000 UTC","Wind":"from the WSW (240 degrees) at 14 MPH (12 KT) (direction variable):0","Visibility":"greater than 7 mile(s):0","Sky conditions":"mostly cloudy","Temperature":"33 F (1 C)","Windchill":"23 F (-5 C):1","Dew Point":"28 F (-2 C)","Relative Humidity":"80%","Pressure (altimeter)":"29.53 in. Hg (1000 hPa)","ob":"EPGD 190000Z 24012KT 210V280 9999 BKN018 01/M02 Q1000 R11/690061","cycle":"0"},
{"_id":"4495a8a111ec85eb6d2389a681e2a8fc","_rev":"1-2f7762602a4e1d2cf98af993132f1a11","Location":"Gdansk-Rebiechowo, Poland (EPGD) 54-23N 018-28E 138M","Date":"Dec 16, 2011 - 03:00 AM EST / 2011.12.16 0800 UTC","Wind":"from the S (180 degrees) at 6 MPH (5 KT) (direction variable):0","Visibility":"greater than 7 mile(s):0","Temperature":"33 F (1 C)","Windchill":"26 F (-3 C):1","Dew Point":"30 F (-1 C)","Relative Humidity":"86%","Pressure (altimeter)":"29.41 in. Hg (0996 hPa)","ob":"EPGD 160800Z 18005KT 140V230 CAVOK 01/M01 Q0996","cycle":"8"},
{"_id":"4495a8a111ec85eb6d2389a681e2b3b7","_rev":"1-990c50abb8da72751117cb5bc614215f","Location":"Gdansk-Rebiechowo, Poland (EPGD) 54-23N 018-28E 138M","Date":"Jan 09, 2012 - 10:00 AM EST / 2012.01.09 1500 UTC","Wind":"from the W (280 degrees) at 10 MPH (9 KT):0","Visibility":"greater than 7 mile(s):0","Sky conditions":"mostly cloudy","Temperature":"32 F (0 C)","Windchill":"23 F (-5 C):1","Dew Point":"24 F (-4 C)","Relative Humidity":"74%","Pressure (altimeter)":"30.09 in. Hg (1019 hPa)","ob":"EPGD 091500Z 28009KT 9999 FEW015 BKN021 M00/M04 Q1019 R11/290095","cycle":"15"},
{"_id":"4495a8a111ec85eb6d2389a681e2bd9b","_rev":"1-6e1ba352de02ec2336f738f352b71905","Location":"Gdansk-Rebiechowo, Poland (EPGD) 54-23N 018-28E 138M","Date":"Jan 13, 2012 - 01:00 AM EST / 2012.01.13 0600 UTC","Wind":"from the W (280 degrees) at 15 MPH (13 KT):0","Visibility":"greater than 7 mile(s):0","Sky conditions":"mostly clear","Temperature":"35 F (2 C)","Windchill":"24 F (-4 C):1","Dew Point":"28 F (-2 C)","Relative Humidity":"74%","Pressure (altimeter)":"29.50 in. Hg (0999 hPa)","ob":"EPGD 130600Z 28013KT 9999 FEW023 02/M02 Q0999","cycle":"6"},
{"_id":"4495a8a111ec85eb6d2389a681e2ccb3","_rev":"1-99f43b0b0b7ca92d448e9d6bc0c79e96","Location":"Gdansk-Rebiechowo, Poland (EPGD) 54-23N 018-28E 138M","Date":"Jan 23, 2012 - 05:00 AM EST / 2012.01.23 1000 UTC","Wind":"from the W (270 degrees) at 7 MPH (6 KT):0","Visibility":"3 mile(s):0","Sky conditions":"mostly cloudy","Weather":"light snow showers; Towering cumulus clouds observed","Temperature":"33 F (1 C)","Windchill":"26 F (-3 C):1","Dew Point":"32 F (0 C)","Relative Humidity":"93%","Pressure (altimeter)":"29.53 in. Hg (1000 hPa)","ob":"EPGD 231000Z 27006KT 6000 -SHSN BKN006 FEW015TCU 01/00 Q1000","cycle":"10"},
{"_id":"4495a8a111ec85eb6d2389a681e2d430","_rev":"1-6a1c41f28d6d6213661fbcea1ac7c224","Location":"Gdansk-Rebiechowo, Poland (EPGD) 54-23N 018-28E 138M","Date":"Dec 31, 2011 - 06:00 AM EST / 2011.12.31 1100 UTC","Wind":"from the W (280 degrees) at 5 MPH (4 KT):0","Visibility":"greater than 7 mile(s):0","Temperature":"35 F (2 C)","Windchill":"30 F (-1 C):1","Dew Point":"30 F (-1 C)","Relative Humidity":"80%","Pressure (altimeter)":"29.80 in. Hg (1009 hPa)","ob":"EPGD 311100Z 28004KT CAVOK 02/M01 Q1009","cycle":"11"},
{"_id":"4495a8a111ec85eb6d2389a681e2e27b","_rev":"1-9be182f62cc318d3a855b458e2fa8678","Location":"Gdansk-Rebiechowo, Poland (EPGD) 54-23N 018-28E 138M","Date":"Feb 01, 2012 - 10:00 AM EST / 2012.02.01 1500 UTC","Wind":"from the ENE (070 degrees) at 6 MPH (5 KT):0","Visibility":"greater than 7 mile(s):0","Sky conditions":"mostly clear","Temperature":"14 F (-10 C)","Windchill":"5 F (-15 C):1","Dew Point":"5 F (-15 C)","Relative Humidity":"66%","Pressure (altimeter)":"30.71 in. Hg (1040 hPa)","ob":"EPGD 011500Z 07005KT 9999 FEW008 M10/M15 Q1040","cycle":"15"},
{"_id":"4495a8a111ec85eb6d2389a681e2ecb6","_rev":"1-92f6679318cdeec0b2220b5d3c0c02ac","Location":"Gdansk-Rebiechowo, Poland (EPGD) 54-23N 018-28E 138M","Date":"Dec 30, 2011 - 03:00 PM EST / 2011.12.30 2000 UTC","Wind":"from the W (270 degrees) at 3 MPH (3 KT):0","Visibility":"greater than 7 mile(s):0","Sky conditions":"mostly clear","Temperature":"33 F (1 C)","Dew Point":"32 F (0 C)","Relative Humidity":"93%","Pressure (altimeter)":"29.62 in. Hg (1003 hPa)","ob":"EPGD 302000Z 27003KT 9999 FEW007 01/M00 Q1003","cycle":"20"},
{"_id":"4495a8a111ec85eb6d2389a681e2f909","_rev":"1-2e239e1c2339f878a23669f59c22f679","Location":"Gdansk-Rebiechowo, Poland (EPGD) 54-23N 018-28E 138M","Date":"Dec 29, 2011 - 12:00 PM EST / 2011.12.29 1700 UTC","Wind":"from the SW (230 degrees) at 13 MPH (11 KT) gusting to 24 MPH (21 KT) (direction variable):0","Visibility":"greater than 7 mile(s):0","Sky conditions":"mostly cloudy","Temperature":"39 F (4 C)","Dew Point":"32 F (0 C)","Relative Humidity":"75%","Pressure (altimeter)":"29.62 in. Hg (1003 hPa)","ob":"EPGD 291700Z 23011G21KT 190V270 9999 BKN030 04/M00 Q1003","cycle":"17"},
{"_id":"4495a8a111ec85eb6d2389a681e2fbe3","_rev":"1-bb7c1cce93c7ba6256285c1eaa973103","Location":"Gdansk-Rebiechowo, Poland (EPGD) 54-23N 018-28E 138M","Date":"Dec 16, 2011 - 01:00 PM EST / 2011.12.16 1800 UTC","Wind":"from the ESE (110 degrees) at 23 MPH (20 KT):0","Visibility":"1 mile(s):0","Sky conditions":"mostly cloudy","Weather":"snow, rain","Temperature":"35 F (2 C)","Windchill":"23 F (-5 C):1","Dew Point":"32 F (0 C)","Relative Humidity":"86%","Pressure (altimeter)":"28.88 in. Hg (0978 hPa)","ob":"EPGD 161800Z 11020KT 3000 SNRA FEW005 BKN006 02/00 Q0978","cycle":"18"},
{"_id":"4495a8a111ec85eb6d2389a681e2fdd1","_rev":"1-47b4833717a0dddc26f2cef5efb1f6a6","Location":"Gdansk-Rebiechowo, Poland (EPGD) 54-23N 018-28E 138M","Date":"Feb 18, 2012 - 12:00 PM EST / 2012.02.18 1700 UTC","Wind":"from the S (180 degrees) at 10 MPH (9 KT) (direction variable):0","Visibility":"greater than 7 mile(s):0","Sky conditions":"mostly cloudy","Temperature":"33 F (1 C)","Windchill":"24 F (-4 C):1","Dew Point":"30 F (-1 C)","Relative Humidity":"86%","Pressure (altimeter)":"29.83 in. Hg (1010 hPa)","ob":"EPGD 181700Z 18009KT 150V220 9999 BKN009 01/M01 Q1010 R11/190095","cycle":"17"},
{"_id":"4495a8a111ec85eb6d2389a681e3011b","_rev":"1-6af1c47e737c90ed2cd604ddd7ad49fc","Location":"Gdansk-Rebiechowo, Poland (EPGD) 54-23N 018-28E 138M","Date":"Jan 15, 2012 - 02:00 PM EST / 2012.01.15 1900 UTC","Wind":"Variable at 1 MPH (1 KT):0","Visibility":"greater than 7 mile(s):0","Sky conditions":"mostly cloudy","Temperature":"28 F (-2 C)","Dew Point":"26 F (-3 C)","Relative Humidity":"92%","Pressure (altimeter)":"30.12 in. Hg (1020 hPa)","ob":"EPGD 151900Z VRB01KT 9999 SCT006 BKN030 M02/M03 Q1020 R11/590142","cycle":"19"},
{"_id":"4495a8a111ec85eb6d2389a681e305e4","_rev":"1-e28d91386786e561ad59e50e68324fc4","Location":"Gdansk-Rebiechowo, Poland (EPGD) 54-23N 018-28E 138M","Date":"Feb 17, 2012 - 11:00 AM EST / 2012.02.17 1600 UTC","Wind":"from the WNW (290 degrees) at 18 MPH (16 KT):0","Visibility":"greater than 7 mile(s):0","Sky conditions":"mostly cloudy","Temperature":"33 F (1 C)","Windchill":"21 F (-6 C):1","Dew Point":"30 F (-1 C)","Relative Humidity":"86%","Pressure (altimeter)":"29.74 in. Hg (1007 hPa)","ob":"EPGD 171600Z 29016KT 9999 BKN009 01/M01 Q1007 R29/290095","cycle":"16"},
{"_id":"4495a8a111ec85eb6d2389a681e30ed3","_rev":"1-0026c19e809090637ba260c326b844bb","Location":"Gdansk-Rebiechowo, Poland (EPGD) 54-23N 018-28E 138M","Date":"Dec 27, 2011 - 12:00 PM EST / 2011.12.27 1700 UTC","Wind":"from the W (280 degrees) at 18 MPH (16 KT) gusting to 31 MPH (27 KT):0","Visibility":"greater than 7 mile(s):0","Sky conditions":"mostly cloudy","Temperature":"42 F (6 C)","Dew Point":"37 F (3 C)","Relative Humidity":"81%","Pressure (altimeter)":"30.30 in. Hg (1026 hPa)","ob":"EPGD 271700Z 28016G27KT 9999 BKN015 06/03 Q1026","cycle":"17"},
{"_id":"4495a8a111ec85eb6d2389a681e30f2f","_rev":"1-f629424293ca963da99c8f5ad7f8e371","Location":"Gdansk-Rebiechowo, Poland (EPGD) 54-23N 018-28E 138M","Date":"Jan 10, 2012 - 02:00 AM EST / 2012.01.10 0700 UTC","Wind":"from the ESE (120 degrees) at 6 MPH (5 KT):0","Visibility":"1 mile(s):0","Sky conditions":"mostly cloudy","Weather":"mist","Temperature":"30 F (-1 C)","Windchill":"23 F (-5 C):1","Dew Point":"30 F (-1 C)","Relative Humidity":"100%","Pressure (altimeter)":"30.03 in. Hg (1017 hPa)","ob":"EPGD 100700Z 12005KT 2200 BR SCT001 BKN003 M01/M01 Q1017 R11/590295","cycle":"7"},
{"_id":"4495a8a111ec85eb6d2389a681e31b8e","_rev":"1-89d6d61dd9986a93a63aa51f10d962e4","Location":"Gdansk-Rebiechowo, Poland (EPGD) 54-23N 018-28E 138M","Date":"Jan 18, 2012 - 06:00 PM EST / 2012.01.18 2300 UTC","Wind":"from the WSW (240 degrees) at 8 MPH (7 KT) (direction variable):0","Visibility":"greater than 7 mile(s):0","Sky conditions":"mostly cloudy","Temperature":"32 F (0 C)","Windchill":"24 F (-4 C):1","Dew Point":"28 F (-2 C)","Relative Humidity":"86%","Pressure (altimeter)":"29.83 in. Hg (1010 hPa)","ob":"EPGD 182300Z 24007KT 200V270 9999 BKN009 00/M02 Q1010 R11/290095","cycle":"23"},
{"_id":"4495a8a111ec85eb6d2389a681e327cb","_rev":"1-0ec80a129d42b248a498be53ce1eea8e","Location":"Gdansk-Rebiechowo, Poland (EPGD) 54-23N 018-28E 138M","Date":"Feb 07, 2012 - 12:00 AM EST / 2012.02.07 0500 UTC","Wind":"from the ENE (060 degrees) at 10 MPH (9 KT):0","Visibility":"1 mile(s):0","Sky conditions":"mostly cloudy","Weather":"light snow; mist","Temperature":"15 F (-9 C)","Windchill":"3 F (-16 C):1","Dew Point":"12 F (-11 C)","Relative Humidity":"85%","Pressure (altimeter)":"30.65 in. Hg (1038 hPa)","ob":"EPGD 070500Z 06009KT 3000 -SN BR BKN009 M09/M11 Q1038 R11/490152","cycle":"5"},
{"_id":"4495a8a111ec85eb6d2389a681e328bb","_rev":"1-0b58ce206eec7f7ecbde9d7f659b8eda","Location":"Gdansk-Rebiechowo, Poland (EPGD) 54-23N 018-28E 138M","Date":"Jan 22, 2012 - 09:00 AM EST / 2012.01.22 1400 UTC","Wind":"from the SSW (210 degrees) at 6 MPH (5 KT) (direction variable):0","Visibility":"greater than 7 mile(s):0","Sky conditions":"mostly cloudy","Weather":"light rain showers","Temperature":"35 F (2 C)","Windchill":"30 F (-1 C):1","Dew Point":"33 F (1 C)","Relative Humidity":"93%","Pressure (altimeter)":"29.23 in. Hg (0990 hPa)","ob":"EPGD 221400Z 21005KT 170V240 9999 -SHRA BKN006 02/01 Q0990 R11/290066","cycle":"14"},
{"_id":"4495a8a111ec85eb6d2389a681e32c8f","_rev":"1-76e570a0454f68905a325e6dc6e8b1db","Location":"Gdansk-Rebiechowo, Poland (EPGD) 54-23N 018-28E 138M","Date":"Jan 16, 2012 - 04:00 PM EST / 2012.01.16 2100 UTC","Wind":"from the W (260 degrees) at 3 MPH (3 KT):0","Visibility":"3 mile(s):0","Sky conditions":"mostly cloudy","Weather":"light snow; mist","Temperature":"28 F (-2 C)","Dew Point":"26 F (-3 C)","Relative Humidity":"92%","Pressure (altimeter)":"30.09 in. Hg (1019 hPa)","ob":"EPGD 162100Z 26003KT 5000 -SN BR BKN021 M02/M03 Q1019 R11/190095","cycle":"21"},
{"_id":"4495a8a111ec85eb6d2389a681e32e02","_rev":"1-98ec414d54a34f96b90b8b3a73dab10b","Location":"Gdansk-Rebiechowo, Poland (EPGD) 54-23N 018-28E 138M","Date":"Feb 02, 2012 - 02:00 AM EST / 2012.02.02 0700 UTC","Wind":"Calm:0","Visibility":"2 mile(s):0","Sky conditions":"mostly cloudy","Weather":"light snow","Temperature":"1 F (-17 C)","Dew Point":"-4 F (-20 C)","Relative Humidity":"77%","Pressure (altimeter)":"30.59 in. Hg (1036 hPa)","ob":"EPGD 020700Z 00000KT 4000 -SN SCT005 BKN011 M17/M20 Q1036 R11/490140","cycle":"7"},
{"_id":"4495a8a111ec85eb6d2389a681e33cf4","_rev":"1-53a276e478d25d588b638e55c909e97a","Location":"Gdansk-Rebiechowo, Poland (EPGD) 54-23N 018-28E 138M","Date":"Feb 03, 2012 - 03:00 PM EST / 2012.02.03 2000 UTC","Wind":"from the SSW (210 degrees) at 6 MPH (5 KT):0","Visibility":"1 mile(s):0","Sky conditions":"mostly cloudy","Weather":"light snow; mist","Temperature":"10 F (-12 C)","Windchill":"0 F (-18 C):1","Dew Point":"6 F (-14 C)","Relative Humidity":"85%","Pressure (altimeter)":"30.53 in. Hg (1034 hPa)","ob":"EPGD 032000Z 21005KT 3000 -SN BR SCT004 BKN021 M12/M14 Q1034 R11/490334","cycle":"20"},
{"_id":"4495a8a111ec85eb6d2389a681e349d8","_rev":"1-7865762511286243ac203fab17346c9d","Location":"Gdansk-Rebiechowo, Poland (EPGD) 54-23N 018-28E 138M","Date":"Jan 27, 2012 - 08:00 PM EST / 2012.01.28 0100 UTC","Wind":"from the ESE (120 degrees) at 8 MPH (7 KT):0","Visibility":"greater than 7 mile(s):0","Temperature":"8 F (-13 C)","Windchill":"-4 F (-20 C):1","Dew Point":"3 F (-16 C)","Relative Humidity":"78%","Pressure (altimeter)":"30.53 in. Hg (1034 hPa)","ob":"EPGD 280100Z 12007KT CAVOK M13/M16 Q1034 R11/190095","cycle":"1"},
{"_id":"4495a8a111ec85eb6d2389a681e35122","_rev":"1-9fee780d2bcfbb972cfa444105b7d3d5","Location":"Gdansk-Rebiechowo, Poland (EPGD) 54-23N 018-28E 138M","Date":"Jan 20, 2012 - 03:00 PM EST / 2012.01.20 2000 UTC","Wind":"from the WNW (290 degrees) at 3 MPH (3 KT):0","Visibility":"greater than 7 mile(s):0","Sky conditions":"mostly cloudy","Weather":"light snow","Temperature":"33 F (1 C)","Dew Point":"32 F (0 C)","Relative Humidity":"93%","Pressure (altimeter)":"29.56 in. Hg (1001 hPa)","ob":"EPGD 202000Z 29003KT 9999 -SN BKN006 01/M00 Q1001 R11/190095","cycle":"20"},
{"_id":"4495a8a111ec85eb6d2389a681e35463","_rev":"1-ba7ca973fd1f34e56958661b98d43f2d","Location":"Gdansk-Rebiechowo, Poland (EPGD) 54-23N 018-28E 138M","Date":"Feb 19, 2012 - 06:00 PM EST / 2012.02.19 2300 UTC","Wind":"from the W (260 degrees) at 15 MPH (13 KT):0","Visibility":"greater than 7 mile(s):0","Temperature":"33 F (1 C)","Windchill":"23 F (-5 C):1","Dew Point":"26 F (-3 C)","Relative Humidity":"74%","Pressure (altimeter)":"29.91 in. Hg (1013 hPa)","ob":"EPGD 192300Z 26013KT CAVOK 01/M03 Q1013 R11/290095","cycle":"23"},
{"_id":"4495a8a111ec85eb6d2389a681e35e94","_rev":"1-490c7303357dfc4a7ea519250884917d","Location":"Gdansk-Rebiechowo, Poland (EPGD) 54-23N 018-28E 138M","Date":"Jan 27, 2012 - 05:00 PM EST / 2012.01.27 2200 UTC","Wind":"from the ESE (120 degrees) at 9 MPH (8 KT):0","Visibility":"greater than 7 mile(s):0","Temperature":"10 F (-12 C)","Windchill":"-2 F (-19 C):1","Dew Point":"5 F (-15 C)","Relative Humidity":"78%","Pressure (altimeter)":"30.53 in. Hg (1034 hPa)","ob":"EPGD 272200Z 12008KT CAVOK M12/M15 Q1034 R11/190095","cycle":"22"},
{"_id":"4495a8a111ec85eb6d2389a681e36b6b","_rev":"1-4a3406d82f85524741cc242c2dc209dd","Location":"Gdansk-Rebiechowo, Poland (EPGD) 54-23N 018-28E 138M","Date":"Jan 04, 2012 - 11:00 PM EST / 2012.01.05 0400 UTC","Wind":"from the SSW (210 degrees) at 17 MPH (15 KT) (direction variable):0","Visibility":"greater than 7 mile(s):0","Sky conditions":"mostly cloudy","Temperature":"37 F (3 C)","Dew Point":"32 F (0 C)","Relative Humidity":"80%","Pressure (altimeter)":"29.15 in. Hg (0987 hPa)","ob":"EPGD 050400Z 21015KT 160V240 9999 BKN015 03/00 Q0987","cycle":"4"},
{"_id":"4495a8a111ec85eb6d2389a681e37a7b","_rev":"1-b65c43d5be804d335c98fc91171206ee","Location":"Gdansk-Rebiechowo, Poland (EPGD) 54-23N 018-28E 138M","Date":"Jan 25, 2012 - 05:00 PM EST / 2012.01.25 2200 UTC","Wind":"from the ENE (060 degrees) at 7 MPH (6 KT) (direction variable):0","Visibility":"greater than 7 mile(s):0","Sky conditions":"mostly cloudy","Weather":"light snow showers; Towering cumulus clouds observed","Temperature":"30 F (-1 C)","Windchill":"23 F (-5 C):1","Dew Point":"26 F (-3 C)","Relative Humidity":"86%","Pressure (altimeter)":"30.27 in. Hg (1025 hPa)","ob":"EPGD 252200Z 06006KT 030V090 9999 -SHSN FEW005TCU SCT008 BKN015 M01/M03 Q1025 R11/290095","cycle":"22"},
{"_id":"4495a8a111ec85eb6d2389a681e38646","_rev":"1-0bbf6c05c462b020904c23ed336e0f98","Location":"Gdansk-Rebiechowo, Poland (EPGD) 54-23N 018-28E 138M","Date":"Jan 23, 2012 - 04:00 PM EST / 2012.01.23 2100 UTC","Wind":"from the WNW (300 degrees) at 12 MPH (10 KT):0","Visibility":"4 mile(s):0","Sky conditions":"mostly cloudy","Weather":"light snow showers; Cumulonimbus clouds observed","Temperature":"33 F (1 C)","Windchill":"24 F (-4 C):1","Dew Point":"32 F (0 C)","Relative Humidity":"93%","Pressure (altimeter)":"29.71 in. Hg (1006 hPa)","ob":"EPGD 232100Z 30010KT 7000 -SHSN BKN006 SCT010CB 01/M00 Q1006","cycle":"21"},
{"_id":"4495a8a111ec85eb6d2389a681e38e3d","_rev":"1-a699273a67041154d45b5ac5aaba4fb8","Location":"Gdansk-Rebiechowo, Poland (EPGD) 54-23N 018-28E 138M","Date":"Feb 12, 2012 - 11:00 PM EST / 2012.02.13 0400 UTC","Wind":"from the WNW (300 degrees) at 5 MPH (4 KT):0","Visibility":"3 mile(s):0","Sky conditions":"mostly cloudy","Temperature":"24 F (-4 C)","Windchill":"17 F (-8 C):1","Dew Point":"23 F (-5 C)","Relative Humidity":"92%","Pressure (altimeter)":"30.03 in. Hg (1017 hPa)","ob":"EPGD 130400Z 30004KT 6000 BKN033 M04/M05 Q1017 R29/490233","cycle":"4"},
{"_id":"4495a8a111ec85eb6d2389a681e392d5","_rev":"1-fc24b0043d184b815f7fc2c90056ae12","Location":"Gdansk-Rebiechowo, Poland (EPGD) 54-23N 018-28E 138M","Date":"Jan 07, 2012 - 03:00 PM EST / 2012.01.07 2000 UTC","Wind":"from the SW (220 degrees) at 5 MPH (4 KT) (direction variable):0","Visibility":"greater than 7 mile(s):0","Sky conditions":"mostly cloudy","Weather":"light rain","Temperature":"35 F (2 C)","Windchill":"30 F (-1 C):1","Dew Point":"33 F (1 C)","Relative Humidity":"93%","Pressure (altimeter)":"29.50 in. Hg (0999 hPa)","ob":"EPGD 072000Z 22004KT 180V310 9999 -RA BKN005 02/01 Q0999","cycle":"20"},
{"_id":"4495a8a111ec85eb6d2389a681e398bf","_rev":"1-42c39a02c424b5b2b5771d08c3bb35a5","Location":"Gdansk-Rebiechowo, Poland (EPGD) 54-23N 018-28E 138M","Date":"Feb 06, 2012 - 11:00 AM EST / 2012.02.06 1600 UTC","Wind":"from the ENE (060 degrees) at 5 MPH (4 KT):0","Visibility":"4 mile(s):0","Sky conditions":"mostly cloudy","Weather":"light snow","Temperature":"12 F (-11 C)","Windchill":"3 F (-16 C):1","Dew Point":"6 F (-14 C)","Relative Humidity":"78%","Pressure (altimeter)":"30.59 in. Hg (1036 hPa)","ob":"EPGD 061600Z 06004KT 7000 -SN BKN007 M11/M14 Q1036 R11/490152","cycle":"16"},
{"_id":"4495a8a111ec85eb6d2389a681e3a1ae","_rev":"1-02523f2edefc2feea7e8c32dfed305ce","Location":"Gdansk-Rebiechowo, Poland (EPGD) 54-23N 018-28E 138M","Date":"Dec 17, 2011 - 04:00 AM EST / 2011.12.17 0900 UTC","Wind":"from the SW (220 degrees) at 7 MPH (6 KT) (direction variable):0","Visibility":"greater than 7 mile(s):0","Sky conditions":"mostly cloudy","Temperature":"33 F (1 C)","Windchill":"26 F (-3 C):1","Dew Point":"30 F (-1 C)","Relative Humidity":"86%","Pressure (altimeter)":"28.76 in. Hg (0974 hPa)","ob":"EPGD 170900Z 22006KT 170V270 9999 BKN011 01/M01 Q0974 R11/290064","cycle":"9"},
{"_id":"4495a8a111ec85eb6d2389a681e3a887","_rev":"1-45692b9c58a4f123184631544d8a7591","Location":"Gdansk-Rebiechowo, Poland (EPGD) 54-23N 018-28E 138M","Date":"Jan 12, 2012 - 02:00 PM EST / 2012.01.12 1900 UTC","Wind":"from the W (270 degrees) at 29 MPH (25 KT) gusting to 41 MPH (36 KT):0","Visibility":"greater than 7 mile(s):0","Sky conditions":"mostly cloudy","Weather":"light rain showers","Temperature":"41 F (5 C)","Dew Point":"33 F (1 C)","Relative Humidity":"75%","Pressure (altimeter)":"29.35 in. Hg (0994 hPa)","ob":"EPGD 121900Z 27025G36KT 9999 -SHRA BKN018 05/01 Q0994","cycle":"19"},
{"_id":"4495a8a111ec85eb6d2389a681e3ad9f","_rev":"1-72504e795aa2fe2afed0b2f3cae20a42","Location":"Gdansk-Rebiechowo, Poland (EPGD) 54-23N 018-28E 138M","Date":"Jan 02, 2012 - 08:00 PM EST / 2012.01.03 0100 UTC","Wind":"from the W (260 degrees) at 7 MPH (6 KT):0","Visibility":"greater than 7 mile(s):0","Sky conditions":"mostly clear","Temperature":"41 F (5 C)","Dew Point":"37 F (3 C)","Relative Humidity":"86%","Pressure (altimeter)":"29.83 in. Hg (1010 hPa)","ob":"EPGD 030100Z 26006KT 9999 FEW036 05/03 Q1010","cycle":"1"},
{"_id":"4495a8a111ec85eb6d2389a681e3bb0d","_rev":"1-c5c428e771b4ae73b160a2884ec8dbf6","Location":"Gdansk-Rebiechowo, Poland (EPGD) 54-23N 018-28E 138M","Date":"Jan 25, 2012 - 03:00 PM EST / 2012.01.25 2000 UTC","Wind":"from the NNW (330 degrees) at 6 MPH (5 KT):0","Visibility":"greater than 7 mile(s):0","Sky conditions":"mostly cloudy","Weather":"light snow showers","Temperature":"30 F (-1 C)","Windchill":"23 F (-5 C):1","Dew Point":"26 F (-3 C)","Relative Humidity":"86%","Pressure (altimeter)":"30.24 in. Hg (1024 hPa)","ob":"EPGD 252000Z 33005KT 9999 -SHSN BKN020 M01/M03 Q1024 R11/290095","cycle":"20"},
{"_id":"4495a8a111ec85eb6d2389a681e3bbfc","_rev":"1-fed93b9365e0cb3072a7077abf9512e3","Location":"Gdansk-Rebiechowo, Poland (EPGD) 54-23N 018-28E 138M","Date":"Jan 08, 2012 - 03:00 AM EST / 2012.01.08 0800 UTC","Wind":"from the WSW (250 degrees) at 7 MPH (6 KT):0","Visibility":"greater than 7 mile(s):0","Sky conditions":"partly cloudy","Temperature":"37 F (3 C)","Dew Point":"35 F (2 C)","Relative Humidity":"93%","Pressure (altimeter)":"29.65 in. Hg (1004 hPa)","ob":"EPGD 080800Z 25006KT 9999 SCT010 03/02 Q1004","cycle":"8"},
{"_id":"4495a8a111ec85eb6d2389a681e3c866","_rev":"1-58ab59aaecb5c069f146d4d1ab03410f","Location":"Gdansk-Rebiechowo, Poland (EPGD) 54-23N 018-28E 138M","Date":"Dec 25, 2011 - 04:00 PM EST / 2011.12.25 2100 UTC","Wind":"from the WSW (240 degrees) at 14 MPH (12 KT) (direction variable):0","Visibility":"greater than 7 mile(s):0","Sky conditions":"mostly cloudy","Temperature":"42 F (6 C)","Dew Point":"39 F (4 C)","Relative Humidity":"86%","Pressure (altimeter)":"30.15 in. Hg (1021 hPa)","ob":"EPGD 252100Z 24012KT 210V270 9999 BKN006 06/04 Q1021","cycle":"21"},
{"_id":"4495a8a111ec85eb6d2389a681e3cf8e","_rev":"1-0260cb79bb729d70ce3efed3e000b3ab","Location":"Gdansk-Rebiechowo, Poland (EPGD) 54-23N 018-28E 138M","Date":"Jan 19, 2012 - 07:00 AM EST / 2012.01.19 1200 UTC","Wind":"from the SW (230 degrees) at 6 MPH (5 KT) (direction variable):0","Visibility":"greater than 7 mile(s):0","Sky conditions":"mostly cloudy","Temperature":"37 F (3 C)","Dew Point":"32 F (0 C)","Relative Humidity":"80%","Pressure (altimeter)":"29.68 in. Hg (1005 hPa)","ob":"EPGD 191200Z 23005KT 190V260 9999 BKN013 03/00 Q1005 R11/290095","cycle":"12"},
{"_id":"4495a8a111ec85eb6d2389a681e3d22c","_rev":"1-6947633b15df238a2e80afbea5759e0d","Location":"Gdansk-Rebiechowo, Poland (EPGD) 54-23N 018-28E 138M","Date":"Jan 19, 2012 - 10:00 AM EST / 2012.01.19 1500 UTC","Wind":"from the SSW (210 degrees) at 8 MPH (7 KT) (direction variable):0","Visibility":"4 mile(s):0","Sky conditions":"mostly cloudy","Temperature":"35 F (2 C)","Windchill":"28 F (-2 C):1","Dew Point":"33 F (1 C)","Relative Humidity":"93%","Pressure (altimeter)":"29.62 in. Hg (1003 hPa)","ob":"EPGD 191500Z 21007KT 190V250 7000 BKN009 02/01 Q1003 R11/290095","cycle":"15"},
{"_id":"4495a8a111ec85eb6d2389a681e3da4d","_rev":"1-88bd4c7b4b8ab6a643e3ec47784fc7b9","Location":"Gdansk-Rebiechowo, Poland (EPGD) 54-23N 018-28E 138M","Date":"Dec 30, 2011 - 10:00 AM EST / 2011.12.30 1500 UTC","Wind":"from the WNW (290 degrees) at 6 MPH (5 KT):0","Visibility":"4 mile(s):0","Sky conditions":"mostly cloudy","Temperature":"35 F (2 C)","Windchill":"30 F (-1 C):1","Dew Point":"33 F (1 C)","Relative Humidity":"93%","Pressure (altimeter)":"29.53 in. Hg (1000 hPa)","ob":"EPGD 301500Z 29005KT 8000 BKN007 02/01 Q1000","cycle":"15"},
{"_id":"4495a8a111ec85eb6d2389a681e3e882","_rev":"1-3b788f5b696b82688b0c84c552c32f39","Location":"Gdansk-Rebiechowo, Poland (EPGD) 54-23N 018-28E 138M","Date":"Feb 02, 2012 - 05:00 PM EST / 2012.02.02 2200 UTC","Wind":"from the W (270 degrees) at 2 MPH (2 KT):0","Visibility":"1 mile(s):0","Weather":"mist","Temperature":"-9 F (-23 C)","Dew Point":"-14 F (-26 C)","Relative Humidity":"76%","Pressure (altimeter)":"30.53 in. Hg (1034 hPa)","ob":"EPGD 022200Z 27002KT 1800 BR NSC M23/M26 Q1034 R11/190095","cycle":"22"},
{"_id":"4495a8a111ec85eb6d2389a681e3f51f","_rev":"1-ddb9c14cb1f4b7dcb4059f317effbb60","Location":"Gdansk-Rebiechowo, Poland (EPGD) 54-23N 018-28E 138M","Date":"Feb 10, 2012 - 07:00 AM EST / 2012.02.10 1200 UTC","Wind":"from the ESE (110 degrees) at 3 MPH (3 KT) (direction variable):0","Visibility":"4 mile(s):0","Sky conditions":"mostly cloudy","Weather":"light snow","Temperature":"17 F (-8 C)","Dew Point":"14 F (-10 C)","Relative Humidity":"85%","Pressure (altimeter)":"30.71 in. Hg (1040 hPa)","ob":"EPGD 101200Z 11003KT 050V170 8000 -SN BKN008 M08/M10 Q1040 R11/090095","cycle":"12"},
{"_id":"4495a8a111ec85eb6d2389a681e3f5d7","_rev":"1-ff01c18647cfa0be8dba8f24634942f3","Location":"Gdansk-Rebiechowo, Poland (EPGD) 54-23N 018-28E 138M","Date":"Feb 16, 2012 - 06:00 PM EST / 2012.02.16 2300 UTC","Wind":"from the SSW (210 degrees) at 8 MPH (7 KT) (direction variable):0","Visibility":"greater than 7 mile(s):0","Sky conditions":"partly cloudy","Temperature":"28 F (-2 C)","Windchill":"19 F (-7 C):1","Dew Point":"23 F (-5 C)","Relative Humidity":"79%","Pressure (altimeter)":"29.91 in. Hg (1013 hPa)","ob":"EPGD 162300Z 21007KT 170V240 9999 SCT031 M02/M05 Q1013 R11/090095","cycle":"23"},
{"_id":"4495a8a111ec85eb6d2389a681e402d0","_rev":"1-3b22850a689ec02a093a5593f7ab9284","Location":"Gdansk-Rebiechowo, Poland (EPGD) 54-23N 018-28E 138M","Date":"Feb 04, 2012 - 08:00 PM EST / 2012.02.05 0100 UTC","Wind":"from the NW (320 degrees) at 2 MPH (2 KT):0","Visibility":"2 mile(s):0","Weather":"mist","Temperature":"-9 F (-23 C)","Dew Point":"-14 F (-26 C)","Relative Humidity":"76%","Pressure (altimeter)":"30.65 in. Hg (1038 hPa)","ob":"EPGD 050100Z 32002KT 3500 BR NSC M23/M26 Q1038 R11/490136","cycle":"1"},
{"_id":"4495a8a111ec85eb6d2389a681e407e7","_rev":"1-9dca183e5b845262f6fd61b72adc2a81","Location":"Gdansk-Rebiechowo, Poland (EPGD) 54-23N 018-28E 138M","Date":"Jan 21, 2012 - 07:00 PM EST / 2012.01.22 0000 UTC","Wind":"from the SSW (200 degrees) at 6 MPH (5 KT) (direction variable):0","Visibility":"4 mile(s):0","Sky conditions":"mostly cloudy","Temperature":"32 F (0 C)","Windchill":"26 F (-3 C):1","Dew Point":"32 F (0 C)","Relative Humidity":"100%","Pressure (altimeter)":"29.18 in. Hg (0988 hPa)","ob":"EPGD 220000Z 20005KT 150V240 8000 BKN006 00/M00 Q0988 R11/590342","cycle":"0"},
{"_id":"4495a8a111ec85eb6d2389a681e4093a","_rev":"1-7e83e7e748d282e9b70c1dcb6ec951a2","Location":"Gdansk-Rebiechowo, Poland (EPGD) 54-23N 018-28E 138M","Date":"Feb 14, 2012 - 03:00 AM EST / 2012.02.14 0800 UTC","Wind":"from the SW (230 degrees) at 3 MPH (3 KT) (direction variable):0","Visibility":"greater than 7 mile(s):0","Temperature":"26 F (-3 C)","Dew Point":"23 F (-5 C)","Relative Humidity":"86%","Pressure (altimeter)":"29.91 in. Hg (1013 hPa)","ob":"EPGD 140800Z 23003KT 200V270 CAVOK M03/M05 Q1013 R11/190095","cycle":"8"},
{"_id":"4495a8a111ec85eb6d2389a681e40945","_rev":"1-036a7d73d828c6e9b907975ddc104a87","Location":"Gdansk-Rebiechowo, Poland (EPGD) 54-23N 018-28E 138M","Date":"Dec 30, 2011 - 04:00 PM EST / 2011.12.30 2100 UTC","Wind":"from the W (280 degrees) at 7 MPH (6 KT):0","Visibility":"greater than 7 mile(s):0","Sky conditions":"mostly clear","Temperature":"33 F (1 C)","Windchill":"26 F (-3 C):1","Dew Point":"32 F (0 C)","Relative Humidity":"93%","Pressure (altimeter)":"29.62 in. Hg (1003 hPa)","ob":"EPGD 302100Z 28006KT 9999 FEW006 01/M00 Q1003","cycle":"21"},
{"_id":"4495a8a111ec85eb6d2389a681e417c0","_rev":"1-0b1114cf9a885cf2cc9fce02ff7d2c0b","Location":"Gdansk-Rebiechowo, Poland (EPGD) 54-23N 018-28E 138M","Date":"Jan 03, 2012 - 11:00 AM EST / 2012.01.03 1600 UTC","Wind":"from the S (190 degrees) at 15 MPH (13 KT) (direction variable):0","Visibility":"greater than 7 mile(s):0","Sky conditions":"mostly cloudy","Temperature":"39 F (4 C)","Dew Point":"33 F (1 C)","Relative Humidity":"80%","Pressure (altimeter)":"29.71 in. Hg (1006 hPa)","ob":"EPGD 031600Z 19013KT 150V220 9999 BKN017 04/01 Q1006","cycle":"16"},
{"_id":"4495a8a111ec85eb6d2389a681e41fce","_rev":"1-1af39510b87c04aee3da4b41ab8231a5","Location":"Gdansk-Rebiechowo, Poland (EPGD) 54-23N 018-28E 138M","Date":"Feb 11, 2012 - 05:00 PM EST / 2012.02.11 2200 UTC","Wind":"from the W (260 degrees) at 5 MPH (4 KT):0","Visibility":"greater than 7 mile(s):0","Sky conditions":"mostly cloudy","Temperature":"19 F (-7 C)","Windchill":"12 F (-11 C):1","Dew Point":"17 F (-8 C)","Relative Humidity":"92%","Pressure (altimeter)":"30.47 in. Hg (1032 hPa)","ob":"EPGD 112200Z 26004KT 9999 FEW017 BKN042 M07/M08 Q1032 R29/490241","cycle":"22"},
{"_id":"4495a8a111ec85eb6d2389a681e424ac","_rev":"1-898a7b6e2c34d42988d7e1d754cce536","Location":"Gdansk-Rebiechowo, Poland (EPGD) 54-23N 018-28E 138M","Date":"Feb 13, 2012 - 02:00 PM EST / 2012.02.13 1900 UTC","Wind":"Variable at 2 MPH (2 KT):0","Visibility":"greater than 7 mile(s):0","Sky conditions":"mostly cloudy","Weather":"light snow","Temperature":"28 F (-2 C)","Dew Point":"24 F (-4 C)","Relative Humidity":"86%","Pressure (altimeter)":"29.97 in. Hg (1015 hPa)","ob":"EPGD 131900Z VRB02KT 9999 -SN SCT015 BKN033 M02/M04 Q1015 R11/190095","cycle":"19"},
{"_id":"4495a8a111ec85eb6d2389a681e42c37","_rev":"1-4b0714ec263d3dbc444fb00449f41cae","Location":"Gdansk-Rebiechowo, Poland (EPGD) 54-23N 018-28E 138M","Date":"Dec 31, 2011 - 12:00 AM EST / 2011.12.31 0500 UTC","Wind":"from the NW (310 degrees) at 7 MPH (6 KT):0","Visibility":"greater than 7 mile(s):0","Sky conditions":"mostly cloudy","Temperature":"33 F (1 C)","Windchill":"26 F (-3 C):1","Dew Point":"32 F (0 C)","Relative Humidity":"93%","Pressure (altimeter)":"29.74 in. Hg (1007 hPa)","ob":"EPGD 310500Z 31006KT 9999 BKN023 01/00 Q1007","cycle":"5"},
{"_id":"4495a8a111ec85eb6d2389a681e43667","_rev":"1-7a508779eaa6f4209aa0705cf99d39b0","Location":"Gdansk-Rebiechowo, Poland (EPGD) 54-23N 018-28E 138M","Date":"Feb 17, 2012 - 07:00 PM EST / 2012.02.18 0000 UTC","Wind":"from the WNW (290 degrees) at 12 MPH (10 KT):0","Visibility":"greater than 7 mile(s):0","Sky conditions":"mostly cloudy","Temperature":"33 F (1 C)","Windchill":"24 F (-4 C):1","Dew Point":"32 F (0 C)","Relative Humidity":"93%","Pressure (altimeter)":"29.85 in. Hg (1011 hPa)","ob":"EPGD 180000Z 29010KT 9999 BKN005 01/M00 Q1011 R11/190095","cycle":"0"},
{"_id":"4495a8a111ec85eb6d2389a681e43e69","_rev":"1-100982fa9f6447585761755f60e1a7e6","Location":"Gdansk-Rebiechowo, Poland (EPGD) 54-23N 018-28E 138M","Date":"Dec 13, 2011 - 04:00 PM EST / 2011.12.13 2100 UTC","Wind":"from the SSW (200 degrees) at 13 MPH (11 KT) (direction variable):0","Visibility":"greater than 7 mile(s):0","Sky conditions":"mostly cloudy","Weather":"light rain","Temperature":"39 F (4 C)","Dew Point":"35 F (2 C)","Relative Humidity":"86%","Pressure (altimeter)":"29.50 in. Hg (0999 hPa)","ob":"EPGD 132100Z 20011KT 170V230 9999 -RA BKN013 04/02 Q0999","cycle":"21"},
{"_id":"4495a8a111ec85eb6d2389a681e43fb0","_rev":"1-4f36fa3362b57135230e731e323a75e1","Location":"Gdansk-Rebiechowo, Poland (EPGD) 54-23N 018-28E 138M","Date":"Dec 17, 2011 - 11:00 PM EST / 2011.12.18 0400 UTC","Wind":"from the W (270 degrees) at 15 MPH (13 KT) gusting to 28 MPH (24 KT):0","Visibility":"greater than 7 mile(s):0","Sky conditions":"partly cloudy","Temperature":"35 F (2 C)","Windchill":"24 F (-4 C):1","Dew Point":"30 F (-1 C)","Relative Humidity":"80%","Pressure (altimeter)":"29.18 in. Hg (0988 hPa)","ob":"EPGD 180400Z 27013G24KT 9999 FEW020 SCT030 02/M01 Q0988 R11/290064","cycle":"4"},
{"_id":"4495a8a111ec85eb6d2389a681e44a90","_rev":"1-ee96954a02c5b36937f6f4b39fbae423","Location":"Gdansk-Rebiechowo, Poland (EPGD) 54-23N 018-28E 138M","Date":"Feb 05, 2012 - 05:00 PM EST / 2012.02.05 2200 UTC","Wind":"from the WNW (300 degrees) at 1 MPH (1 KT):0","Visibility":"1 mile(s):0","Weather":"mist","Temperature":"-13 F (-25 C)","Dew Point":"-16 F (-27 C)","Relative Humidity":"83%","Pressure (altimeter)":"30.74 in. Hg (1041 hPa)","ob":"EPGD 052200Z 30001KT 3000 BR NSC M25/M27 Q1041 R11/190095","cycle":"22"},
{"_id":"4495a8a111ec85eb6d2389a681e459d5","_rev":"1-d2843aaa09f73e347a1d9e9989b5500d","Location":"Gdansk-Rebiechowo, Poland (EPGD) 54-23N 018-28E 138M","Date":"Jan 15, 2012 - 12:00 AM EST / 2012.01.15 0500 UTC","Wind":"from the NNW (340 degrees) at 15 MPH (13 KT):0","Visibility":"4 mile(s):0","Sky conditions":"mostly cloudy","Weather":"light snow showers; Cumulonimbus clouds observed","Temperature":"30 F (-1 C)","Windchill":"19 F (-7 C):1","Dew Point":"28 F (-2 C)","Relative Humidity":"92%","Pressure (altimeter)":"29.94 in. Hg (1014 hPa)","ob":"EPGD 150500Z 34013KT 7000 -SHSN SCT004 BKN012CB M01/M02 Q1014 RESN R11/590517","cycle":"5"},
{"_id":"4495a8a111ec85eb6d2389a681e46707","_rev":"1-9a4cfe443c1f1d98769ce4d0ac3bd0dd","Location":"Gdansk-Rebiechowo, Poland (EPGD) 54-23N 018-28E 138M","Date":"Feb 09, 2012 - 06:00 PM EST / 2012.02.09 2300 UTC","Wind":"from the SE (130 degrees) at 5 MPH (4 KT):0","Visibility":"greater than 7 mile(s):0","Sky conditions":"mostly cloudy","Temperature":"10 F (-12 C)","Windchill":"1 F (-17 C):1","Dew Point":"5 F (-15 C)","Relative Humidity":"78%","Pressure (altimeter)":"30.71 in. Hg (1040 hPa)","ob":"EPGD 092300Z 13004KT 9999 FEW006 BKN017 M12/M15 Q1040 R11/090095","cycle":"23"},
{"_id":"4495a8a111ec85eb6d2389a681e470a0","_rev":"1-179166b49821985feff033aa3e7e10f1","Location":"Gdansk-Rebiechowo, Poland (EPGD) 54-23N 018-28E 138M","Date":"Jan 08, 2012 - 01:00 AM EST / 2012.01.08 0600 UTC","Wind":"from the W (260 degrees) at 9 MPH (8 KT):0","Visibility":"greater than 7 mile(s):0","Sky conditions":"mostly cloudy","Temperature":"37 F (3 C)","Dew Point":"35 F (2 C)","Relative Humidity":"93%","Pressure (altimeter)":"29.59 in. Hg (1002 hPa)","ob":"EPGD 080600Z 26008KT 9999 BKN013 03/02 Q1002","cycle":"6"},
{"_id":"4495a8a111ec85eb6d2389a681e47c44","_rev":"1-782e2a71902267aea8de6bc263eb7102","Location":"Gdansk-Rebiechowo, Poland (EPGD) 54-23N 018-28E 138M","Date":"Feb 05, 2012 - 09:00 PM EST / 2012.02.06 0200 UTC","Wind":"from the WNW (300 degrees) at 1 MPH (1 KT):0","Visibility":"1 mile(s):0","Sky conditions":"partly cloudy","Weather":"light snow; mist","Temperature":"-16 F (-27 C)","Dew Point":"-22 F (-30 C)","Relative Humidity":"75%","Pressure (altimeter)":"30.71 in. Hg (1040 hPa)","ob":"EPGD 060200Z 30001KT 2500 -SN BR SCT005 M27/M30 Q1040 R11/190095","cycle":"2"},
{"_id":"4495a8a111ec85eb6d2389a681e4802c","_rev":"1-88d4f5043ce6cae570d2e036ec41b323","Location":"Gdansk-Rebiechowo, Poland (EPGD) 54-23N 018-28E 138M","Date":"Feb 02, 2012 - 11:00 PM EST / 2012.02.03 0400 UTC","Wind":"Variable at 2 MPH (2 KT):0","Visibility":"1 mile(s):0","Weather":"mist","Temperature":"-9 F (-23 C)","Dew Point":"-14 F (-26 C)","Relative Humidity":"76%","Pressure (altimeter)":"30.50 in. Hg (1033 hPa)","ob":"EPGD 030400Z VRB02KT 3000 BR NSC M23/M26 Q1033 R11/190095","cycle":"4"},
{"_id":"4495a8a111ec85eb6d2389a681e48f0b","_rev":"1-881fab607fd423ff11248cb79601f205","Location":"Gdansk-Rebiechowo, Poland (EPGD) 54-23N 018-28E 138M","Date":"Dec 28, 2011 - 08:00 AM EST / 2011.12.28 1300 UTC","Wind":"from the SSW (200 degrees) at 6 MPH (5 KT) (direction variable):0","Visibility":"greater than 7 mile(s):0","Sky conditions":"mostly cloudy","Temperature":"41 F (5 C)","Dew Point":"39 F (4 C)","Relative Humidity":"93%","Pressure (altimeter)":"30.18 in. Hg (1022 hPa)","ob":"EPGD 281300Z 20005KT 170V260 9999 BKN006 05/04 Q1022","cycle":"13"},
{"_id":"4495a8a111ec85eb6d2389a681e4922e","_rev":"1-b0c3923d57f62c164eff69d81fa1ca92","Location":"Gdansk-Rebiechowo, Poland (EPGD) 54-23N 018-28E 138M","Date":"Dec 21, 2011 - 07:00 PM EST / 2011.12.22 0000 UTC","Wind":"Variable at 1 MPH (1 KT):0","Visibility":"1 mile(s):0","Sky conditions":"overcast","Weather":"mist","Temperature":"26 F (-3 C)","Dew Point":"24 F (-4 C)","Relative Humidity":"92%","Pressure (altimeter)":"30.03 in. Hg (1017 hPa)","ob":"EPGD 220000Z VRB01KT 2300 BR OVC021 M03/M04 Q1017","cycle":"0"},
{"_id":"4495a8a111ec85eb6d2389a681e4a03f","_rev":"1-a09024e142dfc6195559cc1a8d9675b8","Location":"Gdansk-Rebiechowo, Poland (EPGD) 54-23N 018-28E 138M","Date":"Jan 15, 2012 - 11:00 PM EST / 2012.01.16 0400 UTC","Wind":"from the WNW (300 degrees) at 8 MPH (7 KT):0","Visibility":"3 mile(s):0","Sky conditions":"mostly cloudy","Weather":"light snow showers; Towering cumulus clouds observed","Temperature":"28 F (-2 C)","Windchill":"19 F (-7 C):1","Dew Point":"26 F (-3 C)","Relative Humidity":"92%","Pressure (altimeter)":"30.15 in. Hg (1021 hPa)","ob":"EPGD 160400Z 30007KT 5000 -SHSN FEW009 FEW020TCU BKN032 M02/M03 Q1021 R11/590142","cycle":"4"},
{"_id":"4495a8a111ec85eb6d2389a681e4a1af","_rev":"1-e1a198c8cfc4d6c1e6a8e7b220d5aa26","Location":"Gdansk-Rebiechowo, Poland (EPGD) 54-23N 018-28E 138M","Date":"Feb 18, 2012 - 09:00 AM EST / 2012.02.18 1400 UTC","Wind":"from the S (190 degrees) at 8 MPH (7 KT) (direction variable):0","Visibility":"greater than 7 mile(s):0","Sky conditions":"mostly cloudy","Temperature":"37 F (3 C)","Dew Point":"30 F (-1 C)","Relative Humidity":"74%","Pressure (altimeter)":"29.88 in. Hg (1012 hPa)","ob":"EPGD 181400Z 19007KT 160V230 9999 BKN017 03/M01 Q1012 R11/190095","cycle":"14"},
{"_id":"4495a8a111ec85eb6d2389a681e4ac5e","_rev":"1-36765bd1f66c0be26c621622dea0a06b","Location":"Gdansk-Rebiechowo, Poland (EPGD) 54-23N 018-28E 138M","Date":"Feb 15, 2012 - 01:00 AM EST / 2012.02.15 0600 UTC","Wind":"from the SE (130 degrees) at 10 MPH (9 KT) (direction variable):0","Visibility":"less than 1 mile:0","Sky conditions":"mostly cloudy","Weather":"snow; low drifting snow; mist","Temperature":"24 F (-4 C)","Windchill":"14 F (-10 C):1","Dew Point":"23 F (-5 C)","Relative Humidity":"92%","Pressure (altimeter)":"28.88 in. Hg (0978 hPa)","ob":"EPGD 150600Z 13009KT 1000 R29/1800V2000 SN DRSN BR BKN005 M04/M05 Q0978 R11/490332","cycle":"6"},
{"_id":"4495a8a111ec85eb6d2389a681e4b9f8","_rev":"1-a4c523d0658c734621dbec708300b981","Location":"Gdansk-Rebiechowo, Poland (EPGD) 54-23N 018-28E 138M","Date":"Jan 30, 2012 - 06:00 PM EST / 2012.01.30 2300 UTC","Wind":"from the ESE (110 degrees) at 7 MPH (6 KT):0","Visibility":"greater than 7 mile(s):0","Temperature":"5 F (-15 C)","Windchill":"-7 F (-22 C):2","Dew Point":"0 F (-18 C)","Relative Humidity":"77%","Pressure (altimeter)":"30.77 in. Hg (1042 hPa)","ob":"EPGD 302300Z 11006KT CAVOK M15/M18 Q1042","cycle":"23"},
{"_id":"4495a8a111ec85eb6d2389a681e4c88a","_rev":"1-669889682f236626e3eb03421b5f4a35","Location":"Gdansk-Rebiechowo, Poland (EPGD) 54-23N 018-28E 138M","Date":"Dec 20, 2011 - 11:00 AM EST / 2011.12.20 1600 UTC","Wind":"from the SE (130 degrees) at 5 MPH (4 KT) (direction variable):0","Visibility":"3 mile(s):0","Sky conditions":"mostly cloudy","Temperature":"33 F (1 C)","Windchill":"28 F (-2 C):1","Dew Point":"30 F (-1 C)","Relative Humidity":"86%","Pressure (altimeter)":"29.85 in. Hg (1011 hPa)","ob":"EPGD 201600Z 13004KT 110V170 6000 SCT006 BKN013 01/M01 Q1011 R11/190095","cycle":"16"},
{"_id":"4495a8a111ec85eb6d2389a681e4d84c","_rev":"1-a0f1e939c8ddd2a82c290c0565df8167","Location":"Gdansk-Rebiechowo, Poland (EPGD) 54-23N 018-28E 138M","Date":"Dec 22, 2011 - 02:00 PM EST / 2011.12.22 1900 UTC","Wind":"from the SSW (200 degrees) at 3 MPH (3 KT):0","Visibility":"1 mile(s):0","Sky conditions":"overcast","Weather":"mist","Temperature":"26 F (-3 C)","Dew Point":"24 F (-4 C)","Relative Humidity":"92%","Pressure (altimeter)":"30.12 in. Hg (1020 hPa)","ob":"EPGD 221900Z 20003KT 2800 BR OVC003 M03/M04 Q1020","cycle":"19"},
{"_id":"4495a8a111ec85eb6d2389a681e4e26c","_rev":"1-e25e23dddc6f477f2fc827df4e753e33","Location":"Gdansk-Rebiechowo, Poland (EPGD) 54-23N 018-28E 138M","Date":"Dec 29, 2011 - 01:00 AM EST / 2011.12.29 0600 UTC","Wind":"from the SW (220 degrees) at 10 MPH (9 KT):0","Visibility":"greater than 7 mile(s):0","Sky conditions":"mostly cloudy","Temperature":"41 F (5 C)","Dew Point":"37 F (3 C)","Relative Humidity":"86%","Pressure (altimeter)":"29.74 in. Hg (1007 hPa)","ob":"EPGD 290600Z 22009KT 9999 BKN011 05/03 Q1007","cycle":"6"},
{"_id":"4495a8a111ec85eb6d2389a681e4e577","_rev":"1-77c1828070cde9b2fd76bf192638950b","Location":"Gdansk-Rebiechowo, Poland (EPGD) 54-23N 018-28E 138M","Date":"Feb 18, 2012 - 05:00 AM EST / 2012.02.18 1000 UTC","Wind":"from the W (260 degrees) at 7 MPH (6 KT) (direction variable):0","Visibility":"greater than 7 mile(s):0","Sky conditions":"mostly cloudy","Temperature":"33 F (1 C)","Windchill":"26 F (-3 C):1","Dew Point":"30 F (-1 C)","Relative Humidity":"86%","Pressure (altimeter)":"29.94 in. Hg (1014 hPa)","ob":"EPGD 181000Z 26006KT 210V290 9999 BKN008 01/M01 Q1014 R29/190095","cycle":"10"},
{"_id":"4495a8a111ec85eb6d2389a681e4ed22","_rev":"1-8efed329885225ab7e74464625b7ae97","Location":"Gdansk-Rebiechowo, Poland (EPGD) 54-23N 018-28E 138M","Date":"Dec 29, 2011 - 05:00 PM EST / 2011.12.29 2200 UTC","Wind":"from the SW (230 degrees) at 16 MPH (14 KT) gusting to 28 MPH (24 KT) (direction variable):0","Visibility":"greater than 7 mile(s):0","Sky conditions":"mostly cloudy","Temperature":"39 F (4 C)","Dew Point":"30 F (-1 C)","Relative Humidity":"69%","Pressure (altimeter)":"29.56 in. Hg (1001 hPa)","ob":"EPGD 292200Z 23014G24KT 200V270 9999 FEW021 BKN036 04/M01 Q1001","cycle":"22"},
{"_id":"4495a8a111ec85eb6d2389a681e4f2f7","_rev":"1-2cee77633a6d7d9745e646bd8781ed59","Location":"Gdansk-Rebiechowo, Poland (EPGD) 54-23N 018-28E 138M","Date":"Jan 11, 2012 - 10:00 PM EST / 2012.01.12 0300 UTC","Wind":"from the WSW (240 degrees) at 12 MPH (10 KT):0","Visibility":"greater than 7 mile(s):0","Sky conditions":"mostly cloudy","Temperature":"39 F (4 C)","Dew Point":"33 F (1 C)","Relative Humidity":"80%","Pressure (altimeter)":"30.00 in. Hg (1016 hPa)","ob":"EPGD 120300Z 24010KT 9999 SCT016 BKN023 04/01 Q1016 R11/290095","cycle":"3"},
{"_id":"4495a8a111ec85eb6d2389a681e4f995","_rev":"1-d79017933fc7bd24e285deb56e6353be","Location":"Gdansk-Rebiechowo, Poland (EPGD) 54-23N 018-28E 138M","Date":"Jan 24, 2012 - 08:00 AM EST / 2012.01.24 1300 UTC","Wind":"from the NW (320 degrees) at 5 MPH (4 KT):0","Visibility":"greater than 7 mile(s):0","Sky conditions":"mostly cloudy","Temperature":"33 F (1 C)","Windchill":"28 F (-2 C):1","Dew Point":"30 F (-1 C)","Relative Humidity":"86%","Pressure (altimeter)":"29.97 in. Hg (1015 hPa)","ob":"EPGD 241300Z 32004KT 9999 BKN030 01/M01 Q1015 R11/290095","cycle":"13"},
{"_id":"4495a8a111ec85eb6d2389a681e4f9d7","_rev":"1-f89fa82870ba7413c11193794e806244","Location":"Gdansk-Rebiechowo, Poland (EPGD) 54-23N 018-28E 138M","Date":"Jan 03, 2012 - 05:00 AM EST / 2012.01.03 1000 UTC","Wind":"from the SW (230 degrees) at 13 MPH (11 KT) (direction variable):0","Visibility":"greater than 7 mile(s):0","Sky conditions":"partly cloudy","Temperature":"39 F (4 C)","Dew Point":"32 F (0 C)","Relative Humidity":"75%","Pressure (altimeter)":"29.91 in. Hg (1013 hPa)","ob":"EPGD 031000Z 23011KT 190V270 9999 FEW013 SCT015 04/00 Q1013","cycle":"10"},
{"_id":"4495a8a111ec85eb6d2389a681e4ff84","_rev":"1-938f36b7caa5a88588c7163405287237","Location":"Gdansk-Rebiechowo, Poland (EPGD) 54-23N 018-28E 138M","Date":"Dec 24, 2011 - 06:00 PM EST / 2011.12.24 2300 UTC","Wind":"from the WNW (290 degrees) at 16 MPH (14 KT):0","Visibility":"greater than 7 mile(s):0","Sky conditions":"mostly cloudy","Temperature":"37 F (3 C)","Dew Point":"33 F (1 C)","Relative Humidity":"86%","Pressure (altimeter)":"30.00 in. Hg (1016 hPa)","ob":"EPGD 242300Z 29014KT 9999 BKN013 03/01 Q1016","cycle":"23"},
{"_id":"4495a8a111ec85eb6d2389a681e505b5","_rev":"1-1a4f7c2b04c51a81c48cd0b2dfd0eb27","Location":"Gdansk-Rebiechowo, Poland (EPGD) 54-23N 018-28E 138M","Date":"Dec 22, 2011 - 08:00 AM EST / 2011.12.22 1300 UTC","Wind":"from the SSW (200 degrees) at 3 MPH (3 KT) (direction variable):0","Visibility":"greater than 7 mile(s):0","Temperature":"30 F (-1 C)","Dew Point":"23 F (-5 C)","Relative Humidity":"74%","Pressure (altimeter)":"30.09 in. Hg (1019 hPa)","ob":"EPGD 221300Z 20003KT 140V240 CAVOK M01/M05 Q1019","cycle":"13"},
{"_id":"4495a8a111ec85eb6d2389a681e50a1a","_rev":"1-d6b6b789769d3bf4db90744a44720264","Location":"Gdansk-Rebiechowo, Poland (EPGD) 54-23N 018-28E 138M","Date":"Jan 23, 2012 - 11:00 AM EST / 2012.01.23 1600 UTC","Wind":"from the W (280 degrees) at 10 MPH (9 KT):0","Visibility":"greater than 7 mile(s):0","Sky conditions":"mostly cloudy","Temperature":"33 F (1 C)","Windchill":"24 F (-4 C):1","Dew Point":"32 F (0 C)","Relative Humidity":"93%","Pressure (altimeter)":"29.65 in. Hg (1004 hPa)","ob":"EPGD 231600Z 28009KT 9999 FEW009 BKN041 01/M00 Q1004","cycle":"16"},
{"_id":"4495a8a111ec85eb6d2389a681e51261","_rev":"1-82877829bfd76affbc41ce7b083a3e8e","Location":"Gdansk-Rebiechowo, Poland (EPGD) 54-23N 018-28E 138M","Date":"Dec 15, 2011 - 12:00 PM EST / 2011.12.15 1700 UTC","Wind":"from the S (190 degrees) at 8 MPH (7 KT):0","Visibility":"greater than 7 mile(s):0","Temperature":"37 F (3 C)","Dew Point":"32 F (0 C)","Relative Humidity":"80%","Pressure (altimeter)":"29.65 in. Hg (1004 hPa)","ob":"EPGD 151700Z 19007KT CAVOK 03/00 Q1004","cycle":"17"},
{"_id":"4495a8a111ec85eb6d2389a681e51443","_rev":"1-158860ac4ffa8a282af594b57e96aa33","Location":"Gdansk-Rebiechowo, Poland (EPGD) 54-23N 018-28E 138M","Date":"Jan 18, 2012 - 10:00 AM EST / 2012.01.18 1500 UTC","Wind":"from the SW (230 degrees) at 6 MPH (5 KT) (direction variable):0","Visibility":"1 mile(s):0","Sky conditions":"mostly cloudy","Weather":"light drizzle; mist","Temperature":"33 F (1 C)","Windchill":"26 F (-3 C):1","Dew Point":"32 F (0 C)","Relative Humidity":"93%","Pressure (altimeter)":"30.09 in. Hg (1019 hPa)","ob":"EPGD 181500Z 23005KT 190V280 3000 -DZ BR BKN006 01/00 Q1019","cycle":"15"},
{"_id":"4495a8a111ec85eb6d2389a681e52247","_rev":"1-515f11c4b9b31c486a0e9714bd7f3f54","Location":"Gdansk-Rebiechowo, Poland (EPGD) 54-23N 018-28E 138M","Date":"Feb 08, 2012 - 03:00 PM EST / 2012.02.08 2000 UTC","Wind":"from the W (280 degrees) at 2 MPH (2 KT):0","Visibility":"1 mile(s):0","Sky conditions":"mostly cloudy","Weather":"light snow; mist","Temperature":"24 F (-4 C)","Dew Point":"21 F (-6 C)","Relative Humidity":"85%","Pressure (altimeter)":"30.50 in. Hg (1033 hPa)","ob":"EPGD 082000Z 28002KT 3000 -SN BR FEW006 BKN011 M04/M06 Q1033 R11/490042","cycle":"20"},
{"_id":"4495a8a111ec85eb6d2389a681e524b8","_rev":"1-6e78b44d8c1e59507df589ce7af3a9f7","Location":"Gdansk-Rebiechowo, Poland (EPGD) 54-23N 018-28E 138M","Date":"Dec 16, 2011 - 02:00 AM EST / 2011.12.16 0700 UTC","Wind":"from the S (170 degrees) at 5 MPH (4 KT) (direction variable):0","Visibility":"greater than 7 mile(s):0","Temperature":"33 F (1 C)","Windchill":"28 F (-2 C):1","Dew Point":"30 F (-1 C)","Relative Humidity":"86%","Pressure (altimeter)":"29.44 in. Hg (0997 hPa)","ob":"EPGD 160700Z 17004KT 120V220 CAVOK 01/M01 Q0997","cycle":"7"},
{"_id":"4495a8a111ec85eb6d2389a681e52a4e","_rev":"1-c8cb7ca290f4670ae5a404032679f8b8","Location":"Gdansk-Rebiechowo, Poland (EPGD) 54-23N 018-28E 138M","Date":"Feb 19, 2012 - 10:00 PM EST / 2012.02.20 0300 UTC","Wind":"from the W (260 degrees) at 15 MPH (13 KT):0","Visibility":"greater than 7 mile(s):0","Sky conditions":"mostly cloudy","Temperature":"32 F (0 C)","Windchill":"21 F (-6 C):1","Dew Point":"26 F (-3 C)","Relative Humidity":"80%","Pressure (altimeter)":"30.00 in. Hg (1016 hPa)","ob":"EPGD 200300Z 26013KT 9999 BKN017 00/M03 Q1016 R11/290095","cycle":"3"},
{"_id":"4495a8a111ec85eb6d2389a681e539ec","_rev":"1-7354ee702384634a3f96dca7ee8020b4","Location":"Gdansk-Rebiechowo, Poland (EPGD) 54-23N 018-28E 138M","Date":"Feb 12, 2012 - 10:00 PM EST / 2012.02.13 0300 UTC","Wind":"from the W (270 degrees) at 5 MPH (4 KT):0","Visibility":"3 mile(s):0","Sky conditions":"mostly cloudy","Temperature":"24 F (-4 C)","Windchill":"17 F (-8 C):1","Dew Point":"23 F (-5 C)","Relative Humidity":"92%","Pressure (altimeter)":"30.03 in. Hg (1017 hPa)","ob":"EPGD 130300Z 27004KT 6000 BKN005 M04/M05 Q1017 R29/490233","cycle":"3"},
{"_id":"4495a8a111ec85eb6d2389a681e53b64","_rev":"1-192399bfb2b4a53c8e47178358f2c38a","Location":"Gdansk-Rebiechowo, Poland (EPGD) 54-23N 018-28E 138M","Date":"Dec 27, 2011 - 05:00 PM EST / 2011.12.27 2200 UTC","Wind":"from the W (270 degrees) at 9 MPH (8 KT):0","Visibility":"greater than 7 mile(s):0","Temperature":"37 F (3 C)","Dew Point":"33 F (1 C)","Relative Humidity":"86%","Pressure (altimeter)":"30.36 in. Hg (1028 hPa)","ob":"EPGD 272200Z 27008KT CAVOK 03/01 Q1028","cycle":"22"},
{"_id":"4495a8a111ec85eb6d2389a681e549b3","_rev":"1-2ec2470bcaa727ec18a2cda456da04cc","Location":"Gdansk-Rebiechowo, Poland (EPGD) 54-23N 018-28E 138M","Date":"Jan 05, 2012 - 09:00 PM EST / 2012.01.06 0200 UTC","Wind":"from the E (090 degrees) at 2 MPH (2 KT):0","Visibility":"greater than 7 mile(s):0","Sky conditions":"mostly cloudy","Weather":"light rain showers","Temperature":"35 F (2 C)","Dew Point":"33 F (1 C)","Relative Humidity":"93%","Pressure (altimeter)":"28.82 in. Hg (0976 hPa)","ob":"EPGD 060200Z 09002KT 9999 -SHRA BKN006 02/01 Q0976","cycle":"2"},
{"_id":"4495a8a111ec85eb6d2389a681e5509a","_rev":"1-4d50ef90edc556c53ddd3c428ab7816b","Location":"Gdansk-Rebiechowo, Poland (EPGD) 54-23N 018-28E 138M","Date":"Feb 08, 2012 - 09:00 AM EST / 2012.02.08 1400 UTC","Wind":"from the W (270 degrees) at 3 MPH (3 KT):0","Visibility":"4 mile(s):0","Sky conditions":"mostly cloudy","Weather":"light snow","Temperature":"26 F (-3 C)","Dew Point":"19 F (-7 C)","Relative Humidity":"73%","Pressure (altimeter)":"30.62 in. Hg (1037 hPa)","ob":"EPGD 081400Z 27003KT 8000 -SN BKN021 M03/M07 Q1037 R11/190095","cycle":"14"},
{"_id":"4495a8a111ec85eb6d2389a681e55c9d","_rev":"1-e4a59d64eecec1d85ebd52e6aa31c5c7","Location":"Gdansk-Rebiechowo, Poland (EPGD) 54-23N 018-28E 138M","Date":"Dec 31, 2011 - 07:00 PM EST / 2012.01.01 0000 UTC","Wind":"from the WSW (240 degrees) at 2 MPH (2 KT):0","Visibility":"greater than 7 mile(s):0","Sky conditions":"partly cloudy","Temperature":"28 F (-2 C)","Dew Point":"26 F (-3 C)","Relative Humidity":"92%","Pressure (altimeter)":"29.91 in. Hg (1013 hPa)","ob":"EPGD 010000Z 24002KT 9999 SCT019 M02/M03 Q1013","cycle":"0"},
{"_id":"4495a8a111ec85eb6d2389a681e5649f","_rev":"1-9a498a009c96ad6053fb84816ebd9f26","Location":"Gdansk-Rebiechowo, Poland (EPGD) 54-23N 018-28E 138M","Date":"Jan 20, 2012 - 11:00 AM EST / 2012.01.20 1600 UTC","Wind":"from the S (180 degrees) at 3 MPH (3 KT) (direction variable):0","Visibility":"greater than 7 mile(s):0","Sky conditions":"partly cloudy","Temperature":"32 F (0 C)","Dew Point":"30 F (-1 C)","Relative Humidity":"92%","Pressure (altimeter)":"29.53 in. Hg (1000 hPa)","ob":"EPGD 201600Z 18003KT 140V210 9999 FEW007 SCT018 00/M01 Q1000 R11/290095","cycle":"16"},
{"_id":"4495a8a111ec85eb6d2389a681e56c2d","_rev":"1-a74bf9dddefb3038ef3faf24e45b5108","Location":"Gdansk-Rebiechowo, Poland (EPGD) 54-23N 018-28E 138M","Date":"Jan 09, 2012 - 05:00 PM EST / 2012.01.09 2200 UTC","Wind":"Calm:0","Visibility":"greater than 7 mile(s):0","Sky conditions":"mostly cloudy","Temperature":"30 F (-1 C)","Dew Point":"26 F (-3 C)","Relative Humidity":"86%","Pressure (altimeter)":"30.03 in. Hg (1017 hPa)","ob":"EPGD 092200Z 00000KT 9999 BKN035 M01/M03 Q1017 R11/290095","cycle":"22"},
{"_id":"4495a8a111ec85eb6d2389a681e573d6","_rev":"1-c994cac24fff352c7c7bdf0adce74796","Location":"Gdansk-Rebiechowo, Poland (EPGD) 54-23N 018-28E 138M","Date":"Dec 16, 2011 - 10:00 AM EST / 2011.12.16 1500 UTC","Wind":"from the ESE (110 degrees) at 15 MPH (13 KT):0","Visibility":"greater than 7 mile(s):0","Temperature":"35 F (2 C)","Windchill":"24 F (-4 C):1","Dew Point":"32 F (0 C)","Relative Humidity":"86%","Pressure (altimeter)":"29.06 in. Hg (0984 hPa)","ob":"EPGD 161500Z 11013KT CAVOK 02/M00 Q0984","cycle":"15"},
{"_id":"4495a8a111ec85eb6d2389a681e5779a","_rev":"1-eea6ec43989e32ff2c61bfdfc59e7156","Location":"Gdansk-Rebiechowo, Poland (EPGD) 54-23N 018-28E 138M","Date":"Dec 31, 2011 - 09:00 PM EST / 2012.01.01 0200 UTC","Wind":"from the SSW (210 degrees) at 3 MPH (3 KT) (direction variable):0","Visibility":"greater than 7 mile(s):0","Sky conditions":"mostly cloudy","Temperature":"30 F (-1 C)","Dew Point":"26 F (-3 C)","Relative Humidity":"86%","Pressure (altimeter)":"29.91 in. Hg (1013 hPa)","ob":"EPGD 010200Z 21003KT 170V260 9999 BKN015 M01/M03 Q1013","cycle":"2"},
{"_id":"4495a8a111ec85eb6d2389a681e57aa1","_rev":"1-ffd04d06062e0314ef118cd4339388fd","Location":"Gdansk-Rebiechowo, Poland (EPGD) 54-23N 018-28E 138M","Date":"Jan 09, 2012 - 09:00 AM EST / 2012.01.09 1400 UTC","Wind":"from the W (280 degrees) at 9 MPH (8 KT):0","Visibility":"greater than 7 mile(s):0","Sky conditions":"mostly cloudy","Temperature":"30 F (-1 C)","Windchill":"21 F (-6 C):1","Dew Point":"24 F (-4 C)","Relative Humidity":"80%","Pressure (altimeter)":"30.09 in. Hg (1019 hPa)","ob":"EPGD 091400Z 28008KT 9999 BKN019 M01/M04 Q1019 R11/290095","cycle":"14"},
{"_id":"4495a8a111ec85eb6d2389a681e57e89","_rev":"1-660d610ad9e8e70aff13b31347b4441a","Location":"Gdansk-Rebiechowo, Poland (EPGD) 54-23N 018-28E 138M","Date":"Dec 28, 2011 - 11:00 AM EST / 2011.12.28 1600 UTC","Wind":"from the SSW (210 degrees) at 10 MPH (9 KT) gusting to 23 MPH (20 KT) (direction variable):0","Visibility":"4 mile(s):0","Sky conditions":"mostly cloudy","Temperature":"42 F (6 C)","Dew Point":"39 F (4 C)","Relative Humidity":"86%","Pressure (altimeter)":"30.03 in. Hg (1017 hPa)","ob":"EPGD 281600Z 21009G20KT 170V260 8000 SCT007 BKN013 06/04 Q1017","cycle":"16"},
{"_id":"4495a8a111ec85eb6d2389a681e584af","_rev":"1-1795759db165e039d56e83f2a0c8e006","Location":"Gdansk-Rebiechowo, Poland (EPGD) 54-23N 018-28E 138M","Date":"Jan 28, 2012 - 10:00 AM EST / 2012.01.28 1500 UTC","Wind":"from the ESE (110 degrees) at 12 MPH (10 KT):0","Visibility":"4 mile(s):0","Temperature":"12 F (-11 C)","Windchill":"-2 F (-19 C):1","Dew Point":"6 F (-14 C)","Relative Humidity":"78%","Pressure (altimeter)":"30.56 in. Hg (1035 hPa)","ob":"EPGD 281500Z 11010KT 8000 NSC M11/M14 Q1035 R11/190095","cycle":"15"},
{"_id":"4495a8a111ec85eb6d2389a681e594a2","_rev":"1-84b749d9dabaa3f22d0f9f4cf51db51e","Location":"Gdansk-Rebiechowo, Poland (EPGD) 54-23N 018-28E 138M","Date":"Jan 06, 2012 - 10:00 PM EST / 2012.01.07 0300 UTC","Wind":"from the WSW (240 degrees) at 8 MPH (7 KT) (direction variable):0","Visibility":"greater than 7 mile(s):0","Sky conditions":"partly cloudy","Temperature":"32 F (0 C)","Windchill":"24 F (-4 C):1","Dew Point":"28 F (-2 C)","Relative Humidity":"86%","Pressure (altimeter)":"29.71 in. Hg (1006 hPa)","ob":"EPGD 070300Z 24007KT 210V270 9999 SCT009 M00/M02 Q1006 R11/190095","cycle":"3"},
{"_id":"4495a8a111ec85eb6d2389a681e59c6b","_rev":"1-b54270b810b33960aa73f1c734083721","Location":"Gdansk-Rebiechowo, Poland (EPGD) 54-23N 018-28E 138M","Date":"Jan 23, 2012 - 12:00 AM EST / 2012.01.23 0500 UTC","Wind":"from the W (280 degrees) at 8 MPH (7 KT):0","Visibility":"greater than 7 mile(s):0","Sky conditions":"mostly cloudy","Temperature":"33 F (1 C)","Windchill":"26 F (-3 C):1","Dew Point":"32 F (0 C)","Relative Humidity":"93%","Pressure (altimeter)":"29.44 in. Hg (0997 hPa)","ob":"EPGD 230500Z 28007KT 9999 FEW009 BKN035 01/M00 Q0997 R11/290066","cycle":"5"},
{"_id":"4495a8a111ec85eb6d2389a681e59d45","_rev":"1-05981230c3a6b22fa2d71f966cfdf756","Location":"Gdansk-Rebiechowo, Poland (EPGD) 54-23N 018-28E 138M","Date":"Jan 22, 2012 - 04:00 PM EST / 2012.01.22 2100 UTC","Wind":"from the WSW (250 degrees) at 3 MPH (3 KT):0","Visibility":"greater than 7 mile(s):0","Sky conditions":"mostly cloudy","Temperature":"32 F (0 C)","Dew Point":"30 F (-1 C)","Relative Humidity":"92%","Pressure (altimeter)":"29.32 in. Hg (0993 hPa)","ob":"EPGD 222100Z 25003KT 9999 FEW005 SCT008 BKN019 00/M01 Q0993 R11/290066","cycle":"21"},
{"_id":"4495a8a111ec85eb6d2389a681e5a9af","_rev":"1-03352cf480d1b39649972503c1f46c35","Location":"Gdansk-Rebiechowo, Poland (EPGD) 54-23N 018-28E 138M","Date":"Jan 27, 2012 - 05:00 AM EST / 2012.01.27 1000 UTC","Wind":"from the SE (130 degrees) at 6 MPH (5 KT) (direction variable):0","Visibility":"3 mile(s):0","Sky conditions":"mostly clear","Weather":"mist","Temperature":"14 F (-10 C)","Windchill":"5 F (-15 C):1","Dew Point":"10 F (-12 C)","Relative Humidity":"85%","Pressure (altimeter)":"30.47 in. Hg (1032 hPa)","ob":"EPGD 271000Z 13005KT 110V170 5000 BR FEW007 M10/M12 Q1032 R11/190095","cycle":"10"},
{"_id":"4495a8a111ec85eb6d2389a681e5b497","_rev":"1-1611aedccf9df6f47a612a6846c74cdb","Location":"Gdansk-Rebiechowo, Poland (EPGD) 54-23N 018-28E 138M","Date":"Feb 05, 2012 - 11:00 AM EST / 2012.02.05 1600 UTC","Wind":"from the SE (130 degrees) at 3 MPH (3 KT):0","Visibility":"greater than 7 mile(s):0","Temperature":"1 F (-17 C)","Dew Point":"-7 F (-22 C)","Relative Humidity":"65%","Pressure (altimeter)":"30.71 in. Hg (1040 hPa)","ob":"EPGD 051600Z 13003KT CAVOK M17/M22 Q1040 R11/190095","cycle":"16"},
{"_id":"4495a8a111ec85eb6d2389a681e5b779","_rev":"1-0401c1d575d4d22c5f6c6583b773af17","Location":"Gdansk-Rebiechowo, Poland (EPGD) 54-23N 018-28E 138M","Date":"Dec 17, 2011 - 07:00 AM EST / 2011.12.17 1200 UTC","Wind":"from the WSW (250 degrees) at 16 MPH (14 KT) (direction variable):0","Visibility":"greater than 7 mile(s):0","Sky conditions":"mostly cloudy","Temperature":"37 F (3 C)","Dew Point":"33 F (1 C)","Relative Humidity":"86%","Pressure (altimeter)":"28.82 in. Hg (0976 hPa)","ob":"EPGD 171200Z 25014KT 220V280 9999 BKN009 03/01 Q0976 R11/290064","cycle":"12"},
{"_id":"4495a8a111ec85eb6d2389a681e5c179","_rev":"1-8e68a10879572181d8f0e391dfc62ae3","Location":"Gdansk-Rebiechowo, Poland (EPGD) 54-23N 018-28E 138M","Date":"Feb 09, 2012 - 10:00 AM EST / 2012.02.09 1500 UTC","Wind":"from the ENE (070 degrees) at 9 MPH (8 KT):0","Visibility":"greater than 7 mile(s):0","Sky conditions":"mostly cloudy","Temperature":"17 F (-8 C)","Windchill":"5 F (-15 C):1","Dew Point":"12 F (-11 C)","Relative Humidity":"78%","Pressure (altimeter)":"30.62 in. Hg (1037 hPa)","ob":"EPGD 091500Z 07008KT 9999 FEW007 BKN013 M08/M11 Q1037 R11/490333","cycle":"15"},
{"_id":"4495a8a111ec85eb6d2389a681e5cbf4","_rev":"1-29e8a3cba1e745216e3cdaafcd9668b5","Location":"Gdansk-Rebiechowo, Poland (EPGD) 54-23N 018-28E 138M","Date":"Jan 13, 2012 - 04:00 PM EST / 2012.01.13 2100 UTC","Wind":"from the NW (310 degrees) at 14 MPH (12 KT):0","Visibility":"greater than 7 mile(s):0","Sky conditions":"partly cloudy","Temperature":"32 F (0 C)","Windchill":"21 F (-6 C):1","Dew Point":"24 F (-4 C)","Relative Humidity":"74%","Pressure (altimeter)":"29.56 in. Hg (1001 hPa)","ob":"EPGD 132100Z 31012KT 9999 FEW013 SCT035 00/M04 Q1001 R11/590195","cycle":"21"},
{"_id":"4495a8a111ec85eb6d2389a681e5d407","_rev":"1-7fe93055d59c0a86c21c5aa1f5193cba","Location":"Gdansk-Rebiechowo, Poland (EPGD) 54-23N 018-28E 138M","Date":"Jan 22, 2012 - 08:00 AM EST / 2012.01.22 1300 UTC","Wind":"from the SW (220 degrees) at 6 MPH (5 KT) (direction variable):0","Visibility":"greater than 7 mile(s):0","Sky conditions":"mostly cloudy","Temperature":"35 F (2 C)","Windchill":"30 F (-1 C):1","Dew Point":"33 F (1 C)","Relative Humidity":"93%","Pressure (altimeter)":"29.23 in. Hg (0990 hPa)","ob":"EPGD 221300Z 22005KT 170V260 9999 FEW009 BKN017 02/01 Q0990 R11/290066","cycle":"13"},
{"_id":"4495a8a111ec85eb6d2389a681e5e11a","_rev":"1-6753dc5d1c8e54329377b2ed3df74f43","Location":"Gdansk-Rebiechowo, Poland (EPGD) 54-23N 018-28E 138M","Date":"Feb 05, 2012 - 01:00 PM EST / 2012.02.05 1800 UTC","Wind":"Calm:0","Visibility":"greater than 7 mile(s):0","Temperature":"-4 F (-20 C)","Dew Point":"-9 F (-23 C)","Relative Humidity":"76%","Pressure (altimeter)":"30.71 in. Hg (1040 hPa)","ob":"EPGD 051800Z 00000KT CAVOK M20/M23 Q1040 R11/190095","cycle":"18"},
{"_id":"4495a8a111ec85eb6d2389a681e5e5ce","_rev":"1-8323d6557d0150975558cc57a6368870","Location":"Gdansk-Rebiechowo, Poland (EPGD) 54-23N 018-28E 138M","Date":"Dec 19, 2011 - 05:00 AM EST / 2011.12.19 1000 UTC","Wind":"from the SW (220 degrees) at 14 MPH (12 KT) (direction variable):0","Visibility":"greater than 7 mile(s):0","Sky conditions":"mostly cloudy","Temperature":"35 F (2 C)","Windchill":"26 F (-3 C):1","Dew Point":"30 F (-1 C)","Relative Humidity":"80%","Pressure (altimeter)":"29.71 in. Hg (1006 hPa)","ob":"EPGD 191000Z 22012KT 180V260 9999 BKN017 02/M01 Q1006 R11/290062","cycle":"10"},
{"_id":"4495a8a111ec85eb6d2389a681e5f344","_rev":"1-74f7cb1a123bf8f9b09fbc4b5c3a2a68","Location":"Gdansk-Rebiechowo, Poland (EPGD) 54-23N 018-28E 138M","Date":"Dec 23, 2011 - 01:00 AM EST / 2011.12.23 0600 UTC","Wind":"from the S (190 degrees) at 5 MPH (4 KT) (direction variable):0","Visibility":"2 mile(s):0","Sky conditions":"overcast","Weather":"mist","Temperature":"30 F (-1 C)","Windchill":"24 F (-4 C):1","Dew Point":"28 F (-2 C)","Relative Humidity":"92%","Pressure (altimeter)":"30.06 in. Hg (1018 hPa)","ob":"EPGD 230600Z 19004KT 160V220 4000 BR OVC004 M01/M02 Q1018","cycle":"6"},
{"_id":"4495a8a111ec85eb6d2389a681e5fc5d","_rev":"1-2c74c59458cc56de8c4f875a3d4b0be2","Location":"Gdansk-Rebiechowo, Poland (EPGD) 54-23N 018-28E 138M","Date":"Jan 19, 2012 - 01:00 AM EST / 2012.01.19 0600 UTC","Wind":"from the W (280 degrees) at 17 MPH (15 KT):0","Visibility":"greater than 7 mile(s):0","Sky conditions":"mostly cloudy","Temperature":"35 F (2 C)","Windchill":"24 F (-4 C):1","Dew Point":"32 F (0 C)","Relative Humidity":"86%","Pressure (altimeter)":"29.74 in. Hg (1007 hPa)","ob":"EPGD 190600Z 28015KT 9999 BKN011 02/00 Q1007 R11/290095","cycle":"6"},
{"_id":"4495a8a111ec85eb6d2389a681e60493","_rev":"1-e87925cac59a64a7caaee3b30c9ae7f9","Location":"Gdansk-Rebiechowo, Poland (EPGD) 54-23N 018-28E 138M","Date":"Dec 28, 2011 - 10:00 AM EST / 2011.12.28 1500 UTC","Wind":"from the SSW (200 degrees) at 8 MPH (7 KT) (direction variable):0","Visibility":"3 mile(s):0","Sky conditions":"mostly cloudy","Temperature":"41 F (5 C)","Dew Point":"39 F (4 C)","Relative Humidity":"93%","Pressure (altimeter)":"30.09 in. Hg (1019 hPa)","ob":"EPGD 281500Z 20007KT 150V230 6000 BKN009 05/04 Q1019","cycle":"15"},
{"_id":"4495a8a111ec85eb6d2389a681e60ac5","_rev":"1-b91f1e3827f4b3f0c656ec015ad1eacb","Location":"Gdansk-Rebiechowo, Poland (EPGD) 54-23N 018-28E 138M","Date":"Jan 08, 2012 - 11:00 AM EST / 2012.01.08 1600 UTC","Wind":"from the WNW (300 degrees) at 14 MPH (12 KT):0","Visibility":"greater than 7 mile(s):0","Sky conditions":"mostly cloudy","Temperature":"37 F (3 C)","Dew Point":"33 F (1 C)","Relative Humidity":"86%","Pressure (altimeter)":"29.80 in. Hg (1009 hPa)","ob":"EPGD 081600Z 30012KT 9999 BKN009 03/01 Q1009","cycle":"16"},
{"_id":"4495a8a111ec85eb6d2389a681e60b69","_rev":"1-44ecb21e61d7ceda0f126bcad0af2f53","Location":"Gdansk-Rebiechowo, Poland (EPGD) 54-23N 018-28E 138M","Date":"Feb 10, 2012 - 06:00 PM EST / 2012.02.10 2300 UTC","Wind":"Variable at 1 MPH (1 KT):0","Visibility":"4 mile(s):0","Sky conditions":"mostly clear","Temperature":"3 F (-16 C)","Dew Point":"-2 F (-19 C)","Relative Humidity":"77%","Pressure (altimeter)":"30.68 in. Hg (1039 hPa)","ob":"EPGD 102300Z VRB01KT 7000 FEW007 M16/M19 Q1039 R11/090095","cycle":"23"},
{"_id":"4495a8a111ec85eb6d2389a681e61acc","_rev":"1-7f33d1543fc3ffd04d7bcffc662a8353","Location":"Gdansk-Rebiechowo, Poland (EPGD) 54-23N 018-28E 138M","Date":"Jan 10, 2012 - 06:00 AM EST / 2012.01.10 1100 UTC","Wind":"Calm:0","Visibility":"less than 1 mile:0","Sky conditions":"obscured","Weather":"freezing fog","Temperature":"32 F (0 C)","Dew Point":"30 F (-1 C)","Relative Humidity":"92%","Pressure (altimeter)":"30.12 in. Hg (1020 hPa)","ob":"EPGD 101100Z 00000KT 0800 R29/1700 FZFG VV003 M00/M01 Q1020 R11/610259","cycle":"11"},
{"_id":"4495a8a111ec85eb6d2389a681e62959","_rev":"1-2c5c240b2c963cd6b99b6bbd72a742cd","Location":"Gdansk-Rebiechowo, Poland (EPGD) 54-23N 018-28E 138M","Date":"Jan 30, 2012 - 11:00 AM EST / 2012.01.30 1600 UTC","Wind":"from the E (100 degrees) at 6 MPH (5 KT):0","Visibility":"greater than 7 mile(s):0","Temperature":"8 F (-13 C)","Windchill":"-2 F (-19 C):1","Dew Point":"1 F (-17 C)","Relative Humidity":"71%","Pressure (altimeter)":"30.77 in. Hg (1042 hPa)","ob":"EPGD 301600Z 10005KT CAVOK M13/M17 Q1042","cycle":"16"},
{"_id":"4495a8a111ec85eb6d2389a681e63712","_rev":"1-3ffd0dcf735b5b083b1be1e468b619af","Location":"Gdansk-Rebiechowo, Poland (EPGD) 54-23N 018-28E 138M","Date":"Jan 02, 2012 - 09:00 PM EST / 2012.01.03 0200 UTC","Wind":"from the W (260 degrees) at 7 MPH (6 KT):0","Visibility":"greater than 7 mile(s):0","Temperature":"41 F (5 C)","Dew Point":"37 F (3 C)","Relative Humidity":"86%","Pressure (altimeter)":"29.83 in. Hg (1010 hPa)","ob":"EPGD 030200Z 26006KT CAVOK 05/03 Q1010","cycle":"2"},
{"_id":"4495a8a111ec85eb6d2389a681e6400c","_rev":"1-5bf601df043e57917d79a1a2b23e865a","Location":"Gdansk-Rebiechowo, Poland (EPGD) 54-23N 018-28E 138M","Date":"Feb 17, 2012 - 03:00 AM EST / 2012.02.17 0800 UTC","Wind":"from the SSW (210 degrees) at 5 MPH (4 KT) (direction variable):0","Visibility":"1 mile(s):0","Sky conditions":"mostly cloudy","Weather":"mist","Temperature":"30 F (-1 C)","Windchill":"24 F (-4 C):1","Dew Point":"28 F (-2 C)","Relative Humidity":"92%","Pressure (altimeter)":"29.71 in. Hg (1006 hPa)","ob":"EPGD 170800Z 21004KT 160V260 2500 BR BKN005 M01/M02 Q1006 R11/490338","cycle":"8"},
{"_id":"4495a8a111ec85eb6d2389a681e64434","_rev":"1-2ebf73e6414698fe66f7dd4a730dee1e","Location":"Gdansk-Rebiechowo, Poland (EPGD) 54-23N 018-28E 138M","Date":"Jan 10, 2012 - 06:00 PM EST / 2012.01.10 2300 UTC","Wind":"from the WSW (240 degrees) at 5 MPH (4 KT):0","Visibility":"greater than 7 mile(s):0","Sky conditions":"mostly cloudy","Temperature":"33 F (1 C)","Windchill":"28 F (-2 C):1","Dew Point":"32 F (0 C)","Relative Humidity":"93%","Pressure (altimeter)":"30.24 in. Hg (1024 hPa)","ob":"EPGD 102300Z 24004KT 9999 BKN019 01/M00 Q1024 R11/290060","cycle":"23"},
{"_id":"4495a8a111ec85eb6d2389a681e64a78","_rev":"1-26478b916e2b4b3f8a5af3a79034e7d5","Location":"Gdansk-Rebiechowo, Poland (EPGD) 54-23N 018-28E 138M","Date":"Feb 03, 2012 - 02:00 PM EST / 2012.02.03 1900 UTC","Wind":"from the SW (230 degrees) at 3 MPH (3 KT) (direction variable):0","Visibility":"1 mile(s):0","Sky conditions":"mostly cloudy","Weather":"light snow; mist","Temperature":"12 F (-11 C)","Dew Point":"8 F (-13 C)","Relative Humidity":"85%","Pressure (altimeter)":"30.53 in. Hg (1034 hPa)","ob":"EPGD 031900Z 23003KT 180V280 2000 -SN BR BKN009 M11/M13 Q1034 R11/490334","cycle":"19"},
{"_id":"4495a8a111ec85eb6d2389a681e6519c","_rev":"1-19f712513510e936637c9e5aa4d32c35","Location":"Gdansk-Rebiechowo, Poland (EPGD) 54-23N 018-28E 138M","Date":"Jan 07, 2012 - 09:00 PM EST / 2012.01.08 0200 UTC","Wind":"from the W (260 degrees) at 9 MPH (8 KT):0","Visibility":"greater than 7 mile(s):0","Sky conditions":"mostly cloudy","Weather":"light rain","Temperature":"39 F (4 C)","Dew Point":"37 F (3 C)","Relative Humidity":"93%","Pressure (altimeter)":"29.56 in. Hg (1001 hPa)","ob":"EPGD 080200Z 26008KT 9999 -RA BKN009 04/03 Q1001","cycle":"2"},
{"_id":"4495a8a111ec85eb6d2389a681e65e40","_rev":"1-f1a13bfa6b361ce438682384e7da50f1","Location":"Gdansk-Rebiechowo, Poland (EPGD) 54-23N 018-28E 138M","Date":"Feb 09, 2012 - 10:00 PM EST / 2012.02.10 0300 UTC","Wind":"from the NW (310 degrees) at 2 MPH (2 KT):0","Visibility":"greater than 7 mile(s):0","Sky conditions":"partly cloudy","Temperature":"3 F (-16 C)","Dew Point":"0 F (-18 C)","Relative Humidity":"84%","Pressure (altimeter)":"30.71 in. Hg (1040 hPa)","ob":"EPGD 100300Z 31002KT 9999 FEW011 SCT020 M16/M18 Q1040 R11/090095","cycle":"3"},
{"_id":"4495a8a111ec85eb6d2389a681e66d35","_rev":"1-ccb482486876e3504426256cd9ebbc81","Location":"Gdansk-Rebiechowo, Poland (EPGD) 54-23N 018-28E 138M","Date":"Jan 17, 2012 - 02:00 AM EST / 2012.01.17 0700 UTC","Wind":"from the ESE (120 degrees) at 2 MPH (2 KT):0","Visibility":"1 mile(s):0","Sky conditions":"mostly cloudy","Weather":"mist","Temperature":"28 F (-2 C)","Dew Point":"26 F (-3 C)","Relative Humidity":"92%","Pressure (altimeter)":"30.15 in. Hg (1021 hPa)","ob":"EPGD 170700Z 12002KT 2000 BR BKN001 M02/M03 Q1021 R11/290053","cycle":"7"},
{"_id":"4495a8a111ec85eb6d2389a681e67c67","_rev":"1-e97ca1761f1d836b3e457df846c83d9b","Location":"Gdansk-Rebiechowo, Poland (EPGD) 54-23N 018-28E 138M","Date":"Jan 30, 2012 - 05:00 PM EST / 2012.01.30 2200 UTC","Wind":"from the E (100 degrees) at 9 MPH (8 KT):0","Visibility":"greater than 7 mile(s):0","Temperature":"8 F (-13 C)","Windchill":"-5 F (-21 C):2","Dew Point":"1 F (-17 C)","Relative Humidity":"71%","Pressure (altimeter)":"30.77 in. Hg (1042 hPa)","ob":"EPGD 302200Z 10008KT CAVOK M13/M17 Q1042","cycle":"22"},
{"_id":"4495a8a111ec85eb6d2389a681e68502","_rev":"1-1859a255eb64a1531386dbfb70a692e7","Location":"Gdansk-Rebiechowo, Poland (EPGD) 54-23N 018-28E 138M","Date":"Dec 21, 2011 - 01:00 PM EST / 2011.12.21 1800 UTC","Wind":"Calm:0","Visibility":"1 mile(s):0","Weather":"mist","Temperature":"21 F (-6 C)","Dew Point":"19 F (-7 C)","Relative Humidity":"92%","Pressure (altimeter)":"29.91 in. Hg (1013 hPa)","ob":"EPGD 211800Z 00000KT 2200 BR NSC M06/M07 Q1013 R11/190095","cycle":"18"},
{"_id":"4495a8a111ec85eb6d2389a681e68923","_rev":"1-7d798c4b973229fa85d1025d01dcf7f7","Location":"Gdansk-Rebiechowo, Poland (EPGD) 54-23N 018-28E 138M","Date":"Dec 14, 2011 - 05:00 PM EST / 2011.12.14 2200 UTC","Wind":"from the SSW (210 degrees) at 9 MPH (8 KT) (direction variable):0","Visibility":"greater than 7 mile(s):0","Sky conditions":"mostly cloudy","Weather":"light rain showers; Towering cumulus clouds observed","Temperature":"42 F (6 C)","Dew Point":"39 F (4 C)","Relative Humidity":"86%","Pressure (altimeter)":"29.44 in. Hg (0997 hPa)","ob":"EPGD 142200Z 21008KT 180V240 9999 -SHRA SCT009 BKN011TCU 06/04 Q0997","cycle":"22"},
{"_id":"4495a8a111ec85eb6d2389a681e69808","_rev":"1-91dc8b3b4c0b40e39a6820d99251250a","Location":"Gdansk-Rebiechowo, Poland (EPGD) 54-23N 018-28E 138M","Date":"Jan 27, 2012 - 06:00 AM EST / 2012.01.27 1100 UTC","Wind":"from the ESE (120 degrees) at 6 MPH (5 KT):0","Visibility":"3 mile(s):0","Sky conditions":"mostly clear","Temperature":"15 F (-9 C)","Windchill":"6 F (-14 C):1","Dew Point":"12 F (-11 C)","Relative Humidity":"85%","Pressure (altimeter)":"30.47 in. Hg (1032 hPa)","ob":"EPGD 271100Z 12005KT 6000 FEW008 M09/M11 Q1032 R11/190095","cycle":"11"},
{"_id":"4495a8a111ec85eb6d2389a681e69d49","_rev":"1-f14f096b41b145ab9127aa8134f6637f","Location":"Gdansk-Rebiechowo, Poland (EPGD) 54-23N 018-28E 138M","Date":"Feb 14, 2012 - 01:00 PM EST / 2012.02.14 1800 UTC","Wind":"from the SSW (210 degrees) at 10 MPH (9 KT) (direction variable):0","Visibility":"greater than 7 mile(s):0","Temperature":"26 F (-3 C)","Windchill":"15 F (-9 C):1","Dew Point":"19 F (-7 C)","Relative Humidity":"73%","Pressure (altimeter)":"29.62 in. Hg (1003 hPa)","ob":"EPGD 141800Z 21009KT 170V240 CAVOK M03/M07 Q1003 R29/190095","cycle":"18"},
{"_id":"4495a8a111ec85eb6d2389a681e69d8f","_rev":"1-cd3ade2ed258e796ff06aa58153a29b1","Location":"Gdansk-Rebiechowo, Poland (EPGD) 54-23N 018-28E 138M","Date":"Dec 25, 2011 - 02:00 AM EST / 2011.12.25 0700 UTC","Wind":"from the WSW (250 degrees) at 10 MPH (9 KT):0","Visibility":"greater than 7 mile(s):0","Sky conditions":"partly cloudy","Temperature":"35 F (2 C)","Windchill":"26 F (-3 C):1","Dew Point":"32 F (0 C)","Relative Humidity":"86%","Pressure (altimeter)":"30.12 in. Hg (1020 hPa)","ob":"EPGD 250700Z 25009KT 9999 SCT015 02/00 Q1020","cycle":"7"},
{"_id":"4495a8a111ec85eb6d2389a681e6a1ea","_rev":"1-f20f08459e2d85530a5805ccdd135618","Location":"Gdansk-Rebiechowo, Poland (EPGD) 54-23N 018-28E 138M","Date":"Dec 26, 2011 - 04:00 PM EST / 2011.12.26 2100 UTC","Wind":"from the W (260 degrees) at 20 MPH (17 KT):0","Visibility":"greater than 7 mile(s):0","Sky conditions":"mostly cloudy","Temperature":"50 F (10 C)","Dew Point":"44 F (7 C)","Relative Humidity":"81%","Pressure (altimeter)":"30.24 in. Hg (1024 hPa)","ob":"EPGD 262100Z 26017KT 9999 BKN017 10/07 Q1024","cycle":"21"},
{"_id":"4495a8a111ec85eb6d2389a681e6ae39","_rev":"1-edb90a05457c86af7b6e101b1079e970","Location":"Gdansk-Rebiechowo, Poland (EPGD) 54-23N 018-28E 138M","Date":"Jan 25, 2012 - 10:00 PM EST / 2012.01.26 0300 UTC","Wind":"from the NE (040 degrees) at 5 MPH (4 KT) (direction variable):0","Visibility":"4 mile(s):0","Sky conditions":"partly cloudy","Weather":"light snow showers; Towering cumulus clouds observed","Temperature":"28 F (-2 C)","Windchill":"23 F (-5 C):1","Dew Point":"26 F (-3 C)","Relative Humidity":"92%","Pressure (altimeter)":"30.30 in. Hg (1026 hPa)","ob":"EPGD 260300Z 04004KT 010V070 8000 -SHSN SCT006TCU SCT017 M02/M03 Q1026 R11/290095","cycle":"3"},
{"_id":"4495a8a111ec85eb6d2389a681e6b653","_rev":"1-c20716f19521d69b727bc4e4096220ad","Location":"Gdansk-Rebiechowo, Poland (EPGD) 54-23N 018-28E 138M","Date":"Jan 22, 2012 - 08:00 PM EST / 2012.01.23 0100 UTC","Wind":"from the WSW (240 degrees) at 6 MPH (5 KT) (direction variable):0","Visibility":"greater than 7 mile(s):0","Sky conditions":"mostly cloudy","Temperature":"33 F (1 C)","Windchill":"26 F (-3 C):1","Dew Point":"32 F (0 C)","Relative Humidity":"93%","Pressure (altimeter)":"29.38 in. Hg (0995 hPa)","ob":"EPGD 230100Z 24005KT 210V270 9999 FEW004 BKN010 01/M00 Q0995 R11/290066","cycle":"1"},
{"_id":"4495a8a111ec85eb6d2389a681e6c1e5","_rev":"1-6a281b6b39bda631e81a995f1d63bd0d","Location":"Gdansk-Rebiechowo, Poland (EPGD) 54-23N 018-28E 138M","Date":"Dec 28, 2011 - 07:00 PM EST / 2011.12.29 0000 UTC","Wind":"from the SSW (210 degrees) at 8 MPH (7 KT) (direction variable):0","Visibility":"greater than 7 mile(s):0","Sky conditions":"mostly cloudy","Temperature":"41 F (5 C)","Dew Point":"37 F (3 C)","Relative Humidity":"86%","Pressure (altimeter)":"29.85 in. Hg (1011 hPa)","ob":"EPGD 290000Z 21007KT 170V250 9999 BKN009 05/03 Q1011","cycle":"0"},
{"_id":"4495a8a111ec85eb6d2389a681e6cebe","_rev":"1-f9623919f3c0505e1cee2d1f5eb55b54","Location":"Gdansk-Rebiechowo, Poland (EPGD) 54-23N 018-28E 138M","Date":"Jan 30, 2012 - 03:00 PM EST / 2012.01.30 2000 UTC","Wind":"from the ESE (110 degrees) at 7 MPH (6 KT):0","Visibility":"greater than 7 mile(s):0","Temperature":"6 F (-14 C)","Windchill":"-5 F (-21 C):2","Dew Point":"1 F (-17 C)","Relative Humidity":"77%","Pressure (altimeter)":"30.77 in. Hg (1042 hPa)","ob":"EPGD 302000Z 11006KT CAVOK M14/M17 Q1042","cycle":"20"},
{"_id":"4495a8a111ec85eb6d2389a681e6d368","_rev":"1-75b8fbee21675debde2e890bda606e62","Location":"Gdansk-Rebiechowo, Poland (EPGD) 54-23N 018-28E 138M","Date":"Feb 08, 2012 - 12:00 AM EST / 2012.02.08 0500 UTC","Wind":"from the N (350 degrees) at 3 MPH (3 KT):0","Visibility":"greater than 7 mile(s):0","Sky conditions":"mostly cloudy","Temperature":"12 F (-11 C)","Dew Point":"8 F (-13 C)","Relative Humidity":"85%","Pressure (altimeter)":"30.74 in. Hg (1041 hPa)","ob":"EPGD 080500Z 35003KT 9999 BKN014 M11/M13 Q1041 R11/490143","cycle":"5"},
{"_id":"4495a8a111ec85eb6d2389a681e6dbe0","_rev":"1-5dc2a133da0e36a1aedbb82b9a0d43b1","Location":"Gdansk-Rebiechowo, Poland (EPGD) 54-23N 018-28E 138M","Date":"Feb 16, 2012 - 11:00 PM EST / 2012.02.17 0400 UTC","Wind":"from the S (190 degrees) at 8 MPH (7 KT) (direction variable):0","Visibility":"greater than 7 mile(s):0","Sky conditions":"mostly cloudy","Weather":"light snow","Temperature":"28 F (-2 C)","Windchill":"19 F (-7 C):1","Dew Point":"24 F (-4 C)","Relative Humidity":"86%","Pressure (altimeter)":"29.77 in. Hg (1008 hPa)","ob":"EPGD 170400Z 19007KT 150V220 9999 -SN FEW006 BKN009 M02/M04 Q1008 R29/090095","cycle":"4"},
{"_id":"4495a8a111ec85eb6d2389a681e6df20","_rev":"1-eef4b345998efcf1f1d08c1c2b55e06a","Location":"Gdansk-Rebiechowo, Poland (EPGD) 54-23N 018-28E 138M","Date":"Feb 12, 2012 - 02:00 AM EST / 2012.02.12 0700 UTC","Wind":"from the SW (220 degrees) at 6 MPH (5 KT) (direction variable):0","Visibility":"greater than 7 mile(s):0","Temperature":"17 F (-8 C)","Windchill":"8 F (-13 C):1","Dew Point":"10 F (-12 C)","Relative Humidity":"72%","Pressure (altimeter)":"30.33 in. Hg (1027 hPa)","ob":"EPGD 120700Z 22005KT 190V260 CAVOK M08/M12 Q1027 R29/490241","cycle":"7"},
{"_id":"4495a8a111ec85eb6d2389a681e6e3e9","_rev":"1-a8d051e8566bdf170350aaba536634b6","Location":"Gdansk-Rebiechowo, Poland (EPGD) 54-23N 018-28E 138M","Date":"Dec 31, 2011 - 02:00 AM EST / 2011.12.31 0700 UTC","Wind":"from the NW (310 degrees) at 5 MPH (4 KT):0","Visibility":"greater than 7 mile(s):0","Sky conditions":"mostly clear","Temperature":"32 F (0 C)","Windchill":"26 F (-3 C):1","Dew Point":"30 F (-1 C)","Relative Humidity":"92%","Pressure (altimeter)":"29.77 in. Hg (1008 hPa)","ob":"EPGD 310700Z 31004KT 9999 FEW025 00/M01 Q1008","cycle":"7"},
{"_id":"4495a8a111ec85eb6d2389a681e6f15e","_rev":"1-2e1d3d97e7d0530b415e0bd2b7914970","Location":"Gdansk-Rebiechowo, Poland (EPGD) 54-23N 018-28E 138M","Date":"Dec 24, 2011 - 12:00 AM EST / 2011.12.24 0500 UTC","Wind":"from the SW (220 degrees) at 7 MPH (6 KT) (direction variable):0","Visibility":"2 mile(s):0","Sky conditions":"mostly cloudy","Weather":"mist","Temperature":"39 F (4 C)","Dew Point":"39 F (4 C)","Relative Humidity":"100%","Pressure (altimeter)":"29.74 in. Hg (1007 hPa)","ob":"EPGD 240500Z 22006KT 170V260 4000 BR BKN003 04/04 Q1007","cycle":"5"},
{"_id":"4495a8a111ec85eb6d2389a681e6f4f8","_rev":"1-66bb9aa0db347671b4a974e4a1ac4407","Location":"Gdansk-Rebiechowo, Poland (EPGD) 54-23N 018-28E 138M","Date":"Dec 22, 2011 - 07:00 PM EST / 2011.12.23 0000 UTC","Wind":"from the WSW (240 degrees) at 8 MPH (7 KT) (direction variable):0","Visibility":"1 mile(s):0","Sky conditions":"overcast","Weather":"mist","Temperature":"26 F (-3 C)","Windchill":"17 F (-8 C):1","Dew Point":"24 F (-4 C)","Relative Humidity":"92%","Pressure (altimeter)":"30.12 in. Hg (1020 hPa)","ob":"EPGD 230000Z 24007KT 210V280 3000 BR OVC002 M03/M04 Q1020","cycle":"0"},
{"_id":"4495a8a111ec85eb6d2389a681e703cd","_rev":"1-1ddb26523dd38b64a0505240f6b02a40","Location":"Gdansk-Rebiechowo, Poland (EPGD) 54-23N 018-28E 138M","Date":"Feb 16, 2012 - 03:00 PM EST / 2012.02.16 2000 UTC","Wind":"from the SSW (200 degrees) at 3 MPH (3 KT) (direction variable):0","Visibility":"4 mile(s):0","Sky conditions":"mostly cloudy","Temperature":"28 F (-2 C)","Dew Point":"23 F (-5 C)","Relative Humidity":"79%","Pressure (altimeter)":"29.97 in. Hg (1015 hPa)","ob":"EPGD 162000Z 20003KT 160V250 7000 FEW009 BKN020 M02/M05 Q1015 R11/090095","cycle":"20"},
{"_id":"4495a8a111ec85eb6d2389a681e70c57","_rev":"1-3106ca2124a8c196443e32eae98676be","Location":"Gdansk-Rebiechowo, Poland (EPGD) 54-23N 018-28E 138M","Date":"Feb 04, 2012 - 08:00 AM EST / 2012.02.04 1300 UTC","Wind":"from the SE (140 degrees) at 7 MPH (6 KT) (direction variable):0","Visibility":"1 mile(s):0","Sky conditions":"mostly cloudy","Weather":"light snow; mist","Temperature":"10 F (-12 C)","Windchill":"0 F (-18 C):1","Dew Point":"3 F (-16 C)","Relative Humidity":"72%","Pressure (altimeter)":"30.56 in. Hg (1035 hPa)","ob":"EPGD 041300Z 14006KT 110V180 2000 -SN BR BKN009 M12/M16 Q1035 R11/490136","cycle":"13"},
{"_id":"4495a8a111ec85eb6d2389a681e71037","_rev":"1-1733e1161738dccb8559b58f83e55a94","Location":"Gdansk-Rebiechowo, Poland (EPGD) 54-23N 018-28E 138M","Date":"Jan 03, 2012 - 01:00 AM EST / 2012.01.03 0600 UTC","Wind":"from the WSW (250 degrees) at 10 MPH (9 KT) (direction variable):0","Visibility":"greater than 7 mile(s):0","Sky conditions":"mostly cloudy","Temperature":"39 F (4 C)","Dew Point":"35 F (2 C)","Relative Humidity":"86%","Pressure (altimeter)":"29.88 in. Hg (1012 hPa)","ob":"EPGD 030600Z 25009KT 210V280 9999 BKN042 04/02 Q1012","cycle":"6"},
{"_id":"4495a8a111ec85eb6d2389a681e7199d","_rev":"1-0b7ffe72b1470f5c89be5989ec3107a0","Location":"Gdansk-Rebiechowo, Poland (EPGD) 54-23N 018-28E 138M","Date":"Feb 01, 2012 - 07:00 AM EST / 2012.02.01 1200 UTC","Wind":"from the E (100 degrees) at 8 MPH (7 KT):0","Visibility":"5 mile(s):0","Sky conditions":"mostly clear","Temperature":"12 F (-11 C)","Windchill":"0 F (-18 C):1","Dew Point":"3 F (-16 C)","Relative Humidity":"66%","Pressure (altimeter)":"30.71 in. Hg (1040 hPa)","ob":"EPGD 011200Z 10007KT 9000 FEW005 M11/M16 Q1040 R11/490142","cycle":"12"},
{"_id":"4495a8a111ec85eb6d2389a681e71fb7","_rev":"1-46e8de172088bd9a0f7033b8d8f761df","Location":"Gdansk-Rebiechowo, Poland (EPGD) 54-23N 018-28E 138M","Date":"Jan 03, 2012 - 09:00 AM EST / 2012.01.03 1400 UTC","Wind":"from the SSW (200 degrees) at 12 MPH (10 KT) (direction variable):0","Visibility":"greater than 7 mile(s):0","Sky conditions":"partly cloudy","Temperature":"39 F (4 C)","Dew Point":"33 F (1 C)","Relative Humidity":"80%","Pressure (altimeter)":"29.80 in. Hg (1009 hPa)","ob":"EPGD 031400Z 20010KT 160V230 9999 SCT018 04/01 Q1009","cycle":"14"},
{"_id":"4495a8a111ec85eb6d2389a681e728ce","_rev":"1-11b587142c5f92ea56a1a9b5135e9be5","Location":"Gdansk-Rebiechowo, Poland (EPGD) 54-23N 018-28E 138M","Date":"Jan 24, 2012 - 05:00 PM EST / 2012.01.24 2200 UTC","Wind":"from the WNW (290 degrees) at 8 MPH (7 KT):0","Visibility":"greater than 7 mile(s):0","Sky conditions":"mostly cloudy","Weather":"Towering cumulus clouds observed","Temperature":"30 F (-1 C)","Windchill":"23 F (-5 C):1","Dew Point":"28 F (-2 C)","Relative Humidity":"92%","Pressure (altimeter)":"30.09 in. Hg (1019 hPa)","ob":"EPGD 242200Z 29007KT 9999 SCT005 BKN014TCU M01/M02 Q1019 RESN R11/290095","cycle":"22"},
{"_id":"4495a8a111ec85eb6d2389a681e72e7d","_rev":"1-c92bc18eced34593f9a6aaa3444705a9","Location":"Gdansk-Rebiechowo, Poland (EPGD) 54-23N 018-28E 138M","Date":"Jan 26, 2012 - 03:00 PM EST / 2012.01.26 2000 UTC","Wind":"from the ESE (120 degrees) at 9 MPH (8 KT):0","Visibility":"3 mile(s):0","Sky conditions":"partly cloudy","Weather":"mist","Temperature":"19 F (-7 C)","Windchill":"8 F (-13 C):1","Dew Point":"17 F (-8 C)","Relative Humidity":"92%","Pressure (altimeter)":"30.45 in. Hg (1031 hPa)","ob":"EPGD 262000Z 12008KT 5000 BR SCT005 M07/M08 Q1031","cycle":"20"},
{"_id":"4495a8a111ec85eb6d2389a681e736c0","_rev":"1-7f9912718a225c6904ed1fbc1662ae36","Location":"Gdansk-Rebiechowo, Poland (EPGD) 54-23N 018-28E 138M","Date":"Jan 06, 2012 - 03:00 PM EST / 2012.01.06 2000 UTC","Wind":"from the W (270 degrees) at 6 MPH (5 KT):0","Visibility":"greater than 7 mile(s):0","Temperature":"30 F (-1 C)","Windchill":"23 F (-5 C):1","Dew Point":"24 F (-4 C)","Relative Humidity":"80%","Pressure (altimeter)":"29.74 in. Hg (1007 hPa)","ob":"EPGD 062000Z 27005KT CAVOK M01/M04 Q1007","cycle":"20"},
{"_id":"4495a8a111ec85eb6d2389a681e746b4","_rev":"1-0376971dece0cfcf292e114af2f946bb","Location":"Gdansk-Rebiechowo, Poland (EPGD) 54-23N 018-28E 138M","Date":"Dec 28, 2011 - 06:00 PM EST / 2011.12.28 2300 UTC","Wind":"from the WSW (240 degrees) at 13 MPH (11 KT) (direction variable):0","Visibility":"greater than 7 mile(s):0","Sky conditions":"mostly cloudy","Temperature":"41 F (5 C)","Dew Point":"37 F (3 C)","Relative Humidity":"86%","Pressure (altimeter)":"29.88 in. Hg (1012 hPa)","ob":"EPGD 282300Z 24011KT 200V270 9999 BKN011 05/03 Q1012","cycle":"23"},
{"_id":"4495a8a111ec85eb6d2389a681e7480f","_rev":"1-42d33b2ea74ea945e6c9be3b0becaf26","Location":"Gdansk-Rebiechowo, Poland (EPGD) 54-23N 018-28E 138M","Date":"Dec 26, 2011 - 03:00 AM EST / 2011.12.26 0800 UTC","Wind":"from the W (270 degrees) at 17 MPH (15 KT) gusting to 29 MPH (25 KT):0","Visibility":"greater than 7 mile(s):0","Sky conditions":"mostly cloudy","Temperature":"48 F (9 C)","Dew Point":"44 F (7 C)","Relative Humidity":"87%","Pressure (altimeter)":"30.15 in. Hg (1021 hPa)","ob":"EPGD 260800Z 27015G25KT 9999 BKN007 09/07 Q1021","cycle":"8"},
{"_id":"4495a8a111ec85eb6d2389a681e75462","_rev":"1-ef5f11a2c35bf96f699f9aac58fa3768","Location":"Gdansk-Rebiechowo, Poland (EPGD) 54-23N 018-28E 138M","Date":"Dec 23, 2011 - 06:00 PM EST / 2011.12.23 2300 UTC","Wind":"from the WSW (240 degrees) at 7 MPH (6 KT) (direction variable):0","Visibility":"1 mile(s):0","Sky conditions":"mostly cloudy","Weather":"mist","Temperature":"35 F (2 C)","Windchill":"28 F (-2 C):1","Dew Point":"35 F (2 C)","Relative Humidity":"100%","Pressure (altimeter)":"29.83 in. Hg (1010 hPa)","ob":"EPGD 232300Z 24006KT 200V260 1700 BR BKN002 02/02 Q1010","cycle":"23"},
{"_id":"4495a8a111ec85eb6d2389a681e761af","_rev":"1-8eb547ebb2ebe90078de6ed8da27edea","Location":"Gdansk-Rebiechowo, Poland (EPGD) 54-23N 018-28E 138M","Date":"Jan 28, 2012 - 03:00 PM EST / 2012.01.28 2000 UTC","Wind":"from the ESE (120 degrees) at 6 MPH (5 KT):0","Visibility":"greater than 7 mile(s):0","Temperature":"10 F (-12 C)","Windchill":"0 F (-18 C):1","Dew Point":"5 F (-15 C)","Relative Humidity":"78%","Pressure (altimeter)":"30.62 in. Hg (1037 hPa)","ob":"EPGD 282000Z 12005KT CAVOK M12/M15 Q1037 R11/190095","cycle":"20"},
{"_id":"4495a8a111ec85eb6d2389a681e76d3a","_rev":"1-46c8e4d204e44450344286819827a28f","Location":"Gdansk-Rebiechowo, Poland (EPGD) 54-23N 018-28E 138M","Date":"Feb 01, 2012 - 09:00 AM EST / 2012.02.01 1400 UTC","Wind":"from the ENE (070 degrees) at 7 MPH (6 KT):0","Visibility":"greater than 7 mile(s):0","Temperature":"14 F (-10 C)","Windchill":"3 F (-16 C):1","Dew Point":"6 F (-14 C)","Relative Humidity":"72%","Pressure (altimeter)":"30.71 in. Hg (1040 hPa)","ob":"EPGD 011400Z 07006KT CAVOK M10/M14 Q1040 R11/190095","cycle":"14"},
{"_id":"4495a8a111ec85eb6d2389a681e770f7","_rev":"1-aad16c27d66d47885de24af869f0def5","Location":"Gdansk-Rebiechowo, Poland (EPGD) 54-23N 018-28E 138M","Date":"Jan 22, 2012 - 11:00 PM EST / 2012.01.23 0400 UTC","Wind":"from the W (270 degrees) at 6 MPH (5 KT):0","Visibility":"greater than 7 mile(s):0","Sky conditions":"mostly cloudy","Temperature":"33 F (1 C)","Windchill":"26 F (-3 C):1","Dew Point":"30 F (-1 C)","Relative Humidity":"86%","Pressure (altimeter)":"29.41 in. Hg (0996 hPa)","ob":"EPGD 230400Z 27005KT 9999 BKN007 01/M01 Q0996 R11/290066","cycle":"4"},
{"_id":"4495a8a111ec85eb6d2389a681e77a03","_rev":"1-a9023bba369a5fa067f0b8b3eea7e25a","Location":"Gdansk-Rebiechowo, Poland (EPGD) 54-23N 018-28E 138M","Date":"Dec 18, 2011 - 06:00 PM EST / 2011.12.18 2300 UTC","Wind":"from the WSW (240 degrees) at 16 MPH (14 KT) (direction variable):0","Visibility":"greater than 7 mile(s):0","Sky conditions":"mostly cloudy","Weather":"light snow showers","Temperature":"35 F (2 C)","Windchill":"24 F (-4 C):1","Dew Point":"30 F (-1 C)","Relative Humidity":"80%","Pressure (altimeter)":"29.50 in. Hg (0999 hPa)","ob":"EPGD 182300Z 24014KT 200V260 9999 -SHSN FEW009 BKN017 02/M01 Q0999 R11/690061","cycle":"23"},
{"_id":"4495a8a111ec85eb6d2389a681e7878e","_rev":"1-7e3ee8b172c555f90ee1ef751376d1e1","Location":"Gdansk-Rebiechowo, Poland (EPGD) 54-23N 018-28E 138M","Date":"Jan 19, 2012 - 05:00 AM EST / 2012.01.19 1000 UTC","Wind":"from the W (260 degrees) at 9 MPH (8 KT) (direction variable):0","Visibility":"greater than 7 mile(s):0","Sky conditions":"mostly cloudy","Temperature":"37 F (3 C)","Dew Point":"33 F (1 C)","Relative Humidity":"86%","Pressure (altimeter)":"29.74 in. Hg (1007 hPa)","ob":"EPGD 191000Z 26008KT 230V290 9999 BKN011 03/01 Q1007 R11/290095","cycle":"10"},
{"_id":"4495a8a111ec85eb6d2389a681e78dd2","_rev":"1-40d36ad0fdbaa09e8a6ab1e2d26ed154","Location":"Gdansk-Rebiechowo, Poland (EPGD) 54-23N 018-28E 138M","Date":"Feb 06, 2012 - 11:00 PM EST / 2012.02.07 0400 UTC","Wind":"from the E (090 degrees) at 9 MPH (8 KT):0","Visibility":"2 mile(s):0","Sky conditions":"mostly cloudy","Weather":"mist","Temperature":"14 F (-10 C)","Windchill":"1 F (-17 C):1","Dew Point":"10 F (-12 C)","Relative Humidity":"85%","Pressure (altimeter)":"30.65 in. Hg (1038 hPa)","ob":"EPGD 070400Z 09008KT 4000 BR BKN006 M10/M12 Q1038 R11/490152","cycle":"4"},
{"_id":"4495a8a111ec85eb6d2389a681e7917b","_rev":"1-f7ec1af9eefba2251f2f8a4622282c75","Location":"Gdansk-Rebiechowo, Poland (EPGD) 54-23N 018-28E 138M","Date":"Jan 31, 2012 - 04:00 PM EST / 2012.01.31 2100 UTC","Wind":"from the E (100 degrees) at 6 MPH (5 KT):0","Visibility":"greater than 7 mile(s):0","Temperature":"8 F (-13 C)","Windchill":"-2 F (-19 C):1","Dew Point":"1 F (-17 C)","Relative Humidity":"71%","Pressure (altimeter)":"30.71 in. Hg (1040 hPa)","ob":"EPGD 312100Z 10005KT CAVOK M13/M17 Q1040 R11/190095","cycle":"21"},
{"_id":"4495a8a111ec85eb6d2389a681e79d06","_rev":"1-a231e7f7a668df4bb01a05601a75ead6","Location":"Gdansk-Rebiechowo, Poland (EPGD) 54-23N 018-28E 138M","Date":"Jan 01, 2012 - 01:00 AM EST / 2012.01.01 0600 UTC","Wind":"from the SSE (160 degrees) at 5 MPH (4 KT) (direction variable):0","Visibility":"greater than 7 mile(s):0","Sky conditions":"partly cloudy","Temperature":"28 F (-2 C)","Windchill":"23 F (-5 C):1","Dew Point":"24 F (-4 C)","Relative Humidity":"86%","Pressure (altimeter)":"29.88 in. Hg (1012 hPa)","ob":"EPGD 010600Z 16004KT 100V200 9999 SCT021 M02/M04 Q1012","cycle":"6"},
{"_id":"4495a8a111ec85eb6d2389a681e79d70","_rev":"1-cf56c8cdc9bf1dab232229288eead3a4","Location":"Gdansk-Rebiechowo, Poland (EPGD) 54-23N 018-28E 138M","Date":"Jan 04, 2012 - 04:00 PM EST / 2012.01.04 2100 UTC","Wind":"from the SW (230 degrees) at 16 MPH (14 KT) gusting to 29 MPH (25 KT) (direction variable):0","Visibility":"greater than 7 mile(s):0","Sky conditions":"partly cloudy","Temperature":"37 F (3 C)","Dew Point":"32 F (0 C)","Relative Humidity":"80%","Pressure (altimeter)":"29.44 in. Hg (0997 hPa)","ob":"EPGD 042100Z 23014G25KT 200V280 9999 FEW017 SCT045 03/M00 Q0997","cycle":"21"},
{"_id":"4495a8a111ec85eb6d2389a681e7abb1","_rev":"1-d2b8d8e2153c39dbeacec372fd55bf45","Location":"Gdansk-Rebiechowo, Poland (EPGD) 54-23N 018-28E 138M","Date":"Feb 09, 2012 - 01:00 PM EST / 2012.02.09 1800 UTC","Wind":"from the ENE (070 degrees) at 9 MPH (8 KT):0","Visibility":"greater than 7 mile(s):0","Sky conditions":"mostly cloudy","Weather":"light snow","Temperature":"17 F (-8 C)","Windchill":"5 F (-15 C):1","Dew Point":"14 F (-10 C)","Relative Humidity":"85%","Pressure (altimeter)":"30.65 in. Hg (1038 hPa)","ob":"EPGD 091800Z 07008KT 9999 -SN BKN013 M08/M10 Q1038 R11/090095","cycle":"18"},
{"_id":"4495a8a111ec85eb6d2389a681e7b45b","_rev":"1-74569156c4a10cca8a4f762465c8627b","Location":"Gdansk-Rebiechowo, Poland (EPGD) 54-23N 018-28E 138M","Date":"Jan 03, 2012 - 07:00 PM EST / 2012.01.04 0000 UTC","Wind":"from the SW (220 degrees) at 16 MPH (14 KT) gusting to 31 MPH (27 KT) (direction variable):0","Visibility":"greater than 7 mile(s):0","Sky conditions":"mostly cloudy","Temperature":"42 F (6 C)","Dew Point":"37 F (3 C)","Relative Humidity":"81%","Pressure (altimeter)":"29.38 in. Hg (0995 hPa)","ob":"EPGD 040000Z 22014G27KT 180V260 9999 BKN017 06/03 Q0995","cycle":"0"},
{"_id":"4495a8a111ec85eb6d2389a681e7c140","_rev":"1-b356af1570784038cfa4775998fb4032","Location":"Gdansk-Rebiechowo, Poland (EPGD) 54-23N 018-28E 138M","Date":"Feb 15, 2012 - 08:00 PM EST / 2012.02.16 0100 UTC","Wind":"from the N (360 degrees) at 8 MPH (7 KT) (direction variable):0","Visibility":"4 mile(s):0","Sky conditions":"mostly cloudy","Temperature":"28 F (-2 C)","Windchill":"19 F (-7 C):1","Dew Point":"21 F (-6 C)","Relative Humidity":"74%","Pressure (altimeter)":"29.71 in. Hg (1006 hPa)","ob":"EPGD 160100Z 36007KT 320V030 7000 BKN022 M02/M06 Q1006 R11/490348","cycle":"1"},
{"_id":"4495a8a111ec85eb6d2389a681e7c99e","_rev":"1-8c2c347232588a1632213bacdb511788","Location":"Gdansk-Rebiechowo, Poland (EPGD) 54-23N 018-28E 138M","Date":"Jan 27, 2012 - 01:00 PM EST / 2012.01.27 1800 UTC","Wind":"from the ESE (120 degrees) at 8 MPH (7 KT):0","Visibility":"greater than 7 mile(s):0","Temperature":"12 F (-11 C)","Windchill":"0 F (-18 C):1","Dew Point":"8 F (-13 C)","Relative Humidity":"85%","Pressure (altimeter)":"30.50 in. Hg (1033 hPa)","ob":"EPGD 271800Z 12007KT CAVOK M11/M13 Q1033 R11/190095","cycle":"18"},
{"_id":"4495a8a111ec85eb6d2389a681e7d481","_rev":"1-d926c005f13af04b5cbee8a30077cf08","Location":"Gdansk-Rebiechowo, Poland (EPGD) 54-23N 018-28E 138M","Date":"Dec 18, 2011 - 09:00 PM EST / 2011.12.19 0200 UTC","Wind":"from the WSW (240 degrees) at 13 MPH (11 KT):0","Visibility":"4 mile(s):0","Sky conditions":"mostly cloudy","Weather":"light snow showers","Temperature":"35 F (2 C)","Windchill":"26 F (-3 C):1","Dew Point":"32 F (0 C)","Relative Humidity":"86%","Pressure (altimeter)":"29.56 in. Hg (1001 hPa)","ob":"EPGD 190200Z 24011KT 8000 -SHSN FEW005 BKN014 02/M00 Q1001 R11/690061","cycle":"2"},
{"_id":"4495a8a111ec85eb6d2389a681e7e157","_rev":"1-16612052e3c9c2b3ad64dd7fe2d39b35","Location":"Gdansk-Rebiechowo, Poland (EPGD) 54-23N 018-28E 138M","Date":"Feb 06, 2012 - 12:00 AM EST / 2012.02.06 0500 UTC","Wind":"Variable at 2 MPH (2 KT):0","Visibility":"1 mile(s):0","Sky conditions":"mostly cloudy","Weather":"light snow; mist","Temperature":"-11 F (-24 C)","Dew Point":"-16 F (-27 C)","Relative Humidity":"76%","Pressure (altimeter)":"30.68 in. Hg (1039 hPa)","ob":"EPGD 060500Z VRB02KT 2500 -SN BR BKN004 M24/M27 Q1039 R11/490152","cycle":"5"},
{"_id":"4495a8a111ec85eb6d2389a681e7e351","_rev":"1-5771da1009b9724f9d7db8f499e59658","Location":"Gdansk-Rebiechowo, Poland (EPGD) 54-23N 018-28E 138M","Date":"Jan 03, 2012 - 07:00 AM EST / 2012.01.03 1200 UTC","Wind":"from the SW (220 degrees) at 10 MPH (9 KT) (direction variable):0","Visibility":"greater than 7 mile(s):0","Sky conditions":"partly cloudy","Temperature":"39 F (4 C)","Dew Point":"33 F (1 C)","Relative Humidity":"80%","Pressure (altimeter)":"29.85 in. Hg (1011 hPa)","ob":"EPGD 031200Z 22009KT 180V250 9999 FEW015 SCT019 04/01 Q1011","cycle":"12"},
{"_id":"4495a8a111ec85eb6d2389a681e7eff5","_rev":"1-d3a7d587479743722c0f29333ab3a835","Location":"Gdansk-Rebiechowo, Poland (EPGD) 54-23N 018-28E 138M","Date":"Feb 02, 2012 - 12:00 AM EST / 2012.02.02 0500 UTC","Wind":"Calm:0","Visibility":"3 mile(s):0","Sky conditions":"mostly cloudy","Weather":"light snow","Temperature":"1 F (-17 C)","Dew Point":"-2 F (-19 C)","Relative Humidity":"84%","Pressure (altimeter)":"30.59 in. Hg (1036 hPa)","ob":"EPGD 020500Z 00000KT 5000 -SN SCT006 BKN011 M17/M19 Q1036 R11/490150","cycle":"5"},
{"_id":"4495a8a111ec85eb6d2389a681e7f84f","_rev":"1-805970eb92b66385fc8577e7e2b47e64","Location":"Gdansk-Rebiechowo, Poland (EPGD) 54-23N 018-28E 138M","Date":"Jan 26, 2012 - 10:00 AM EST / 2012.01.26 1500 UTC","Wind":"from the E (100 degrees) at 7 MPH (6 KT):0","Visibility":"5 mile(s):0","Sky conditions":"mostly cloudy","Temperature":"26 F (-3 C)","Windchill":"17 F (-8 C):1","Dew Point":"23 F (-5 C)","Relative Humidity":"86%","Pressure (altimeter)":"30.42 in. Hg (1030 hPa)","ob":"EPGD 261500Z 10006KT 9000 BKN009 M03/M05 Q1030 R11/290095","cycle":"15"},
{"_id":"4495a8a111ec85eb6d2389a681e802af","_rev":"1-1695a385d43ebbf93b17485adb2c3e6b","Location":"Gdansk-Rebiechowo, Poland (EPGD) 54-23N 018-28E 138M","Date":"Dec 23, 2011 - 11:00 AM EST / 2011.12.23 1600 UTC","Wind":"from the SSW (200 degrees) at 3 MPH (3 KT) (direction variable):0","Visibility":"1 mile(s):0","Sky conditions":"overcast","Weather":"mist","Temperature":"33 F (1 C)","Dew Point":"32 F (0 C)","Relative Humidity":"93%","Pressure (altimeter)":"29.91 in. Hg (1013 hPa)","ob":"EPGD 231600Z 20003KT 130V250 2500 BR OVC005 01/00 Q1013","cycle":"16"},
{"_id":"4495a8a111ec85eb6d2389a681e80a8e","_rev":"1-3fda76a3129edca501f327c84947963c","Location":"Gdansk-Rebiechowo, Poland (EPGD) 54-23N 018-28E 138M","Date":"Dec 18, 2011 - 08:00 PM EST / 2011.12.19 0100 UTC","Wind":"from the WSW (240 degrees) at 13 MPH (11 KT) gusting to 24 MPH (21 KT) (direction variable):0","Visibility":"1 mile(s):0","Sky conditions":"mostly cloudy","Weather":"light snow showers; Cumulonimbus clouds observed","Temperature":"33 F (1 C)","Windchill":"23 F (-5 C):1","Dew Point":"30 F (-1 C)","Relative Humidity":"86%","Pressure (altimeter)":"29.56 in. Hg (1001 hPa)","ob":"EPGD 190100Z 24011G21KT 210V270 3000 -SHSN FEW005 SCT011CB BKN018 01/M01 Q1001 R11/690061","cycle":"1"},
{"_id":"4495a8a111ec85eb6d2389a681e80bb4","_rev":"1-c320cd6d805ce8f9790314e819766caa","Location":"Gdansk-Rebiechowo, Poland (EPGD) 54-23N 018-28E 138M","Date":"Dec 31, 2011 - 06:00 PM EST / 2011.12.31 2300 UTC","Wind":"from the WSW (250 degrees) at 2 MPH (2 KT):0","Visibility":"4 mile(s):0","Temperature":"28 F (-2 C)","Dew Point":"26 F (-3 C)","Relative Humidity":"92%","Pressure (altimeter)":"29.91 in. Hg (1013 hPa)","ob":"EPGD 312300Z 25002KT 8000 NSC M02/M03 Q1013","cycle":"23"},
{"_id":"4495a8a111ec85eb6d2389a681e80fbb","_rev":"1-95d5031c54173ba01fcada18c2e7a3b9","Location":"Gdansk-Rebiechowo, Poland (EPGD) 54-23N 018-28E 138M","Date":"Dec 26, 2011 - 01:00 PM EST / 2011.12.26 1800 UTC","Wind":"from the W (270 degrees) at 15 MPH (13 KT):0","Visibility":"greater than 7 mile(s):0","Sky conditions":"mostly cloudy","Temperature":"50 F (10 C)","Dew Point":"48 F (9 C)","Relative Humidity":"93%","Pressure (altimeter)":"30.24 in. Hg (1024 hPa)","ob":"EPGD 261800Z 27013KT 9999 BKN006 10/09 Q1024","cycle":"18"},
{"_id":"4495a8a111ec85eb6d2389a681e81141","_rev":"1-f6bd09f41d038a4c7db39e48c0b93629","Location":"Gdansk-Rebiechowo, Poland (EPGD) 54-23N 018-28E 138M","Date":"Dec 26, 2011 - 06:00 AM EST / 2011.12.26 1100 UTC","Wind":"from the W (270 degrees) at 20 MPH (17 KT) gusting to 31 MPH (27 KT):0","Visibility":"greater than 7 mile(s):0","Sky conditions":"mostly cloudy","Temperature":"48 F (9 C)","Dew Point":"44 F (7 C)","Relative Humidity":"87%","Pressure (altimeter)":"30.21 in. Hg (1023 hPa)","ob":"EPGD 261100Z 27017G27KT 9999 BKN009 09/07 Q1023","cycle":"11"},
{"_id":"4495a8a111ec85eb6d2389a681e8161e","_rev":"1-2873594dba905c6cf023546b40f43946","Location":"Gdansk-Rebiechowo, Poland (EPGD) 54-23N 018-28E 138M","Date":"Feb 05, 2012 - 10:00 AM EST / 2012.02.05 1500 UTC","Wind":"from the ESE (110 degrees) at 6 MPH (5 KT):0","Visibility":"greater than 7 mile(s):0","Temperature":"3 F (-16 C)","Windchill":"-7 F (-22 C):2","Dew Point":"-7 F (-22 C)","Relative Humidity":"59%","Pressure (altimeter)":"30.71 in. Hg (1040 hPa)","ob":"EPGD 051500Z 11005KT CAVOK M16/M22 Q1040 R11/190095","cycle":"15"},
{"_id":"4495a8a111ec85eb6d2389a681e821a1","_rev":"1-2ce29c7952ac162cebbf281437d19443","Location":"Gdansk-Rebiechowo, Poland (EPGD) 54-23N 018-28E 138M","Date":"Feb 10, 2012 - 05:00 PM EST / 2012.02.10 2200 UTC","Wind":"from the ESE (110 degrees) at 3 MPH (3 KT):0","Visibility":"3 mile(s):0","Sky conditions":"partly cloudy","Temperature":"5 F (-15 C)","Dew Point":"0 F (-18 C)","Relative Humidity":"77%","Pressure (altimeter)":"30.68 in. Hg (1039 hPa)","ob":"EPGD 102200Z 11003KT 6000 SCT005 M15/M18 Q1039 R11/090095","cycle":"22"},
{"_id":"4495a8a111ec85eb6d2389a681e82288","_rev":"1-109a4cbe672833402cf2a0ce5f4dcc4f","Location":"Gdansk-Rebiechowo, Poland (EPGD) 54-23N 018-28E 138M","Date":"Jan 14, 2012 - 01:00 AM EST / 2012.01.14 0600 UTC","Wind":"from the NW (320 degrees) at 23 MPH (20 KT):0","Visibility":"4 mile(s):0","Sky conditions":"mostly cloudy","Weather":"light snow; low drifting snow","Temperature":"30 F (-1 C)","Windchill":"15 F (-9 C):1","Dew Point":"23 F (-5 C)","Relative Humidity":"74%","Pressure (altimeter)":"29.71 in. Hg (1006 hPa)","ob":"EPGD 140600Z 32020KT 8000 -SN DRSN FEW009 BKN026 M01/M05 Q1006 R11/590195","cycle":"6"},
{"_id":"4495a8a111ec85eb6d2389a681e82fd3","_rev":"1-df93b670daa565c57e71e69a2d5fd92a","Location":"Gdansk-Rebiechowo, Poland (EPGD) 54-23N 018-28E 138M","Date":"Dec 28, 2011 - 02:00 PM EST / 2011.12.28 1900 UTC","Wind":"from the SSW (210 degrees) at 12 MPH (10 KT) gusting to 23 MPH (20 KT) (direction variable):0","Visibility":"greater than 7 mile(s):0","Sky conditions":"mostly cloudy","Temperature":"42 F (6 C)","Dew Point":"35 F (2 C)","Relative Humidity":"75%","Pressure (altimeter)":"29.94 in. Hg (1014 hPa)","ob":"EPGD 281900Z 21010G20KT 170V260 9999 BKN017 06/02 Q1014","cycle":"19"},
{"_id":"4495a8a111ec85eb6d2389a681e83c5f","_rev":"1-202a40b335cc3cf35a3a1111b0dae4fa","Location":"Gdansk-Rebiechowo, Poland (EPGD) 54-23N 018-28E 138M","Date":"Dec 26, 2011 - 04:00 AM EST / 2011.12.26 0900 UTC","Wind":"from the W (260 degrees) at 17 MPH (15 KT):0","Visibility":"greater than 7 mile(s):0","Sky conditions":"mostly cloudy","Temperature":"48 F (9 C)","Dew Point":"46 F (8 C)","Relative Humidity":"93%","Pressure (altimeter)":"30.18 in. Hg (1022 hPa)","ob":"EPGD 260900Z 26015KT 9999 BKN008 09/08 Q1022","cycle":"9"},
{"_id":"4495a8a111ec85eb6d2389a681e84546","_rev":"1-2d5eb396163912f47758d098684c7496","Location":"Gdansk-Rebiechowo, Poland (EPGD) 54-23N 018-28E 138M","Date":"Feb 08, 2012 - 05:00 PM EST / 2012.02.08 2200 UTC","Wind":"from the SW (230 degrees) at 3 MPH (3 KT) (direction variable):0","Visibility":"1 mile(s):0","Sky conditions":"mostly cloudy","Weather":"light snow; mist","Temperature":"24 F (-4 C)","Dew Point":"21 F (-6 C)","Relative Humidity":"85%","Pressure (altimeter)":"30.45 in. Hg (1031 hPa)","ob":"EPGD 082200Z 23003KT 200V260 2500 -SN BR FEW005 BKN010 M04/M06 Q1031 R11/490042","cycle":"22"},
{"_id":"4495a8a111ec85eb6d2389a681e8528d","_rev":"1-a759ccf06cb288c4374184a5b2d3e4ab","Location":"Gdansk-Rebiechowo, Poland (EPGD) 54-23N 018-28E 138M","Date":"Jan 03, 2012 - 01:00 PM EST / 2012.01.03 1800 UTC","Wind":"from the S (180 degrees) at 14 MPH (12 KT) (direction variable):0","Visibility":"greater than 7 mile(s):0","Sky conditions":"partly cloudy","Temperature":"41 F (5 C)","Dew Point":"32 F (0 C)","Relative Humidity":"70%","Pressure (altimeter)":"29.59 in. Hg (1002 hPa)","ob":"EPGD 031800Z 18012KT 160V220 9999 SCT030 05/M00 Q1002","cycle":"18"},
{"_id":"4495a8a111ec85eb6d2389a681e853aa","_rev":"1-ede4ef65364a29421e9aeed7e5de9500","Location":"Gdansk-Rebiechowo, Poland (EPGD) 54-23N 018-28E 138M","Date":"Jan 18, 2012 - 04:00 AM EST / 2012.01.18 0900 UTC","Wind":"from the WSW (250 degrees) at 3 MPH (3 KT) (direction variable):0","Visibility":"2 mile(s):0","Sky conditions":"mostly cloudy","Weather":"light drizzle; mist","Temperature":"33 F (1 C)","Dew Point":"32 F (0 C)","Relative Humidity":"93%","Pressure (altimeter)":"30.15 in. Hg (1021 hPa)","ob":"EPGD 180900Z 25003KT 220V280 4000 -DZ BR BKN007 01/00 Q1021 R11/290095","cycle":"9"},
{"_id":"4495a8a111ec85eb6d2389a681e863a5","_rev":"1-f2112063e8bcb6db34ea9400936b4053","Location":"Gdansk-Rebiechowo, Poland (EPGD) 54-23N 018-28E 138M","Date":"Dec 27, 2011 - 09:00 AM EST / 2011.12.27 1400 UTC","Wind":"from the W (270 degrees) at 15 MPH (13 KT):0","Visibility":"1 mile(s):0","Sky conditions":"mostly cloudy","Weather":"light rain; mist","Temperature":"44 F (7 C)","Dew Point":"42 F (6 C)","Relative Humidity":"93%","Pressure (altimeter)":"30.24 in. Hg (1024 hPa)","ob":"EPGD 271400Z 27013KT 2000 -RA BR FEW007 BKN011 07/06 Q1024","cycle":"14"},
{"_id":"4495a8a111ec85eb6d2389a681e865e7","_rev":"1-e7d657330b53dab8196bec6840ba86cf","Location":"Gdansk-Rebiechowo, Poland (EPGD) 54-23N 018-28E 138M","Date":"Feb 05, 2012 - 12:00 AM EST / 2012.02.05 0500 UTC","Wind":"from the WNW (300 degrees) at 3 MPH (3 KT):0","Visibility":"1 mile(s):0","Sky conditions":"mostly clear","Weather":"mist","Temperature":"-14 F (-26 C)","Dew Point":"-20 F (-29 C)","Relative Humidity":"75%","Pressure (altimeter)":"30.65 in. Hg (1038 hPa)","ob":"EPGD 050500Z 30003KT 2200 BR FEW005 M26/M29 Q1038 R11/490162","cycle":"5"},
{"_id":"4495a8a111ec85eb6d2389a681e871af","_rev":"1-fe2902c6feac056a70f31d92f6141415","Location":"Gdansk-Rebiechowo, Poland (EPGD) 54-23N 018-28E 138M","Date":"Feb 20, 2012 - 02:00 AM EST / 2012.02.20 0700 UTC","Wind":"from the W (270 degrees) at 13 MPH (11 KT):0","Visibility":"3 mile(s):0","Sky conditions":"mostly cloudy","Weather":"light snow","Temperature":"32 F (0 C)","Windchill":"23 F (-5 C):1","Dew Point":"28 F (-2 C)","Relative Humidity":"86%","Pressure (altimeter)":"30.12 in. Hg (1020 hPa)","ob":"EPGD 200700Z 27011KT 6000 -SN FEW006 BKN011 00/M02 Q1020 R11/290095","cycle":"7"},
{"_id":"4495a8a111ec85eb6d2389a681e87750","_rev":"1-3514cdceabc8b6c832bfe947c49769d8","Location":"Gdansk-Rebiechowo, Poland (EPGD) 54-23N 018-28E 138M","Date":"Dec 23, 2011 - 11:00 PM EST / 2011.12.24 0400 UTC","Wind":"from the SW (220 degrees) at 5 MPH (4 KT) (direction variable):0","Visibility":"2 mile(s):0","Sky conditions":"mostly cloudy","Weather":"mist","Temperature":"39 F (4 C)","Dew Point":"37 F (3 C)","Relative Humidity":"93%","Pressure (altimeter)":"29.74 in. Hg (1007 hPa)","ob":"EPGD 240400Z 22004KT 190V250 4000 BR BKN002 04/03 Q1007","cycle":"4"},
{"_id":"4495a8a111ec85eb6d2389a681e88014","_rev":"1-f08d627416ac4dc2d0ad2c788e7611aa","Location":"Gdansk-Rebiechowo, Poland (EPGD) 54-23N 018-28E 138M","Date":"Feb 01, 2012 - 05:00 AM EST / 2012.02.01 1000 UTC","Wind":"from the ENE (070 degrees) at 10 MPH (9 KT):0","Visibility":"4 mile(s):0","Sky conditions":"partly cloudy","Weather":"light snow showers","Temperature":"10 F (-12 C)","Windchill":"-4 F (-20 C):1","Dew Point":"5 F (-15 C)","Relative Humidity":"78%","Pressure (altimeter)":"30.74 in. Hg (1041 hPa)","ob":"EPGD 011000Z 07009KT 8000 -SHSN FEW006 SCT024 M12/M15 Q1041 R11/490142","cycle":"10"},
{"_id":"4495a8a111ec85eb6d2389a681e88b4d","_rev":"1-c5d2220afbbf78ac7da7c04d71d2d99a","Location":"Gdansk-Rebiechowo, Poland (EPGD) 54-23N 018-28E 138M","Date":"Feb 04, 2012 - 01:00 AM EST / 2012.02.04 0600 UTC","Wind":"Variable at 1 MPH (1 KT):0","Visibility":"1 mile(s):0","Sky conditions":"partly cloudy","Weather":"light snow; mist","Temperature":"6 F (-14 C)","Dew Point":"3 F (-16 C)","Relative Humidity":"84%","Pressure (altimeter)":"30.53 in. Hg (1034 hPa)","ob":"EPGD 040600Z VRB01KT 2500 -SN BR FEW005 SCT021 M14/M16 Q1034 R11/490136","cycle":"6"},
{"_id":"4495a8a111ec85eb6d2389a681e8902c","_rev":"1-367d581dbba532beaf4458eefe48c957","Location":"Gdansk-Rebiechowo, Poland (EPGD) 54-23N 018-28E 138M","Date":"Jan 25, 2012 - 05:00 AM EST / 2012.01.25 1000 UTC","Wind":"from the WNW (290 degrees) at 7 MPH (6 KT):0","Visibility":"4 mile(s):0","Sky conditions":"partly cloudy","Temperature":"30 F (-1 C)","Windchill":"23 F (-5 C):1","Dew Point":"28 F (-2 C)","Relative Humidity":"92%","Pressure (altimeter)":"30.18 in. Hg (1022 hPa)","ob":"EPGD 251000Z 29006KT 8000 SCT009 M01/M02 Q1022 R11/590052","cycle":"10"},
{"_id":"4495a8a111ec85eb6d2389a681e8929c","_rev":"1-f4cdbde04ce699e697c4c581610488b0","Location":"Gdansk-Rebiechowo, Poland (EPGD) 54-23N 018-28E 138M","Date":"Jan 16, 2012 - 05:00 PM EST / 2012.01.16 2200 UTC","Wind":"Calm:0","Visibility":"1 mile(s):0","Sky conditions":"mostly cloudy","Weather":"snow; mist","Temperature":"28 F (-2 C)","Dew Point":"26 F (-3 C)","Relative Humidity":"92%","Pressure (altimeter)":"30.09 in. Hg (1019 hPa)","ob":"EPGD 162200Z 00000KT 2500 SN BR BKN013 M02/M03 Q1019 R11/190095","cycle":"22"},
{"_id":"4495a8a111ec85eb6d2389a681e8a165","_rev":"1-c6124e726d92a554392deb22669ad380","Location":"Gdansk-Rebiechowo, Poland (EPGD) 54-23N 018-28E 138M","Date":"Jan 08, 2012 - 07:00 PM EST / 2012.01.09 0000 UTC","Wind":"from the NW (320 degrees) at 12 MPH (10 KT):0","Visibility":"greater than 7 mile(s):0","Sky conditions":"mostly cloudy","Temperature":"35 F (2 C)","Windchill":"26 F (-3 C):1","Dew Point":"32 F (0 C)","Relative Humidity":"86%","Pressure (altimeter)":"29.91 in. Hg (1013 hPa)","ob":"EPGD 090000Z 32010KT 9999 SCT013 BKN040 02/00 Q1013","cycle":"0"},
{"_id":"4495a8a111ec85eb6d2389a681e8ab72","_rev":"1-bb0139cfb0f565371d247162350e7963","Location":"Gdansk-Rebiechowo, Poland (EPGD) 54-23N 018-28E 138M","Date":"Feb 17, 2012 - 01:00 AM EST / 2012.02.17 0600 UTC","Wind":"from the SSW (200 degrees) at 7 MPH (6 KT) (direction variable):0","Visibility":"2 mile(s):0","Sky conditions":"mostly cloudy","Weather":"light snow; mist","Temperature":"28 F (-2 C)","Windchill":"21 F (-6 C):1","Dew Point":"26 F (-3 C)","Relative Humidity":"92%","Pressure (altimeter)":"29.71 in. Hg (1006 hPa)","ob":"EPGD 170600Z 20006KT 140V230 4000 -SN BR FEW006 SCT009 BKN017 M02/M03 Q1006 RESN R29/290050","cycle":"6"},
{"_id":"4495a8a111ec85eb6d2389a681e8ac2d","_rev":"1-501ed0a92f5a5b52fde8213317471604","Location":"Gdansk-Rebiechowo, Poland (EPGD) 54-23N 018-28E 138M","Date":"Jan 16, 2012 - 08:00 AM EST / 2012.01.16 1300 UTC","Wind":"from the WNW (300 degrees) at 7 MPH (6 KT):0","Visibility":"greater than 7 mile(s):0","Sky conditions":"mostly clear","Temperature":"32 F (0 C)","Windchill":"24 F (-4 C):1","Dew Point":"24 F (-4 C)","Relative Humidity":"74%","Pressure (altimeter)":"30.12 in. Hg (1020 hPa)","ob":"EPGD 161300Z 30006KT 9999 FEW043 00/M04 Q1020 R11/290095","cycle":"13"},
{"_id":"4495a8a111ec85eb6d2389a681e8b225","_rev":"1-3f863439265ce81ef372cf7707901ae7","Location":"Gdansk-Rebiechowo, Poland (EPGD) 54-23N 018-28E 138M","Date":"Jan 15, 2012 - 01:00 AM EST / 2012.01.15 0600 UTC","Wind":"from the NNW (330 degrees) at 13 MPH (11 KT):0","Visibility":"greater than 7 mile(s):0","Sky conditions":"mostly cloudy","Weather":"Cumulonimbus clouds observed","Temperature":"30 F (-1 C)","Windchill":"19 F (-7 C):1","Dew Point":"28 F (-2 C)","Relative Humidity":"92%","Pressure (altimeter)":"29.97 in. Hg (1015 hPa)","ob":"EPGD 150600Z 33011KT 9999 BKN012CB M01/M02 Q1015 R11/590526","cycle":"6"},
{"_id":"4495a8a111ec85eb6d2389a681e8b5bc","_rev":"1-6ce819430aa377b5099b61f350d71fa1","Location":"Gdansk-Rebiechowo, Poland (EPGD) 54-23N 018-28E 138M","Date":"Feb 10, 2012 - 06:00 AM EST / 2012.02.10 1100 UTC","Wind":"from the SE (130 degrees) at 3 MPH (3 KT):0","Visibility":"greater than 7 mile(s):0","Sky conditions":"mostly cloudy","Temperature":"17 F (-8 C)","Dew Point":"12 F (-11 C)","Relative Humidity":"78%","Pressure (altimeter)":"30.71 in. Hg (1040 hPa)","ob":"EPGD 101100Z 13003KT 9999 FEW009 BKN012 M08/M11 Q1040 R11/090095","cycle":"11"},
{"_id":"4495a8a111ec85eb6d2389a681e8c554","_rev":"1-0934b6031a4aa9e00f29ce9515f3a234","Location":"Gdansk-Rebiechowo, Poland (EPGD) 54-23N 018-28E 138M","Date":"Dec 29, 2011 - 02:00 PM EST / 2011.12.29 1900 UTC","Wind":"from the SW (230 degrees) at 15 MPH (13 KT) gusting to 26 MPH (23 KT):0","Visibility":"greater than 7 mile(s):0","Sky conditions":"mostly cloudy","Temperature":"39 F (4 C)","Dew Point":"32 F (0 C)","Relative Humidity":"75%","Pressure (altimeter)":"29.62 in. Hg (1003 hPa)","ob":"EPGD 291900Z 23013G23KT 9999 BKN026 04/M00 Q1003","cycle":"19"},
{"_id":"4495a8a111ec85eb6d2389a681e8caca","_rev":"1-d0d27e3dda8d6110b6da666ed170d4bb","Location":"Gdansk-Rebiechowo, Poland (EPGD) 54-23N 018-28E 138M","Date":"Feb 10, 2012 - 04:00 AM EST / 2012.02.10 0900 UTC","Wind":"Variable at 2 MPH (2 KT):0","Visibility":"1 mile(s):0","Sky conditions":"mostly cloudy","Weather":"mist","Temperature":"14 F (-10 C)","Dew Point":"8 F (-13 C)","Relative Humidity":"78%","Pressure (altimeter)":"30.71 in. Hg (1040 hPa)","ob":"EPGD 100900Z VRB02KT 1700 BR FEW006 BKN019 M10/M13 Q1040 R11/090095","cycle":"9"},
{"_id":"4495a8a111ec85eb6d2389a681e8cf0c","_rev":"1-d744078cc3deb0a13ed440621c1fb944","Location":"Gdansk-Rebiechowo, Poland (EPGD) 54-23N 018-28E 138M","Date":"Jan 19, 2012 - 01:00 PM EST / 2012.01.19 1800 UTC","Wind":"from the S (190 degrees) at 6 MPH (5 KT) (direction variable):0","Visibility":"3 mile(s):0","Sky conditions":"mostly cloudy","Weather":"light rain","Temperature":"35 F (2 C)","Windchill":"30 F (-1 C):1","Dew Point":"32 F (0 C)","Relative Humidity":"86%","Pressure (altimeter)":"29.53 in. Hg (1000 hPa)","ob":"EPGD 191800Z 19005KT 140V230 6000 -RA BKN007 02/00 Q1000 R11/290095","cycle":"18"},
{"_id":"4495a8a111ec85eb6d2389a681e8cf3b","_rev":"1-e9528808bb5242dfacce7cddd078c7ff","Location":"Gdansk-Rebiechowo, Poland (EPGD) 54-23N 018-28E 138M","Date":"Jan 03, 2012 - 02:00 PM EST / 2012.01.03 1900 UTC","Wind":"from the S (190 degrees) at 16 MPH (14 KT) gusting to 31 MPH (27 KT) (direction variable):0","Visibility":"greater than 7 mile(s):0","Sky conditions":"mostly cloudy","Weather":"light rain","Temperature":"39 F (4 C)","Dew Point":"33 F (1 C)","Relative Humidity":"80%","Pressure (altimeter)":"29.56 in. Hg (1001 hPa)","ob":"EPGD 031900Z 19014G27KT 150V230 9999 -RA BKN011 04/01 Q1001","cycle":"19"},
{"_id":"4495a8a111ec85eb6d2389a681e8da13","_rev":"1-4eb66eda95555a34c12ee039ddab791a","Location":"Gdansk-Rebiechowo, Poland (EPGD) 54-23N 018-28E 138M","Date":"Feb 03, 2012 - 04:00 AM EST / 2012.02.03 0900 UTC","Wind":"from the SW (220 degrees) at 7 MPH (6 KT):0","Visibility":"2 mile(s):0","Weather":"mist","Temperature":"5 F (-15 C)","Windchill":"-7 F (-22 C):2","Dew Point":"0 F (-18 C)","Relative Humidity":"77%","Pressure (altimeter)":"30.47 in. Hg (1032 hPa)","ob":"EPGD 030900Z 22006KT 4000 BR NSC M15/M18 Q1032 R11/190095","cycle":"9"},
{"_id":"4495a8a111ec85eb6d2389a681e8df18","_rev":"1-1024a154f085eaad59785ac9fb1a5faf","Location":"Gdansk-Rebiechowo, Poland (EPGD) 54-23N 018-28E 138M","Date":"Jan 06, 2012 - 02:00 AM EST / 2012.01.06 0700 UTC","Wind":"from the N (350 degrees) at 15 MPH (13 KT):0","Visibility":"greater than 7 mile(s):0","Sky conditions":"mostly cloudy","Temperature":"39 F (4 C)","Dew Point":"35 F (2 C)","Relative Humidity":"86%","Pressure (altimeter)":"29.18 in. Hg (0988 hPa)","ob":"EPGD 060700Z 35013KT 9999 BKN006 04/02 Q0988","cycle":"7"},
{"_id":"4495a8a111ec85eb6d2389a681e8e547","_rev":"1-1d650e43440735ba01282b3e0d3b174f","Location":"Gdansk-Rebiechowo, Poland (EPGD) 54-23N 018-28E 138M","Date":"Feb 07, 2012 - 02:00 AM EST / 2012.02.07 0700 UTC","Wind":"from the E (080 degrees) at 13 MPH (11 KT):0","Visibility":"1 mile(s):0","Sky conditions":"mostly cloudy","Weather":"light snow; mist","Temperature":"15 F (-9 C)","Windchill":"1 F (-17 C):1","Dew Point":"12 F (-11 C)","Relative Humidity":"85%","Pressure (altimeter)":"30.68 in. Hg (1039 hPa)","ob":"EPGD 070700Z 08011KT 2200 -SN BR BKN006 M09/M11 Q1039 R11/490142","cycle":"7"},
{"_id":"4495a8a111ec85eb6d2389a681e8f502","_rev":"1-2f027db645dfedd042d0438d2dc7449d","Location":"Gdansk-Rebiechowo, Poland (EPGD) 54-23N 018-28E 138M","Date":"Jan 25, 2012 - 04:00 AM EST / 2012.01.25 0900 UTC","Wind":"from the NNW (340 degrees) at 5 MPH (4 KT) (direction variable):0","Visibility":"less than 1 mile:0","Sky conditions":"mostly cloudy","Weather":"snow showers; Towering cumulus clouds observed","Temperature":"30 F (-1 C)","Windchill":"24 F (-4 C):1","Dew Point":"28 F (-2 C)","Relative Humidity":"92%","Pressure (altimeter)":"30.18 in. Hg (1022 hPa)","ob":"EPGD 250900Z 34004KT 240V350 0800 R29/1400V2000 SHSN SCT003 SCT013TCU BKN018 M01/M02 Q1022 R11/590052","cycle":"9"},
{"_id":"4495a8a111ec85eb6d2389a681e8feb6","_rev":"1-120aaa41473ff67038ef9ae101a59544","Location":"Gdansk-Rebiechowo, Poland (EPGD) 54-23N 018-28E 138M","Date":"Jan 05, 2012 - 01:00 AM EST / 2012.01.05 0600 UTC","Wind":"from the S (180 degrees) at 12 MPH (10 KT) (direction variable):0","Visibility":"greater than 7 mile(s):0","Sky conditions":"mostly cloudy","Weather":"light rain","Temperature":"35 F (2 C)","Windchill":"26 F (-3 C):1","Dew Point":"32 F (0 C)","Relative Humidity":"86%","Pressure (altimeter)":"29.00 in. Hg (0982 hPa)","ob":"EPGD 050600Z 18010KT 100V210 9999 -RA SCT009 BKN011 02/00 Q0982","cycle":"6"},
{"_id":"4495a8a111ec85eb6d2389a681e90b54","_rev":"1-08dca07505625bb4eff835c187c9593e","Location":"Gdansk-Rebiechowo, Poland (EPGD) 54-23N 018-28E 138M","Date":"Jan 24, 2012 - 12:00 PM EST / 2012.01.24 1700 UTC","Wind":"from the WNW (290 degrees) at 6 MPH (5 KT):0","Visibility":"2 mile(s):0","Sky conditions":"mostly cloudy","Weather":"light snow showers; mist; Towering cumulus clouds observed","Temperature":"32 F (0 C)","Windchill":"26 F (-3 C):1","Dew Point":"30 F (-1 C)","Relative Humidity":"92%","Pressure (altimeter)":"30.03 in. Hg (1017 hPa)","ob":"EPGD 241700Z 29005KT 4000 -SHSN BR BKN004 BKN018TCU 00/M01 Q1017 R11/290095","cycle":"17"},
{"_id":"4495a8a111ec85eb6d2389a681e9142f","_rev":"1-ad0b9ca9448611d33728aedb451d3c87","Location":"Gdansk-Rebiechowo, Poland (EPGD) 54-23N 018-28E 138M","Date":"Jan 23, 2012 - 08:00 PM EST / 2012.01.24 0100 UTC","Wind":"from the NNW (340 degrees) at 6 MPH (5 KT):0","Visibility":"greater than 7 mile(s):0","Sky conditions":"mostly cloudy","Temperature":"33 F (1 C)","Windchill":"26 F (-3 C):1","Dew Point":"32 F (0 C)","Relative Humidity":"93%","Pressure (altimeter)":"29.77 in. Hg (1008 hPa)","ob":"EPGD 240100Z 34005KT 9999 BKN004 01/00 Q1008","cycle":"1"},
{"_id":"4495a8a111ec85eb6d2389a681e91515","_rev":"1-9108be6b990182f486aa384e6922b8c0","Location":"Gdansk-Rebiechowo, Poland (EPGD) 54-23N 018-28E 138M","Date":"Feb 19, 2012 - 09:00 PM EST / 2012.02.20 0200 UTC","Wind":"from the WSW (250 degrees) at 13 MPH (11 KT) (direction variable):0","Visibility":"greater than 7 mile(s):0","Sky conditions":"mostly cloudy","Temperature":"32 F (0 C)","Windchill":"23 F (-5 C):1","Dew Point":"26 F (-3 C)","Relative Humidity":"80%","Pressure (altimeter)":"30.00 in. Hg (1016 hPa)","ob":"EPGD 200200Z 25011KT 220V280 9999 SCT017 BKN040 00/M03 Q1016 R11/290095","cycle":"2"},
{"_id":"4495a8a111ec85eb6d2389a681e915e6","_rev":"1-3c35487edaf07c8fa14081288b92eb55","Location":"Gdansk-Rebiechowo, Poland (EPGD) 54-23N 018-28E 138M","Date":"Dec 15, 2011 - 05:00 AM EST / 2011.12.15 1000 UTC","Wind":"from the SW (220 degrees) at 10 MPH (9 KT) (direction variable):0","Visibility":"greater than 7 mile(s):0","Temperature":"39 F (4 C)","Dew Point":"33 F (1 C)","Relative Humidity":"80%","Pressure (altimeter)":"29.65 in. Hg (1004 hPa)","ob":"EPGD 151000Z 22009KT 170V250 CAVOK 04/01 Q1004","cycle":"10"},
{"_id":"4495a8a111ec85eb6d2389a681e91df2","_rev":"1-a1cc91077314ea6999c9168c79d94100","Location":"Gdansk-Rebiechowo, Poland (EPGD) 54-23N 018-28E 138M","Date":"Jan 31, 2012 - 05:00 PM EST / 2012.01.31 2200 UTC","Wind":"from the E (090 degrees) at 7 MPH (6 KT):0","Visibility":"greater than 7 mile(s):0","Temperature":"10 F (-12 C)","Windchill":"0 F (-18 C):1","Dew Point":"1 F (-17 C)","Relative Humidity":"66%","Pressure (altimeter)":"30.71 in. Hg (1040 hPa)","ob":"EPGD 312200Z 09006KT CAVOK M12/M17 Q1040 R11/190095","cycle":"22"},
{"_id":"4495a8a111ec85eb6d2389a681e924c8","_rev":"1-d72a8bbaec8e78b347b930be1ea966d4","Location":"Gdansk-Rebiechowo, Poland (EPGD) 54-23N 018-28E 138M","Date":"Dec 22, 2011 - 03:00 PM EST / 2011.12.22 2000 UTC","Wind":"from the SSW (210 degrees) at 3 MPH (3 KT) (direction variable):0","Visibility":"1 mile(s):0","Sky conditions":"overcast","Weather":"mist","Temperature":"26 F (-3 C)","Dew Point":"24 F (-4 C)","Relative Humidity":"92%","Pressure (altimeter)":"30.12 in. Hg (1020 hPa)","ob":"EPGD 222000Z 21003KT 140V260 2800 BR OVC004 M03/M04 Q1020","cycle":"20"},
{"_id":"4495a8a111ec85eb6d2389a681e93133","_rev":"1-c22122074dbc40c437de22eb6a654496","Location":"Gdansk-Rebiechowo, Poland (EPGD) 54-23N 018-28E 138M","Date":"Feb 04, 2012 - 06:00 PM EST / 2012.02.04 2300 UTC","Wind":"from the ESE (110 degrees) at 2 MPH (2 KT):0","Visibility":"2 mile(s):0","Sky conditions":"mostly clear","Weather":"mist","Temperature":"-2 F (-19 C)","Dew Point":"-7 F (-22 C)","Relative Humidity":"77%","Pressure (altimeter)":"30.65 in. Hg (1038 hPa)","ob":"EPGD 042300Z 11002KT 4000 BR FEW017 M19/M22 Q1038 R11/490136","cycle":"23"},
{"_id":"4495a8a111ec85eb6d2389a681e9375f","_rev":"1-9d8112f2ff202bfbe47bc9c9c3fd74cc","Location":"Gdansk-Rebiechowo, Poland (EPGD) 54-23N 018-28E 138M","Date":"Dec 20, 2011 - 10:00 AM EST / 2011.12.20 1500 UTC","Wind":"from the SE (130 degrees) at 5 MPH (4 KT):0","Visibility":"4 mile(s):0","Sky conditions":"partly cloudy","Temperature":"33 F (1 C)","Windchill":"28 F (-2 C):1","Dew Point":"30 F (-1 C)","Relative Humidity":"86%","Pressure (altimeter)":"29.85 in. Hg (1011 hPa)","ob":"EPGD 201500Z 13004KT 8000 SCT009 01/M01 Q1011 R11/190095","cycle":"15"},
{"_id":"4495a8a111ec85eb6d2389a681e943ec","_rev":"1-9f32aafe384b4a4ba373c87141d18eb9","Location":"Gdansk-Rebiechowo, Poland (EPGD) 54-23N 018-28E 138M","Date":"Jan 02, 2012 - 11:00 PM EST / 2012.01.03 0400 UTC","Wind":"from the W (260 degrees) at 9 MPH (8 KT):0","Visibility":"greater than 7 mile(s):0","Sky conditions":"partly cloudy","Temperature":"41 F (5 C)","Dew Point":"35 F (2 C)","Relative Humidity":"80%","Pressure (altimeter)":"29.85 in. Hg (1011 hPa)","ob":"EPGD 030400Z 26008KT 9999 SCT029 05/02 Q1011","cycle":"4"},
{"_id":"4495a8a111ec85eb6d2389a681e94c14","_rev":"1-d3f83e2cf9f7131df74a5806cd641f3d","Location":"Gdansk-Rebiechowo, Poland (EPGD) 54-23N 018-28E 138M","Date":"Jan 11, 2012 - 12:00 PM EST / 2012.01.11 1700 UTC","Wind":"from the WNW (290 degrees) at 28 MPH (24 KT) gusting to 39 MPH (34 KT):0","Visibility":"greater than 7 mile(s):0","Sky conditions":"mostly cloudy","Temperature":"42 F (6 C)","Dew Point":"35 F (2 C)","Relative Humidity":"75%","Pressure (altimeter)":"30.03 in. Hg (1017 hPa)","ob":"EPGD 111700Z 29024G34KT 9999 FEW017 BKN028 06/02 Q1017 R11/290095","cycle":"17"},
{"_id":"4495a8a111ec85eb6d2389a681e94c9e","_rev":"1-0abe03d39142e1dfab80d2698e0e2ac3","Location":"Gdansk-Rebiechowo, Poland (EPGD) 54-23N 018-28E 138M","Date":"Dec 17, 2011 - 09:00 AM EST / 2011.12.17 1400 UTC","Wind":"from the WSW (250 degrees) at 15 MPH (13 KT) gusting to 33 MPH (29 KT):0","Visibility":"greater than 7 mile(s):0","Sky conditions":"mostly cloudy","Weather":"light rain","Temperature":"37 F (3 C)","Dew Point":"33 F (1 C)","Relative Humidity":"86%","Pressure (altimeter)":"28.85 in. Hg (0977 hPa)","ob":"EPGD 171400Z 25013G29KT 9999 -RA BKN009 03/01 Q0977 R11/290064","cycle":"14"},
{"_id":"4495a8a111ec85eb6d2389a681e9506a","_rev":"1-a8e4a389fa1b1a953064ae5502555142","Location":"Gdansk-Rebiechowo, Poland (EPGD) 54-23N 018-28E 138M","Date":"Jan 30, 2012 - 01:00 PM EST / 2012.01.30 1800 UTC","Wind":"from the E (100 degrees) at 9 MPH (8 KT):0","Visibility":"greater than 7 mile(s):0","Temperature":"12 F (-11 C)","Windchill":"0 F (-18 C):1","Dew Point":"5 F (-15 C)","Relative Humidity":"72%","Pressure (altimeter)":"30.77 in. Hg (1042 hPa)","ob":"EPGD 301800Z 10008KT CAVOK M11/M15 Q1042","cycle":"18"},
{"_id":"4495a8a111ec85eb6d2389a681e950d5","_rev":"1-81703f19484c967cf3981821d2f7c9d6","Location":"Gdansk-Rebiechowo, Poland (EPGD) 54-23N 018-28E 138M","Date":"Jan 20, 2012 - 07:00 AM EST / 2012.01.20 1200 UTC","Wind":"from the W (260 degrees) at 8 MPH (7 KT) (direction variable):0","Visibility":"greater than 7 mile(s):0","Sky conditions":"mostly cloudy","Temperature":"35 F (2 C)","Windchill":"28 F (-2 C):1","Dew Point":"32 F (0 C)","Relative Humidity":"86%","Pressure (altimeter)":"29.50 in. Hg (0999 hPa)","ob":"EPGD 201200Z 26007KT 220V280 9999 FEW009 BKN015 02/M00 Q0999 R11/290095","cycle":"12"},
{"_id":"4495a8a111ec85eb6d2389a681e95fbd","_rev":"1-2846e048e806eceb3e0c0e25b38d5554","Location":"Gdansk-Rebiechowo, Poland (EPGD) 54-23N 018-28E 138M","Date":"Dec 14, 2011 - 08:00 AM EST / 2011.12.14 1300 UTC","Wind":"from the S (170 degrees) at 7 MPH (6 KT) (direction variable):0","Visibility":"greater than 7 mile(s):0","Temperature":"42 F (6 C)","Dew Point":"35 F (2 C)","Relative Humidity":"75%","Pressure (altimeter)":"29.56 in. Hg (1001 hPa)","ob":"EPGD 141300Z 17006KT 120V210 CAVOK 06/02 Q1001","cycle":"13"},
{"_id":"4495a8a111ec85eb6d2389a681e96ace","_rev":"1-e1e2f709db649c6a1d14e9e0a8c3a430","Location":"Gdansk-Rebiechowo, Poland (EPGD) 54-23N 018-28E 138M","Date":"Jan 16, 2012 - 01:00 PM EST / 2012.01.16 1800 UTC","Wind":"from the W (260 degrees) at 5 MPH (4 KT):0","Visibility":"4 mile(s):0","Sky conditions":"mostly clear","Temperature":"26 F (-3 C)","Windchill":"19 F (-7 C):1","Dew Point":"24 F (-4 C)","Relative Humidity":"92%","Pressure (altimeter)":"30.12 in. Hg (1020 hPa)","ob":"EPGD 161800Z 26004KT 8000 FEW048 M03/M04 Q1020 R11/190095","cycle":"18"},
{"_id":"4495a8a111ec85eb6d2389a681e97298","_rev":"1-812ebe6b924fae4920e1e23746c81dac","Location":"Gdansk-Rebiechowo, Poland (EPGD) 54-23N 018-28E 138M","Date":"Feb 13, 2012 - 07:00 AM EST / 2012.02.13 1200 UTC","Wind":"from the W (280 degrees) at 9 MPH (8 KT):0","Visibility":"greater than 7 mile(s):0","Temperature":"32 F (0 C)","Windchill":"24 F (-4 C):1","Dew Point":"26 F (-3 C)","Relative Humidity":"80%","Pressure (altimeter)":"29.97 in. Hg (1015 hPa)","ob":"EPGD 131200Z 28008KT CAVOK M00/M03 Q1015 R11/190095","cycle":"12"},
{"_id":"4495a8a111ec85eb6d2389a681e97c4f","_rev":"1-522b129e1f4adf7fd541f04113800f27","Location":"Gdansk-Rebiechowo, Poland (EPGD) 54-23N 018-28E 138M","Date":"Dec 24, 2011 - 06:00 AM EST / 2011.12.24 1100 UTC","Wind":"from the SW (230 degrees) at 3 MPH (3 KT) (direction variable):0","Visibility":"3 mile(s):0","Sky conditions":"mostly cloudy","Weather":"light rain","Temperature":"41 F (5 C)","Dew Point":"41 F (5 C)","Relative Humidity":"100%","Pressure (altimeter)":"29.74 in. Hg (1007 hPa)","ob":"EPGD 241100Z 23003KT 180V280 6000 -RA BKN004 05/05 Q1007","cycle":"11"},
{"_id":"4495a8a111ec85eb6d2389a681e982d5","_rev":"1-c608bda92e9f6a97d1f2fa9f6cb93f48","Location":"Gdansk-Rebiechowo, Poland (EPGD) 54-23N 018-28E 138M","Date":"Jan 22, 2012 - 06:00 AM EST / 2012.01.22 1100 UTC","Wind":"from the SSW (210 degrees) at 7 MPH (6 KT) (direction variable):0","Visibility":"greater than 7 mile(s):0","Sky conditions":"mostly cloudy","Temperature":"35 F (2 C)","Windchill":"28 F (-2 C):1","Dew Point":"33 F (1 C)","Relative Humidity":"93%","Pressure (altimeter)":"29.23 in. Hg (0990 hPa)","ob":"EPGD 221100Z 21006KT 170V240 9999 BKN007 02/01 Q0990 R11/290066","cycle":"11"},
{"_id":"4495a8a111ec85eb6d2389a681e984a7","_rev":"1-f7cc1afe63f5facff2919d3a943844bf","Location":"Gdansk-Rebiechowo, Poland (EPGD) 54-23N 018-28E 138M","Date":"Dec 31, 2011 - 01:00 PM EST / 2011.12.31 1800 UTC","Wind":"from the WSW (240 degrees) at 3 MPH (3 KT):0","Visibility":"3 mile(s):0","Weather":"mist","Temperature":"28 F (-2 C)","Dew Point":"26 F (-3 C)","Relative Humidity":"92%","Pressure (altimeter)":"29.88 in. Hg (1012 hPa)","ob":"EPGD 311800Z 24003KT 5000 BR NSC M02/M03 Q1012","cycle":"18"},
{"_id":"4495a8a111ec85eb6d2389a681e98856","_rev":"1-8fc852cd0f4bb998d5512862d9a86094","Location":"Gdansk-Rebiechowo, Poland (EPGD) 54-23N 018-28E 138M","Date":"Jan 27, 2012 - 03:00 PM EST / 2012.01.27 2000 UTC","Wind":"from the ESE (120 degrees) at 8 MPH (7 KT):0","Visibility":"greater than 7 mile(s):0","Temperature":"10 F (-12 C)","Windchill":"-2 F (-19 C):1","Dew Point":"6 F (-14 C)","Relative Humidity":"85%","Pressure (altimeter)":"30.50 in. Hg (1033 hPa)","ob":"EPGD 272000Z 12007KT CAVOK M12/M14 Q1033 R11/190095","cycle":"20"},
{"_id":"4495a8a111ec85eb6d2389a681e98929","_rev":"1-6af1be8b3c56607f65831cf8ee2bb1a1","Location":"Gdansk-Rebiechowo, Poland (EPGD) 54-23N 018-28E 138M","Date":"Jan 18, 2012 - 08:00 PM EST / 2012.01.19 0100 UTC","Wind":"from the WSW (240 degrees) at 9 MPH (8 KT) (direction variable):0","Visibility":"4 mile(s):0","Sky conditions":"mostly cloudy","Weather":"light snow","Temperature":"32 F (0 C)","Windchill":"24 F (-4 C):1","Dew Point":"30 F (-1 C)","Relative Humidity":"92%","Pressure (altimeter)":"29.80 in. Hg (1009 hPa)","ob":"EPGD 190100Z 24008KT 200V270 7000 -SN BKN007 M00/M01 Q1009 R11/290095","cycle":"1"},
{"_id":"4495a8a111ec85eb6d2389a681e98bb6","_rev":"1-b9deded949af53367c5ae8add2edda84","Location":"Gdansk-Rebiechowo, Poland (EPGD) 54-23N 018-28E 138M","Date":"Jan 01, 2012 - 10:00 PM EST / 2012.01.02 0300 UTC","Wind":"from the SE (140 degrees) at 5 MPH (4 KT) (direction variable):0","Visibility":"less than 1 mile:0","Sky conditions":"mostly cloudy","Weather":"light drizzle; fog","Temperature":"39 F (4 C)","Dew Point":"39 F (4 C)","Relative Humidity":"100%","Pressure (altimeter)":"29.65 in. Hg (1004 hPa)","ob":"EPGD 020300Z 14004KT 110V180 0900 R29/1700V2000 -DZ FG BKN004 04/04 Q1004","cycle":"3"},
{"_id":"4495a8a111ec85eb6d2389a681e98ebc","_rev":"1-e2f83180319603290bda9ca587f6d5c4","Location":"Gdansk-Rebiechowo, Poland (EPGD) 54-23N 018-28E 138M","Date":"Dec 16, 2011 - 01:00 AM EST / 2011.12.16 0600 UTC","Wind":"from the SSE (160 degrees) at 5 MPH (4 KT) (direction variable):0","Visibility":"greater than 7 mile(s):0","Temperature":"35 F (2 C)","Windchill":"30 F (-1 C):1","Dew Point":"32 F (0 C)","Relative Humidity":"86%","Pressure (altimeter)":"29.44 in. Hg (0997 hPa)","ob":"EPGD 160600Z 16004KT 120V200 CAVOK 02/M00 Q0997","cycle":"6"},
{"_id":"4495a8a111ec85eb6d2389a681e99b03","_rev":"1-c20d71674384353edb960b6cffa8eccb","Location":"Gdansk-Rebiechowo, Poland (EPGD) 54-23N 018-28E 138M","Date":"Dec 28, 2011 - 06:00 AM EST / 2011.12.28 1100 UTC","Wind":"from the SW (230 degrees) at 10 MPH (9 KT) (direction variable):0","Visibility":"4 mile(s):0","Sky conditions":"mostly cloudy","Temperature":"39 F (4 C)","Dew Point":"37 F (3 C)","Relative Humidity":"93%","Pressure (altimeter)":"30.24 in. Hg (1024 hPa)","ob":"EPGD 281100Z 23009KT 190V270 8000 BKN004 04/03 Q1024","cycle":"11"},
{"_id":"4495a8a111ec85eb6d2389a681e9a1bb","_rev":"1-0d8cfdb4d1e71fa98a4e9ddc0c77dece","Location":"Gdansk-Rebiechowo, Poland (EPGD) 54-23N 018-28E 138M","Date":"Dec 13, 2011 - 09:00 AM EST / 2011.12.13 1400 UTC","Wind":"from the SSE (160 degrees) at 14 MPH (12 KT) (direction variable):0","Visibility":"greater than 7 mile(s):0","Temperature":"39 F (4 C)","Dew Point":"30 F (-1 C)","Relative Humidity":"69%","Pressure (altimeter)":"29.56 in. Hg (1001 hPa)","ob":"EPGD 131400Z 16012KT 120V190 CAVOK 04/M01 Q1001","cycle":"14"},
{"_id":"4495a8a111ec85eb6d2389a681e9ac21","_rev":"1-bad1483f47a23476c87dff448edadf57","Location":"Gdansk-Rebiechowo, Poland (EPGD) 54-23N 018-28E 138M","Date":"Feb 07, 2012 - 09:00 PM EST / 2012.02.08 0200 UTC","Wind":"from the NNW (330 degrees) at 5 MPH (4 KT):0","Visibility":"greater than 7 mile(s):0","Sky conditions":"mostly cloudy","Temperature":"15 F (-9 C)","Windchill":"6 F (-14 C):1","Dew Point":"12 F (-11 C)","Relative Humidity":"85%","Pressure (altimeter)":"30.77 in. Hg (1042 hPa)","ob":"EPGD 080200Z 33004KT 9999 FEW011 BKN026 M09/M11 Q1042 R11/490143","cycle":"2"},
{"_id":"4495a8a111ec85eb6d2389a681e9b35d","_rev":"1-5b29c5487aaaf30f9d3b457ffd79d0d5","Location":"Gdansk-Rebiechowo, Poland (EPGD) 54-23N 018-28E 138M","Date":"Dec 15, 2011 - 11:00 PM EST / 2011.12.16 0400 UTC","Wind":"from the SSW (210 degrees) at 7 MPH (6 KT) (direction variable):0","Visibility":"greater than 7 mile(s):0","Sky conditions":"mostly cloudy","Weather":"light rain showers","Temperature":"35 F (2 C)","Windchill":"28 F (-2 C):1","Dew Point":"32 F (0 C)","Relative Humidity":"86%","Pressure (altimeter)":"29.53 in. Hg (1000 hPa)","ob":"EPGD 160400Z 21006KT 170V250 9999 -SHRA FEW009 SCT015 BKN040 02/00 Q1000","cycle":"4"},
{"_id":"4495a8a111ec85eb6d2389a681e9b59a","_rev":"1-072063b1ca9095314c526cedd9363bb0","Location":"Gdansk-Rebiechowo, Poland (EPGD) 54-23N 018-28E 138M","Date":"Feb 15, 2012 - 11:00 AM EST / 2012.02.15 1600 UTC","Wind":"from the NNE (020 degrees) at 9 MPH (8 KT) (direction variable):0","Visibility":"1 mile(s):0","Sky conditions":"mostly cloudy","Weather":"light snow; mist","Temperature":"26 F (-3 C)","Windchill":"17 F (-8 C):1","Dew Point":"23 F (-5 C)","Relative Humidity":"86%","Pressure (altimeter)":"29.29 in. Hg (0992 hPa)","ob":"EPGD 151600Z 02008KT 330V050 3000 -SN BR BKN009 M03/M05 Q0992 R11/490237","cycle":"16"},
{"_id":"4495a8a111ec85eb6d2389a681e9b97a","_rev":"1-1ae483f81a66c73e6bd8c129adbf1930","Location":"Gdansk-Rebiechowo, Poland (EPGD) 54-23N 018-28E 138M","Date":"Jan 13, 2012 - 01:00 PM EST / 2012.01.13 1800 UTC","Wind":"from the WNW (290 degrees) at 17 MPH (15 KT):0","Visibility":"greater than 7 mile(s):0","Sky conditions":"mostly cloudy","Temperature":"33 F (1 C)","Windchill":"23 F (-5 C):1","Dew Point":"26 F (-3 C)","Relative Humidity":"74%","Pressure (altimeter)":"29.53 in. Hg (1000 hPa)","ob":"EPGD 131800Z 29015KT 9999 FEW023 BKN036 01/M03 Q1000 R11/590195","cycle":"18"},
{"_id":"4495a8a111ec85eb6d2389a681e9c51e","_rev":"1-ca11baec35d38cfec9792997fdaa7597","Location":"Gdansk-Rebiechowo, Poland (EPGD) 54-23N 018-28E 138M","Date":"Feb 18, 2012 - 01:00 PM EST / 2012.02.18 1800 UTC","Wind":"from the S (180 degrees) at 8 MPH (7 KT) (direction variable):0","Visibility":"greater than 7 mile(s):0","Sky conditions":"mostly cloudy","Temperature":"33 F (1 C)","Windchill":"26 F (-3 C):1","Dew Point":"30 F (-1 C)","Relative Humidity":"86%","Pressure (altimeter)":"29.80 in. Hg (1009 hPa)","ob":"EPGD 181800Z 18007KT 150V210 9999 BKN009 01/M01 Q1009 R11/190095","cycle":"18"},
{"_id":"4495a8a111ec85eb6d2389a681e9d297","_rev":"1-571c3d02562846f88cb3ae79c6adb397","Location":"Gdansk-Rebiechowo, Poland (EPGD) 54-23N 018-28E 138M","Date":"Jan 31, 2012 - 07:00 AM EST / 2012.01.31 1200 UTC","Wind":"from the E (100 degrees) at 7 MPH (6 KT):0","Visibility":"greater than 7 mile(s):0","Temperature":"17 F (-8 C)","Windchill":"6 F (-14 C):1","Dew Point":"5 F (-15 C)","Relative Humidity":"57%","Pressure (altimeter)":"30.71 in. Hg (1040 hPa)","ob":"EPGD 311200Z 10006KT CAVOK M08/M15 Q1040 R11/190095","cycle":"12"},
{"_id":"4495a8a111ec85eb6d2389a681e9da42","_rev":"1-38db604f9c0f7eedd61b457529b2d389","Location":"Gdansk-Rebiechowo, Poland (EPGD) 54-23N 018-28E 138M","Date":"Jan 09, 2012 - 04:00 PM EST / 2012.01.09 2100 UTC","Wind":"Variable at 1 MPH (1 KT):0","Visibility":"greater than 7 mile(s):0","Sky conditions":"mostly cloudy","Temperature":"30 F (-1 C)","Dew Point":"24 F (-4 C)","Relative Humidity":"80%","Pressure (altimeter)":"30.06 in. Hg (1018 hPa)","ob":"EPGD 092100Z VRB01KT 9999 BKN030 M01/M04 Q1018 R11/290095","cycle":"21"},
{"_id":"4495a8a111ec85eb6d2389a681e9da55","_rev":"1-c55a2974fbb0de2cb458a0ffc74f5b77","Location":"Gdansk-Rebiechowo, Poland (EPGD) 54-23N 018-28E 138M","Date":"Dec 23, 2011 - 07:00 PM EST / 2011.12.24 0000 UTC","Wind":"from the WSW (250 degrees) at 3 MPH (3 KT) (direction variable):0","Visibility":"1 mile(s):0","Sky conditions":"mostly cloudy","Weather":"mist","Temperature":"37 F (3 C)","Dew Point":"35 F (2 C)","Relative Humidity":"93%","Pressure (altimeter)":"29.83 in. Hg (1010 hPa)","ob":"EPGD 240000Z 25003KT 170V290 2200 BR BKN002 03/02 Q1010","cycle":"0"},
{"_id":"4495a8a111ec85eb6d2389a681e9e3bc","_rev":"1-b8414b015d887fdba07a0a14412331c7","Location":"Gdansk-Rebiechowo, Poland (EPGD) 54-23N 018-28E 138M","Date":"Feb 06, 2012 - 09:00 AM EST / 2012.02.06 1400 UTC","Wind":"from the SE (130 degrees) at 5 MPH (4 KT) (direction variable):0","Visibility":"2 mile(s):0","Sky conditions":"mostly cloudy","Weather":"light snow; mist","Temperature":"12 F (-11 C)","Windchill":"3 F (-16 C):1","Dew Point":"6 F (-14 C)","Relative Humidity":"78%","Pressure (altimeter)":"30.59 in. Hg (1036 hPa)","ob":"EPGD 061400Z 13004KT 080V190 4000 -SN BR FEW006 BKN009 M11/M14 Q1036 R11/490152","cycle":"14"},
{"_id":"4495a8a111ec85eb6d2389a681e9f29a","_rev":"1-14dae471d073a6ca4da452440f3d3676","Location":"Gdansk-Rebiechowo, Poland (EPGD) 54-23N 018-28E 138M","Date":"Jan 10, 2012 - 02:00 PM EST / 2012.01.10 1900 UTC","Wind":"Variable at 1 MPH (1 KT):0","Visibility":"3 mile(s):0","Sky conditions":"mostly cloudy","Weather":"mist","Temperature":"33 F (1 C)","Dew Point":"33 F (1 C)","Relative Humidity":"100%","Pressure (altimeter)":"30.27 in. Hg (1025 hPa)","ob":"EPGD 101900Z VRB01KT 5000 BR BKN006 01/01 Q1025 R11/290060","cycle":"19"},
{"_id":"4495a8a111ec85eb6d2389a681e9fba5","_rev":"1-12832269e3696b1e50d40ebf920e71ae","Location":"Gdansk-Rebiechowo, Poland (EPGD) 54-23N 018-28E 138M","Date":"Feb 05, 2012 - 10:00 PM EST / 2012.02.06 0300 UTC","Wind":"from the WNW (300 degrees) at 2 MPH (2 KT):0","Visibility":"1 mile(s):0","Sky conditions":"partly cloudy","Weather":"light snow; mist","Temperature":"-13 F (-25 C)","Dew Point":"-18 F (-28 C)","Relative Humidity":"76%","Pressure (altimeter)":"30.68 in. Hg (1039 hPa)","ob":"EPGD 060300Z 30002KT 2500 -SN BR SCT005 SCT017 M25/M28 Q1039 R11/190095","cycle":"3"},
{"_id":"4495a8a111ec85eb6d2389a681e9fcb6","_rev":"1-244002a06f791028059019b1ca8ad996","Location":"Gdansk-Rebiechowo, Poland (EPGD) 54-23N 018-28E 138M","Date":"Feb 10, 2012 - 10:00 AM EST / 2012.02.10 1500 UTC","Wind":"from the NE (040 degrees) at 6 MPH (5 KT):0","Visibility":"greater than 7 mile(s):0","Sky conditions":"mostly cloudy","Temperature":"17 F (-8 C)","Windchill":"8 F (-13 C):1","Dew Point":"12 F (-11 C)","Relative Humidity":"78%","Pressure (altimeter)":"30.68 in. Hg (1039 hPa)","ob":"EPGD 101500Z 04005KT 9999 BKN011 M08/M11 Q1039 R29/090095","cycle":"15"},
{"_id":"4495a8a111ec85eb6d2389a681e9ff19","_rev":"1-d72726d354f5b9b6d0453880d9f6dfce","Location":"Gdansk-Rebiechowo, Poland (EPGD) 54-23N 018-28E 138M","Date":"Jan 25, 2012 - 07:00 PM EST / 2012.01.26 0000 UTC","Wind":"from the ENE (060 degrees) at 3 MPH (3 KT) (direction variable):0","Visibility":"greater than 7 mile(s):0","Sky conditions":"mostly cloudy","Temperature":"30 F (-1 C)","Dew Point":"26 F (-3 C)","Relative Humidity":"86%","Pressure (altimeter)":"30.27 in. Hg (1025 hPa)","ob":"EPGD 260000Z 06003KT 020V080 9999 SCT011 BKN045 M01/M03 Q1025 R11/290095","cycle":"0"},
{"_id":"4495a8a111ec85eb6d2389a681e9ff8d","_rev":"1-729c87bb16b0aad1f84cdf830204728c","Location":"Gdansk-Rebiechowo, Poland (EPGD) 54-23N 018-28E 138M","Date":"Jan 22, 2012 - 07:00 PM EST / 2012.01.23 0000 UTC","Wind":"from the SW (220 degrees) at 3 MPH (3 KT) (direction variable):0","Visibility":"greater than 7 mile(s):0","Sky conditions":"mostly cloudy","Temperature":"33 F (1 C)","Dew Point":"30 F (-1 C)","Relative Humidity":"86%","Pressure (altimeter)":"29.35 in. Hg (0994 hPa)","ob":"EPGD 230000Z 22003KT 170V260 9999 BKN013 01/M01 Q0994 R11/290066","cycle":"0"},
{"_id":"4495a8a111ec85eb6d2389a681ea0431","_rev":"1-80c414431dfeb9703b61b92330daadc8","Location":"Gdansk-Rebiechowo, Poland (EPGD) 54-23N 018-28E 138M","Date":"Feb 09, 2012 - 01:00 AM EST / 2012.02.09 0600 UTC","Wind":"from the E (090 degrees) at 15 MPH (13 KT):0","Visibility":"2 mile(s):0","Sky conditions":"mostly cloudy","Weather":"mist","Temperature":"15 F (-9 C)","Windchill":"0 F (-18 C):1","Dew Point":"14 F (-10 C)","Relative Humidity":"92%","Pressure (altimeter)":"30.47 in. Hg (1032 hPa)","ob":"EPGD 090600Z 09013KT 4000 BR BKN013 M09/M10 Q1032 R11/490333","cycle":"6"},
{"_id":"4495a8a111ec85eb6d2389a681ea0ca3","_rev":"1-3557420485cdde73d7f5c4fb8500b1cf","Location":"Gdansk-Rebiechowo, Poland (EPGD) 54-23N 018-28E 138M","Date":"Jan 11, 2012 - 04:00 AM EST / 2012.01.11 0900 UTC","Wind":"from the W (260 degrees) at 15 MPH (13 KT):0","Visibility":"greater than 7 mile(s):0","Sky conditions":"mostly cloudy","Temperature":"39 F (4 C)","Dew Point":"35 F (2 C)","Relative Humidity":"86%","Pressure (altimeter)":"30.06 in. Hg (1018 hPa)","ob":"EPGD 110900Z 26013KT 9999 BKN015 04/02 Q1018 R11/290095","cycle":"9"},
{"_id":"4495a8a111ec85eb6d2389a681ea12b9","_rev":"1-03f3949df42a5d5116e59e40043315a4","Location":"Gdansk-Rebiechowo, Poland (EPGD) 54-23N 018-28E 138M","Date":"Jan 28, 2012 - 11:00 AM EST / 2012.01.28 1600 UTC","Wind":"from the ESE (110 degrees) at 9 MPH (8 KT):0","Visibility":"4 mile(s):0","Temperature":"10 F (-12 C)","Windchill":"-2 F (-19 C):1","Dew Point":"5 F (-15 C)","Relative Humidity":"78%","Pressure (altimeter)":"30.59 in. Hg (1036 hPa)","ob":"EPGD 281600Z 11008KT 8000 NSC M12/M15 Q1036 R11/190095","cycle":"16"},
{"_id":"4495a8a111ec85eb6d2389a681ea1683","_rev":"1-68ef44d22487bac8ba33847504eb0d4a","Location":"Gdansk-Rebiechowo, Poland (EPGD) 54-23N 018-28E 138M","Date":"Jan 14, 2012 - 08:00 AM EST / 2012.01.14 1300 UTC","Wind":"from the NW (320 degrees) at 22 MPH (19 KT) gusting to 33 MPH (29 KT):0","Visibility":"4 mile(s):0","Sky conditions":"mostly cloudy","Weather":"light snow showers; low drifting snow; Towering cumulus clouds observed","Temperature":"32 F (0 C)","Windchill":"19 F (-7 C):1","Dew Point":"23 F (-5 C)","Relative Humidity":"69%","Pressure (altimeter)":"29.80 in. Hg (1009 hPa)","ob":"EPGD 141300Z 32019G29KT 7000 -SHSN DRSN FEW009 FEW011TCU BKN023 00/M05 Q1009 R11/620163","cycle":"13"},
{"_id":"4495a8a111ec85eb6d2389a681ea18c8","_rev":"1-a67e4b4c05d38fee06062b75a13bb511","Location":"Gdansk-Rebiechowo, Poland (EPGD) 54-23N 018-28E 138M","Date":"Feb 06, 2012 - 01:00 AM EST / 2012.02.06 0600 UTC","Wind":"from the WNW (290 degrees) at 3 MPH (3 KT) (direction variable):0","Visibility":"1 mile(s):0","Sky conditions":"mostly cloudy","Weather":"light snow; mist","Temperature":"-5 F (-21 C)","Dew Point":"-11 F (-24 C)","Relative Humidity":"76%","Pressure (altimeter)":"30.68 in. Hg (1039 hPa)","ob":"EPGD 060600Z 29003KT 240V310 2500 -SN BR FEW004 BKN006 M21/M24 Q1039 R11/490152","cycle":"6"},
{"_id":"4495a8a111ec85eb6d2389a681ea1afb","_rev":"1-94c12eb782e7acd43ad32425162f48f0","Location":"Gdansk-Rebiechowo, Poland (EPGD) 54-23N 018-28E 138M","Date":"Feb 16, 2012 - 07:00 AM EST / 2012.02.16 1200 UTC","Wind":"from the ESE (120 degrees) at 3 MPH (3 KT):0","Visibility":"greater than 7 mile(s):0","Sky conditions":"mostly clear","Temperature":"32 F (0 C)","Dew Point":"21 F (-6 C)","Relative Humidity":"63%","Pressure (altimeter)":"29.97 in. Hg (1015 hPa)","ob":"EPGD 161200Z 12003KT 9999 FEW021 M00/M06 Q1015 R11/190095","cycle":"12"},
{"_id":"4495a8a111ec85eb6d2389a681ea2a01","_rev":"1-058e2ad1f121c99ae312ea449740be5f","Location":"Gdansk-Rebiechowo, Poland (EPGD) 54-23N 018-28E 138M","Date":"Jan 30, 2012 - 09:00 AM EST / 2012.01.30 1400 UTC","Wind":"from the ESE (110 degrees) at 7 MPH (6 KT):0","Visibility":"greater than 7 mile(s):0","Temperature":"12 F (-11 C)","Windchill":"1 F (-17 C):1","Dew Point":"5 F (-15 C)","Relative Humidity":"72%","Pressure (altimeter)":"30.77 in. Hg (1042 hPa)","ob":"EPGD 301400Z 11006KT CAVOK M11/M15 Q1042","cycle":"14"},
{"_id":"4495a8a111ec85eb6d2389a681ea2d50","_rev":"1-481e636647e4919a2ba66cf1c76fd6c2","Location":"Gdansk-Rebiechowo, Poland (EPGD) 54-23N 018-28E 138M","Date":"Jan 30, 2012 - 04:00 AM EST / 2012.01.30 0900 UTC","Wind":"from the ESE (110 degrees) at 9 MPH (8 KT):0","Visibility":"greater than 7 mile(s):0","Temperature":"8 F (-13 C)","Windchill":"-5 F (-21 C):2","Dew Point":"1 F (-17 C)","Relative Humidity":"71%","Pressure (altimeter)":"30.80 in. Hg (1043 hPa)","ob":"EPGD 300900Z 11008KT CAVOK M13/M17 Q1043 R11/190095","cycle":"9"},
{"_id":"4495a8a111ec85eb6d2389a681ea34bf","_rev":"1-9faacd1d73ea3a9c26e2b6b569367103","Location":"Gdansk-Rebiechowo, Poland (EPGD) 54-23N 018-28E 138M","Date":"Jan 29, 2012 - 11:00 PM EST / 2012.01.30 0400 UTC","Wind":"from the E (100 degrees) at 7 MPH (6 KT):0","Visibility":"greater than 7 mile(s):0","Temperature":"5 F (-15 C)","Windchill":"-7 F (-22 C):2","Dew Point":"0 F (-18 C)","Relative Humidity":"77%","Pressure (altimeter)":"30.77 in. Hg (1042 hPa)","ob":"EPGD 300400Z 10006KT CAVOK M15/M18 Q1042 R11/190095","cycle":"4"},
{"_id":"4495a8a111ec85eb6d2389a681ea4346","_rev":"1-2ca1c359c695badbc42328545482d3b5","Location":"Gdansk-Rebiechowo, Poland (EPGD) 54-23N 018-28E 138M","Date":"Jan 12, 2012 - 10:00 AM EST / 2012.01.12 1500 UTC","Wind":"from the WSW (240 degrees) at 21 MPH (18 KT) gusting to 37 MPH (32 KT):0","Visibility":"2 mile(s):0","Sky conditions":"mostly cloudy","Weather":"light drizzle, rain","Temperature":"44 F (7 C)","Dew Point":"41 F (5 C)","Relative Humidity":"87%","Pressure (altimeter)":"29.41 in. Hg (0996 hPa)","ob":"EPGD 121500Z 24018G32KT 4000 -DZRA FEW007 BKN012 07/05 Q0996","cycle":"15"},
{"_id":"4495a8a111ec85eb6d2389a681ea4ae2","_rev":"1-db92ec87e80d3f63dd3a228889f20c56","Location":"Gdansk-Rebiechowo, Poland (EPGD) 54-23N 018-28E 138M","Date":"Dec 24, 2011 - 05:00 AM EST / 2011.12.24 1000 UTC","Wind":"from the WSW (240 degrees) at 5 MPH (4 KT) (direction variable):0","Visibility":"4 mile(s):0","Sky conditions":"mostly cloudy","Temperature":"41 F (5 C)","Dew Point":"39 F (4 C)","Relative Humidity":"93%","Pressure (altimeter)":"29.74 in. Hg (1007 hPa)","ob":"EPGD 241000Z 24004KT 190V280 8000 BKN004 05/04 Q1007","cycle":"10"},
{"_id":"4495a8a111ec85eb6d2389a681ea573e","_rev":"1-cda2a583d01ed4a82c9419ae3c396604","Location":"Gdansk-Rebiechowo, Poland (EPGD) 54-23N 018-28E 138M","Date":"Feb 02, 2012 - 01:00 AM EST / 2012.02.02 0600 UTC","Wind":"Calm:0","Visibility":"3 mile(s):0","Sky conditions":"mostly cloudy","Weather":"light snow","Temperature":"1 F (-17 C)","Dew Point":"-2 F (-19 C)","Relative Humidity":"84%","Pressure (altimeter)":"30.59 in. Hg (1036 hPa)","ob":"EPGD 020600Z 00000KT 5000 -SN SCT005 BKN011 M17/M19 Q1036 R11/490140","cycle":"6"},
{"_id":"4495a8a111ec85eb6d2389a681ea5f36","_rev":"1-4c9e586557235c43f42b61c57f747025","Location":"Gdansk-Rebiechowo, Poland (EPGD) 54-23N 018-28E 138M","Date":"Feb 06, 2012 - 04:00 PM EST / 2012.02.06 2100 UTC","Wind":"from the ESE (110 degrees) at 6 MPH (5 KT):0","Visibility":"3 mile(s):0","Sky conditions":"mostly cloudy","Weather":"light snow","Temperature":"8 F (-13 C)","Windchill":"-2 F (-19 C):1","Dew Point":"3 F (-16 C)","Relative Humidity":"78%","Pressure (altimeter)":"30.62 in. Hg (1037 hPa)","ob":"EPGD 062100Z 11005KT 6000 -SN BKN005 M13/M16 Q1037 R11/490152","cycle":"21"},
{"_id":"4495a8a111ec85eb6d2389a681ea6189","_rev":"1-cb7d17b1af81088456099ea064587348","Location":"Gdansk-Rebiechowo, Poland (EPGD) 54-23N 018-28E 138M","Date":"Jan 17, 2012 - 04:00 PM EST / 2012.01.17 2100 UTC","Wind":"from the SW (220 degrees) at 3 MPH (3 KT) (direction variable):0","Visibility":"4 mile(s):0","Sky conditions":"mostly cloudy","Temperature":"30 F (-1 C)","Dew Point":"26 F (-3 C)","Relative Humidity":"86%","Pressure (altimeter)":"30.21 in. Hg (1023 hPa)","ob":"EPGD 172100Z 22003KT 110V270 7000 BKN012 M01/M03 Q1023 R11/290095","cycle":"21"},
{"_id":"4495a8a111ec85eb6d2389a681ea698c","_rev":"1-4759a7e31363fd793f9d23b666747a81","Location":"Gdansk-Rebiechowo, Poland (EPGD) 54-23N 018-28E 138M","Date":"Feb 07, 2012 - 11:00 PM EST / 2012.02.08 0400 UTC","Wind":"from the N (350 degrees) at 3 MPH (3 KT):0","Visibility":"greater than 7 mile(s):0","Sky conditions":"mostly cloudy","Temperature":"14 F (-10 C)","Dew Point":"10 F (-12 C)","Relative Humidity":"85%","Pressure (altimeter)":"30.74 in. Hg (1041 hPa)","ob":"EPGD 080400Z 35003KT 9999 BKN013 M10/M12 Q1041 R11/490143","cycle":"4"},
{"_id":"4495a8a111ec85eb6d2389a681ea7633","_rev":"1-5fd2ecf7ffabdb54e7e1b75cd2780fdf","Location":"Gdansk-Rebiechowo, Poland (EPGD) 54-23N 018-28E 138M","Date":"Jan 21, 2012 - 11:00 PM EST / 2012.01.22 0400 UTC","Wind":"from the SW (220 degrees) at 6 MPH (5 KT) (direction variable):0","Visibility":"greater than 7 mile(s):0","Sky conditions":"mostly cloudy","Temperature":"33 F (1 C)","Windchill":"26 F (-3 C):1","Dew Point":"32 F (0 C)","Relative Humidity":"93%","Pressure (altimeter)":"29.21 in. Hg (0989 hPa)","ob":"EPGD 220400Z 22005KT 190V260 9999 FEW012 BKN022 01/00 Q0989 R11/590342","cycle":"4"},
{"_id":"4495a8a111ec85eb6d2389a681ea8422","_rev":"1-a1502021f16146e814402456c3139810","Location":"Gdansk-Rebiechowo, Poland (EPGD) 54-23N 018-28E 138M","Date":"Dec 13, 2011 - 02:00 PM EST / 2011.12.13 1900 UTC","Wind":"from the SSW (200 degrees) at 16 MPH (14 KT) gusting to 30 MPH (26 KT) (direction variable):0","Visibility":"greater than 7 mile(s):0","Sky conditions":"mostly cloudy","Weather":"light rain","Temperature":"41 F (5 C)","Dew Point":"32 F (0 C)","Relative Humidity":"70%","Pressure (altimeter)":"29.50 in. Hg (0999 hPa)","ob":"EPGD 131900Z 20014G26KT 170V240 9999 -RA BKN025 05/00 Q0999","cycle":"19"},
{"_id":"4495a8a111ec85eb6d2389a681ea8c3e","_rev":"1-c54a3cb89973c25b14e68a9a3cc046ff","Location":"Gdansk-Rebiechowo, Poland (EPGD) 54-23N 018-28E 138M","Date":"Feb 12, 2012 - 07:00 AM EST / 2012.02.12 1200 UTC","Wind":"from the SW (220 degrees) at 9 MPH (8 KT):0","Visibility":"greater than 7 mile(s):0","Sky conditions":"mostly cloudy","Temperature":"21 F (-6 C)","Windchill":"10 F (-12 C):1","Dew Point":"10 F (-12 C)","Relative Humidity":"62%","Pressure (altimeter)":"30.24 in. Hg (1024 hPa)","ob":"EPGD 121200Z 22008KT 9999 FEW009 BKN030 M06/M12 Q1024 R11/450195","cycle":"12"},
{"_id":"4495a8a111ec85eb6d2389a681ea937b","_rev":"1-714bd790a29347f95436ec571ff19871","Location":"Gdansk-Rebiechowo, Poland (EPGD) 54-23N 018-28E 138M","Date":"Dec 22, 2011 - 05:00 AM EST / 2011.12.22 1000 UTC","Wind":"Variable at 2 MPH (2 KT):0","Visibility":"3 mile(s):0","Weather":"mist","Temperature":"30 F (-1 C)","Dew Point":"24 F (-4 C)","Relative Humidity":"80%","Pressure (altimeter)":"30.12 in. Hg (1020 hPa)","ob":"EPGD 221000Z VRB02KT 5000 BR NSC M01/M04 Q1020","cycle":"10"},
{"_id":"4495a8a111ec85eb6d2389a681ea9a0d","_rev":"1-42914fd73f2661c18aae0a7f9264e21a","Location":"Gdansk-Rebiechowo, Poland (EPGD) 54-23N 018-28E 138M","Date":"Dec 26, 2011 - 05:00 PM EST / 2011.12.26 2200 UTC","Wind":"from the WSW (250 degrees) at 22 MPH (19 KT):0","Visibility":"greater than 7 mile(s):0","Sky conditions":"mostly cloudy","Temperature":"50 F (10 C)","Dew Point":"44 F (7 C)","Relative Humidity":"81%","Pressure (altimeter)":"30.24 in. Hg (1024 hPa)","ob":"EPGD 262200Z 25019KT 9999 BKN017 10/07 Q1024","cycle":"22"},
{"_id":"4495a8a111ec85eb6d2389a681eaa75b","_rev":"1-563ecc26c91bcf1aa2610abcc076a81e","Location":"Gdansk-Rebiechowo, Poland (EPGD) 54-23N 018-28E 138M","Date":"Dec 18, 2011 - 05:00 AM EST / 2011.12.18 1000 UTC","Wind":"from the WSW (250 degrees) at 13 MPH (11 KT) (direction variable):0","Visibility":"3 mile(s):0","Sky conditions":"mostly cloudy","Weather":"light snow showers; Towering cumulus clouds observed","Temperature":"33 F (1 C)","Windchill":"23 F (-5 C):1","Dew Point":"32 F (0 C)","Relative Humidity":"93%","Pressure (altimeter)":"29.26 in. Hg (0991 hPa)","ob":"EPGD 181000Z 25011KT 220V280 6000 -SHSN SCT004 BKN007TCU 01/M00 Q0991","cycle":"10"},
{"_id":"4495a8a111ec85eb6d2389a681eaac01","_rev":"1-84215c854ca3c086c0a5731f0c3faea9","Location":"Gdansk-Rebiechowo, Poland (EPGD) 54-23N 018-28E 138M","Date":"Feb 06, 2012 - 08:00 PM EST / 2012.02.07 0100 UTC","Wind":"from the NNW (330 degrees) at 5 MPH (4 KT):0","Visibility":"2 mile(s):0","Sky conditions":"mostly cloudy","Weather":"light snow; mist","Temperature":"8 F (-13 C)","Windchill":"0 F (-18 C):1","Dew Point":"3 F (-16 C)","Relative Humidity":"78%","Pressure (altimeter)":"30.65 in. Hg (1038 hPa)","ob":"EPGD 070100Z 33004KT 4000 -SN BR FEW005 BKN009 M13/M16 Q1038 R11/490152","cycle":"1"},
{"_id":"4495a8a111ec85eb6d2389a681eab247","_rev":"1-75f7ede0e837d520955e7f74e33ae155","Location":"Gdansk-Rebiechowo, Poland (EPGD) 54-23N 018-28E 138M","Date":"Dec 14, 2011 - 01:00 AM EST / 2011.12.14 0600 UTC","Wind":"from the SW (230 degrees) at 10 MPH (9 KT) (direction variable):0","Visibility":"greater than 7 mile(s):0","Sky conditions":"mostly cloudy","Temperature":"41 F (5 C)","Dew Point":"35 F (2 C)","Relative Humidity":"80%","Pressure (altimeter)":"29.59 in. Hg (1002 hPa)","ob":"EPGD 140600Z 23009KT 200V260 9999 BKN011 05/02 Q1002","cycle":"6"},
{"_id":"4495a8a111ec85eb6d2389a681eabe11","_rev":"1-da64454e8cf3ed640d6253b5a4c0af33","Location":"Gdansk-Rebiechowo, Poland (EPGD) 54-23N 018-28E 138M","Date":"Jan 23, 2012 - 06:00 AM EST / 2012.01.23 1100 UTC","Wind":"from the W (280 degrees) at 8 MPH (7 KT):0","Visibility":"greater than 7 mile(s):0","Sky conditions":"mostly cloudy","Temperature":"33 F (1 C)","Windchill":"26 F (-3 C):1","Dew Point":"32 F (0 C)","Relative Humidity":"93%","Pressure (altimeter)":"29.56 in. Hg (1001 hPa)","ob":"EPGD 231100Z 28007KT 9999 SCT005 BKN007 01/00 Q1001","cycle":"11"},
{"_id":"4495a8a111ec85eb6d2389a681eac2ab","_rev":"1-12d0f960f3fccfb8f2dd0f5fba43019a","Location":"Gdansk-Rebiechowo, Poland (EPGD) 54-23N 018-28E 138M","Date":"Dec 24, 2011 - 01:00 PM EST / 2011.12.24 1800 UTC","Wind":"from the WNW (290 degrees) at 17 MPH (15 KT):0","Visibility":"1 mile(s):0","Sky conditions":"mostly cloudy","Weather":"light drizzle; mist","Temperature":"41 F (5 C)","Dew Point":"39 F (4 C)","Relative Humidity":"93%","Pressure (altimeter)":"29.85 in. Hg (1011 hPa)","ob":"EPGD 241800Z 29015KT 2800 -DZ BR BKN003 05/04 Q1011","cycle":"18"},
{"_id":"4495a8a111ec85eb6d2389a681eac898","_rev":"1-e541ded3689899942be8f243ad84ea9c","Location":"Gdansk-Rebiechowo, Poland (EPGD) 54-23N 018-28E 138M","Date":"Dec 26, 2011 - 11:00 AM EST / 2011.12.26 1600 UTC","Wind":"from the WSW (250 degrees) at 14 MPH (12 KT) (direction variable):0","Visibility":"greater than 7 mile(s):0","Sky conditions":"mostly cloudy","Weather":"light drizzle","Temperature":"48 F (9 C)","Dew Point":"46 F (8 C)","Relative Humidity":"93%","Pressure (altimeter)":"30.24 in. Hg (1024 hPa)","ob":"EPGD 261600Z 25012KT 220V280 9999 -DZ BKN007 09/08 Q1024","cycle":"16"},
{"_id":"4495a8a111ec85eb6d2389a681eacd95","_rev":"1-a8ffbe3d49cfb18edaac844154ecf932","Location":"Gdansk-Rebiechowo, Poland (EPGD) 54-23N 018-28E 138M","Date":"Dec 21, 2011 - 05:00 PM EST / 2011.12.21 2200 UTC","Wind":"Variable at 1 MPH (1 KT):0","Visibility":"1 mile(s):0","Sky conditions":"overcast","Weather":"mist","Temperature":"24 F (-4 C)","Dew Point":"23 F (-5 C)","Relative Humidity":"92%","Pressure (altimeter)":"30.00 in. Hg (1016 hPa)","ob":"EPGD 212200Z VRB01KT 2300 BR OVC019 M04/M05 Q1016 R11/190095","cycle":"22"},
{"_id":"4495a8a111ec85eb6d2389a681ead2ad","_rev":"1-491a8f839bc2d5fee1e57116c1a675ec","Location":"Gdansk-Rebiechowo, Poland (EPGD) 54-23N 018-28E 138M","Date":"Jan 14, 2012 - 07:00 PM EST / 2012.01.15 0000 UTC","Wind":"from the NNW (330 degrees) at 21 MPH (18 KT):0","Visibility":"greater than 7 mile(s):0","Sky conditions":"partly cloudy","Weather":"light snow showers; Towering cumulus clouds observed","Temperature":"32 F (0 C)","Windchill":"19 F (-7 C):1","Dew Point":"21 F (-6 C)","Relative Humidity":"63%","Pressure (altimeter)":"29.88 in. Hg (1012 hPa)","ob":"EPGD 150000Z 33018KT 9999 -SHSN SCT026 SCT030TCU 00/M06 Q1012 R11/590255","cycle":"0"},
{"_id":"4495a8a111ec85eb6d2389a681ead957","_rev":"1-a1dff73fdfa347e54716f7853b059a96","Location":"Gdansk-Rebiechowo, Poland (EPGD) 54-23N 018-28E 138M","Date":"Jan 24, 2012 - 09:00 PM EST / 2012.01.25 0200 UTC","Wind":"from the W (280 degrees) at 5 MPH (4 KT):0","Visibility":"greater than 7 mile(s):0","Sky conditions":"mostly cloudy","Temperature":"26 F (-3 C)","Windchill":"19 F (-7 C):1","Dew Point":"23 F (-5 C)","Relative Humidity":"86%","Pressure (altimeter)":"30.12 in. Hg (1020 hPa)","ob":"EPGD 250200Z 28004KT 9999 SCT007 BKN026 M03/M05 Q1020 R11/590249","cycle":"2"},
{"_id":"4495a8a111ec85eb6d2389a681eae1da","_rev":"1-38499d0cd44ce98a6dc54031d0ec1640","Location":"Gdansk-Rebiechowo, Poland (EPGD) 54-23N 018-28E 138M","Date":"Dec 25, 2011 - 04:00 AM EST / 2011.12.25 0900 UTC","Wind":"from the WSW (240 degrees) at 10 MPH (9 KT) (direction variable):0","Visibility":"greater than 7 mile(s):0","Sky conditions":"mostly cloudy","Temperature":"37 F (3 C)","Dew Point":"33 F (1 C)","Relative Humidity":"86%","Pressure (altimeter)":"30.15 in. Hg (1021 hPa)","ob":"EPGD 250900Z 24009KT 200V270 9999 BKN009 03/01 Q1021","cycle":"9"},
{"_id":"4495a8a111ec85eb6d2389a681eaed09","_rev":"1-899237366f5fa70c9550dcd468d2294b","Location":"Gdansk-Rebiechowo, Poland (EPGD) 54-23N 018-28E 138M","Date":"Dec 23, 2011 - 02:00 AM EST / 2011.12.23 0700 UTC","Wind":"from the S (170 degrees) at 5 MPH (4 KT):0","Visibility":"2 mile(s):0","Sky conditions":"overcast","Weather":"mist","Temperature":"30 F (-1 C)","Windchill":"24 F (-4 C):1","Dew Point":"28 F (-2 C)","Relative Humidity":"92%","Pressure (altimeter)":"30.06 in. Hg (1018 hPa)","ob":"EPGD 230700Z 17004KT 4000 BR OVC003 M01/M02 Q1018","cycle":"7"},
{"_id":"4495a8a111ec85eb6d2389a681eafcf6","_rev":"1-f2be07fad43bfbd6fbf8a50bb11cbf6d","Location":"Gdansk-Rebiechowo, Poland (EPGD) 54-23N 018-28E 138M","Date":"Feb 08, 2012 - 10:00 PM EST / 2012.02.09 0300 UTC","Wind":"from the ESE (120 degrees) at 14 MPH (12 KT):0","Visibility":"less than 1 mile:0","Sky conditions":"mostly cloudy","Weather":"snow; mist","Temperature":"19 F (-7 C)","Windchill":"5 F (-15 C):1","Dew Point":"17 F (-8 C)","Relative Humidity":"92%","Pressure (altimeter)":"30.39 in. Hg (1029 hPa)","ob":"EPGD 090300Z 12012KT 1200 R29/1300U SN BR BKN008 M07/M08 Q1029 R/490242","cycle":"3"},
{"_id":"4495a8a111ec85eb6d2389a681eb00cd","_rev":"1-4496fab3352f2774bbfdd245eb8b6846","Location":"Gdansk-Rebiechowo, Poland (EPGD) 54-23N 018-28E 138M","Date":"Dec 15, 2011 - 11:00 AM EST / 2011.12.15 1600 UTC","Wind":"from the S (190 degrees) at 6 MPH (5 KT) (direction variable):0","Visibility":"greater than 7 mile(s):0","Temperature":"37 F (3 C)","Dew Point":"32 F (0 C)","Relative Humidity":"80%","Pressure (altimeter)":"29.65 in. Hg (1004 hPa)","ob":"EPGD 151600Z 19005KT 150V210 CAVOK 03/00 Q1004","cycle":"16"},
{"_id":"4495a8a111ec85eb6d2389a681eb044f","_rev":"1-0fab9cb6aaeccbe26adc70c0f2f5383f","Location":"Gdansk-Rebiechowo, Poland (EPGD) 54-23N 018-28E 138M","Date":"Feb 07, 2012 - 07:00 AM EST / 2012.02.07 1200 UTC","Wind":"from the NE (040 degrees) at 9 MPH (8 KT) (direction variable):0","Visibility":"greater than 7 mile(s):0","Sky conditions":"mostly cloudy","Temperature":"17 F (-8 C)","Windchill":"5 F (-15 C):1","Dew Point":"10 F (-12 C)","Relative Humidity":"72%","Pressure (altimeter)":"30.71 in. Hg (1040 hPa)","ob":"EPGD 071200Z 04008KT 010V080 9999 BKN012 M08/M12 Q1040 R11/490238","cycle":"12"},
{"_id":"4495a8a111ec85eb6d2389a681eb128d","_rev":"1-fa1c31b91bb736d871c816bc635f0511","Location":"Gdansk-Rebiechowo, Poland (EPGD) 54-23N 018-28E 138M","Date":"Feb 06, 2012 - 06:00 PM EST / 2012.02.06 2300 UTC","Wind":"from the SSE (150 degrees) at 5 MPH (4 KT) (direction variable):0","Visibility":"3 mile(s):0","Sky conditions":"mostly cloudy","Weather":"light snow","Temperature":"8 F (-13 C)","Windchill":"0 F (-18 C):1","Dew Point":"5 F (-15 C)","Relative Humidity":"84%","Pressure (altimeter)":"30.65 in. Hg (1038 hPa)","ob":"EPGD 062300Z 15004KT 100V180 6000 -SN FEW004 BKN006 M13/M15 Q1038 R11/490152","cycle":"23"},
{"_id":"4495a8a111ec85eb6d2389a681eb12da","_rev":"1-478065869bd836cc1030a88b3823cbf2","Location":"Gdansk-Rebiechowo, Poland (EPGD) 54-23N 018-28E 138M","Date":"Feb 17, 2012 - 12:00 AM EST / 2012.02.17 0500 UTC","Wind":"from the S (190 degrees) at 9 MPH (8 KT) (direction variable):0","Visibility":"greater than 7 mile(s):0","Sky conditions":"mostly cloudy","Weather":"light snow","Temperature":"28 F (-2 C)","Windchill":"19 F (-7 C):1","Dew Point":"24 F (-4 C)","Relative Humidity":"86%","Pressure (altimeter)":"29.74 in. Hg (1007 hPa)","ob":"EPGD 170500Z 19008KT 150V220 9999 -SN BKN007 M02/M04 Q1007 R29/290050","cycle":"5"},
{"_id":"4495a8a111ec85eb6d2389a681eb209d","_rev":"1-c853eac329a55c0c6e126a15edcc27b4","Location":"Gdansk-Rebiechowo, Poland (EPGD) 54-23N 018-28E 138M","Date":"Feb 09, 2012 - 11:00 PM EST / 2012.02.10 0400 UTC","Wind":"from the W (280 degrees) at 2 MPH (2 KT):0","Visibility":"greater than 7 mile(s):0","Sky conditions":"mostly cloudy","Temperature":"1 F (-17 C)","Dew Point":"-2 F (-19 C)","Relative Humidity":"84%","Pressure (altimeter)":"30.71 in. Hg (1040 hPa)","ob":"EPGD 100400Z 28002KT 9999 BKN020 M17/M19 Q1040 R11/090095","cycle":"4"},
{"_id":"4495a8a111ec85eb6d2389a681eb2e85","_rev":"1-feaa1e4dcce07196f0397c6fa75edb1f","Location":"Gdansk-Rebiechowo, Poland (EPGD) 54-23N 018-28E 138M","Date":"Dec 29, 2011 - 11:00 AM EST / 2011.12.29 1600 UTC","Wind":"from the SW (230 degrees) at 14 MPH (12 KT) (direction variable):0","Visibility":"greater than 7 mile(s):0","Sky conditions":"mostly cloudy","Temperature":"39 F (4 C)","Dew Point":"33 F (1 C)","Relative Humidity":"80%","Pressure (altimeter)":"29.65 in. Hg (1004 hPa)","ob":"EPGD 291600Z 23012KT 180V280 9999 FEW020 BKN045 04/01 Q1004","cycle":"16"},
{"_id":"4495a8a111ec85eb6d2389a681eb32e3","_rev":"1-a5c0a489c81feab23d6129b4d1160ccc","Location":"Gdansk-Rebiechowo, Poland (EPGD) 54-23N 018-28E 138M","Date":"Jan 05, 2012 - 06:00 AM EST / 2012.01.05 1100 UTC","Wind":"from the SSW (200 degrees) at 12 MPH (10 KT) (direction variable):0","Visibility":"4 mile(s):0","Sky conditions":"mostly cloudy","Weather":"light snow, rain","Temperature":"35 F (2 C)","Windchill":"26 F (-3 C):1","Dew Point":"33 F (1 C)","Relative Humidity":"93%","Pressure (altimeter)":"28.70 in. Hg (0972 hPa)","ob":"EPGD 051100Z 20010KT 160V230 7000 -SNRA BKN008 02/01 Q0972","cycle":"11"},
{"_id":"4495a8a111ec85eb6d2389a681eb3821","_rev":"1-6de346f93229089ac20458b35976b43b","Location":"Gdansk-Rebiechowo, Poland (EPGD) 54-23N 018-28E 138M","Date":"Feb 11, 2012 - 10:00 AM EST / 2012.02.11 1500 UTC","Wind":"from the W (270 degrees) at 6 MPH (5 KT):0","Visibility":"1 mile(s):0","Sky conditions":"mostly cloudy","Weather":"light snow; mist","Temperature":"21 F (-6 C)","Windchill":"14 F (-10 C):1","Dew Point":"17 F (-8 C)","Relative Humidity":"85%","Pressure (altimeter)":"30.53 in. Hg (1034 hPa)","ob":"EPGD 111500Z 27005KT 2200 -SN BR FEW007 BKN009 M06/M08 Q1034 R29/490154","cycle":"15"},
{"_id":"4495a8a111ec85eb6d2389a681eb3a00","_rev":"1-640110370c93d914fbb32c5041331d43","Location":"Gdansk-Rebiechowo, Poland (EPGD) 54-23N 018-28E 138M","Date":"Jan 10, 2012 - 10:00 AM EST / 2012.01.10 1500 UTC","Wind":"from the NW (310 degrees) at 5 MPH (4 KT):0","Visibility":"less than 1 mile:0","Sky conditions":"obscured","Weather":"fog","Temperature":"33 F (1 C)","Windchill":"28 F (-2 C):1","Dew Point":"32 F (0 C)","Relative Humidity":"93%","Pressure (altimeter)":"30.21 in. Hg (1023 hPa)","ob":"EPGD 101500Z 31004KT 0400 R29/0750 FG VV002 01/00 Q1023 R11/290060","cycle":"15"},
{"_id":"4495a8a111ec85eb6d2389a681eb43ef","_rev":"1-a6e9a4bd4e02cb33e3445d6f48bcd014","Location":"Gdansk-Rebiechowo, Poland (EPGD) 54-23N 018-28E 138M","Date":"Jan 27, 2012 - 11:00 PM EST / 2012.01.28 0400 UTC","Wind":"from the ESE (110 degrees) at 10 MPH (9 KT):0","Visibility":"greater than 7 mile(s):0","Temperature":"8 F (-13 C)","Windchill":"-5 F (-21 C):2","Dew Point":"3 F (-16 C)","Relative Humidity":"78%","Pressure (altimeter)":"30.53 in. Hg (1034 hPa)","ob":"EPGD 280400Z 11009KT CAVOK M13/M16 Q1034 R11/190095","cycle":"4"},
{"_id":"4495a8a111ec85eb6d2389a681eb4fa7","_rev":"1-503b9f92de78b36c683ec9d4381fcf5f","Location":"Gdansk-Rebiechowo, Poland (EPGD) 54-23N 018-28E 138M","Date":"Jan 22, 2012 - 05:00 AM EST / 2012.01.22 1000 UTC","Wind":"from the SSW (210 degrees) at 9 MPH (8 KT) (direction variable):0","Visibility":"greater than 7 mile(s):0","Sky conditions":"mostly cloudy","Temperature":"35 F (2 C)","Windchill":"28 F (-2 C):1","Dew Point":"33 F (1 C)","Relative Humidity":"93%","Pressure (altimeter)":"29.23 in. Hg (0990 hPa)","ob":"EPGD 221000Z 21008KT 180V240 9999 BKN007 02/01 Q0990 R11/290066","cycle":"10"},
{"_id":"4495a8a111ec85eb6d2389a681eb57e2","_rev":"1-02f31e21d5aa238c318a0bc11fe589ce","Location":"Gdansk-Rebiechowo, Poland (EPGD) 54-23N 018-28E 138M","Date":"Dec 18, 2011 - 12:00 AM EST / 2011.12.18 0500 UTC","Wind":"from the W (260 degrees) at 13 MPH (11 KT):0","Visibility":"greater than 7 mile(s):0","Sky conditions":"partly cloudy","Temperature":"35 F (2 C)","Windchill":"26 F (-3 C):1","Dew Point":"30 F (-1 C)","Relative Humidity":"80%","Pressure (altimeter)":"29.21 in. Hg (0989 hPa)","ob":"EPGD 180500Z 26011KT 9999 SCT023 02/M01 Q0989 R11/290064","cycle":"5"},
{"_id":"4495a8a111ec85eb6d2389a681eb6415","_rev":"1-9e677245bbc9974ca707aa6af95ac027","Location":"Gdansk-Rebiechowo, Poland (EPGD) 54-23N 018-28E 138M","Date":"Feb 18, 2012 - 08:00 PM EST / 2012.02.19 0100 UTC","Wind":"from the S (190 degrees) at 10 MPH (9 KT):0","Visibility":"4 mile(s):0","Sky conditions":"mostly cloudy","Weather":"light rain","Temperature":"35 F (2 C)","Windchill":"26 F (-3 C):1","Dew Point":"33 F (1 C)","Relative Humidity":"93%","Pressure (altimeter)":"29.68 in. Hg (1005 hPa)","ob":"EPGD 190100Z 19009KT 8000 -RA BKN006 02/01 Q1005 R11/290095","cycle":"1"},
{"_id":"4495a8a111ec85eb6d2389a681eb6628","_rev":"1-7a4454fe41fc312800f0f4d12eb211c4","Location":"Gdansk-Rebiechowo, Poland (EPGD) 54-23N 018-28E 138M","Date":"Feb 06, 2012 - 07:00 AM EST / 2012.02.06 1200 UTC","Wind":"from the ENE (070 degrees) at 12 MPH (10 KT):0","Visibility":"2 mile(s):0","Sky conditions":"mostly cloudy","Weather":"light snow; mist","Temperature":"14 F (-10 C)","Windchill":"0 F (-18 C):1","Dew Point":"8 F (-13 C)","Relative Humidity":"78%","Pressure (altimeter)":"30.62 in. Hg (1037 hPa)","ob":"EPGD 061200Z 07010KT 3500 -SN BR FEW006 BKN009 M10/M13 Q1037 R11/490152","cycle":"12"},
{"_id":"4495a8a111ec85eb6d2389a681eb69ea","_rev":"1-6c3a5e9a1ebb52b5c46c9c2c31b11805","Location":"Gdansk-Rebiechowo, Poland (EPGD) 54-23N 018-28E 138M","Date":"Dec 19, 2011 - 11:00 AM EST / 2011.12.19 1600 UTC","Wind":"from the SW (220 degrees) at 15 MPH (13 KT) (direction variable):0","Visibility":"greater than 7 mile(s):0","Sky conditions":"mostly cloudy","Temperature":"35 F (2 C)","Windchill":"24 F (-4 C):1","Dew Point":"32 F (0 C)","Relative Humidity":"86%","Pressure (altimeter)":"29.83 in. Hg (1010 hPa)","ob":"EPGD 191600Z 22013KT 190V250 9999 BKN019 02/M00 Q1010 R11/290095","cycle":"16"},
{"_id":"4495a8a111ec85eb6d2389a681eb7087","_rev":"1-9127a572814550d8f45876ddcbf6d44f","Location":"Gdansk-Rebiechowo, Poland (EPGD) 54-23N 018-28E 138M","Date":"Feb 12, 2012 - 01:00 AM EST / 2012.02.12 0600 UTC","Wind":"from the W (260 degrees) at 7 MPH (6 KT):0","Visibility":"greater than 7 mile(s):0","Temperature":"15 F (-9 C)","Windchill":"5 F (-15 C):1","Dew Point":"10 F (-12 C)","Relative Humidity":"78%","Pressure (altimeter)":"30.36 in. Hg (1028 hPa)","ob":"EPGD 120600Z 26006KT CAVOK M09/M12 Q1028 R29/490241","cycle":"6"},
{"_id":"4495a8a111ec85eb6d2389a681eb7b60","_rev":"1-72b5b7595faf3e2f2064033c13d008f9","Location":"Gdansk-Rebiechowo, Poland (EPGD) 54-23N 018-28E 138M","Date":"Feb 13, 2012 - 12:00 AM EST / 2012.02.13 0500 UTC","Wind":"from the W (280 degrees) at 5 MPH (4 KT):0","Visibility":"3 mile(s):0","Sky conditions":"mostly cloudy","Temperature":"24 F (-4 C)","Windchill":"17 F (-8 C):1","Dew Point":"23 F (-5 C)","Relative Humidity":"92%","Pressure (altimeter)":"30.03 in. Hg (1017 hPa)","ob":"EPGD 130500Z 28004KT 6000 BKN036 M04/M05 Q1017 R29/490144","cycle":"5"},
{"_id":"4495a8a111ec85eb6d2389a681eb7cde","_rev":"1-52c7cc43e9cf5a944040c6bba52567ba","Location":"Gdansk-Rebiechowo, Poland (EPGD) 54-23N 018-28E 138M","Date":"Dec 21, 2011 - 10:00 PM EST / 2011.12.22 0300 UTC","Wind":"from the S (190 degrees) at 3 MPH (3 KT):0","Visibility":"1 mile(s):0","Weather":"mist","Temperature":"21 F (-6 C)","Dew Point":"19 F (-7 C)","Relative Humidity":"92%","Pressure (altimeter)":"30.03 in. Hg (1017 hPa)","ob":"EPGD 220300Z 19003KT 3000 BR NSC M06/M07 Q1017","cycle":"3"},
{"_id":"4495a8a111ec85eb6d2389a681eb874b","_rev":"1-0c30e530d0502e7c79a10a5a19625124","Location":"Gdansk-Rebiechowo, Poland (EPGD) 54-23N 018-28E 138M","Date":"Jan 11, 2012 - 01:00 AM EST / 2012.01.11 0600 UTC","Wind":"from the SW (220 degrees) at 8 MPH (7 KT) (direction variable):0","Visibility":"3 mile(s):0","Sky conditions":"mostly cloudy","Temperature":"37 F (3 C)","Dew Point":"35 F (2 C)","Relative Humidity":"93%","Pressure (altimeter)":"30.12 in. Hg (1020 hPa)","ob":"EPGD 110600Z 22007KT 190V260 6000 BKN008 03/02 Q1020 R11/290060","cycle":"6"},
{"_id":"4495a8a111ec85eb6d2389a681eb8b60","_rev":"1-6554eb5aaaefce3b3ccab115ca574769","Location":"Gdansk-Rebiechowo, Poland (EPGD) 54-23N 018-28E 138M","Date":"Jan 24, 2012 - 09:00 AM EST / 2012.01.24 1400 UTC","Wind":"from the NW (320 degrees) at 1 MPH (1 KT):0","Visibility":"4 mile(s):0","Sky conditions":"mostly clear","Temperature":"33 F (1 C)","Dew Point":"30 F (-1 C)","Relative Humidity":"86%","Pressure (altimeter)":"30.00 in. Hg (1016 hPa)","ob":"EPGD 241400Z 32001KT 8000 FEW027 01/M01 Q1016 R11/290095","cycle":"14"},
{"_id":"4495a8a111ec85eb6d2389a681eb8d5b","_rev":"1-c54ae4abe26266d0d51cda30c208f858","Location":"Gdansk-Rebiechowo, Poland (EPGD) 54-23N 018-28E 138M","Date":"Jan 14, 2012 - 06:00 AM EST / 2012.01.14 1100 UTC","Wind":"from the NW (320 degrees) at 21 MPH (18 KT):0","Visibility":"4 mile(s):0","Sky conditions":"partly cloudy","Weather":"light snow showers; low drifting snow; Towering cumulus clouds observed","Temperature":"32 F (0 C)","Windchill":"19 F (-7 C):1","Dew Point":"24 F (-4 C)","Relative Humidity":"74%","Pressure (altimeter)":"29.77 in. Hg (1008 hPa)","ob":"EPGD 141100Z 32018KT 8000 -SHSN DRSN FEW009 SCT021TCU SCT025 00/M04 Q1008 R11/620163","cycle":"11"},
{"_id":"4495a8a111ec85eb6d2389a681eb99b9","_rev":"1-b9dceaf60a2c708cc13969f78bfa553b","Location":"Gdansk-Rebiechowo, Poland (EPGD) 54-23N 018-28E 138M","Date":"Jan 04, 2012 - 11:00 AM EST / 2012.01.04 1600 UTC","Wind":"from the WSW (250 degrees) at 21 MPH (18 KT) gusting to 36 MPH (31 KT) (direction variable):0","Visibility":"greater than 7 mile(s):0","Sky conditions":"mostly cloudy","Weather":"light rain showers","Temperature":"41 F (5 C)","Dew Point":"32 F (0 C)","Relative Humidity":"70%","Pressure (altimeter)":"29.44 in. Hg (0997 hPa)","ob":"EPGD 041600Z 25018G31KT 220V280 9999 -SHRA FEW014 BKN030 05/00 Q0997","cycle":"16"},
{"_id":"4495a8a111ec85eb6d2389a681eb9b11","_rev":"1-7f3615db4937453bb58cceeb7a27cb8a","Location":"Gdansk-Rebiechowo, Poland (EPGD) 54-23N 018-28E 138M","Date":"Jan 27, 2012 - 12:00 AM EST / 2012.01.27 0500 UTC","Wind":"from the SE (130 degrees) at 6 MPH (5 KT):0","Visibility":"2 mile(s):0","Weather":"mist","Temperature":"10 F (-12 C)","Windchill":"0 F (-18 C):1","Dew Point":"6 F (-14 C)","Relative Humidity":"85%","Pressure (altimeter)":"30.45 in. Hg (1031 hPa)","ob":"EPGD 270500Z 13005KT 4000 BR NSC M12/M14 Q1031 R11/190095","cycle":"5"},
{"_id":"4495a8a111ec85eb6d2389a681eba8b7","_rev":"1-24715d2f38a3e5075f1b72a4ada882fc","Location":"Gdansk-Rebiechowo, Poland (EPGD) 54-23N 018-28E 138M","Date":"Dec 16, 2011 - 05:00 PM EST / 2011.12.16 2200 UTC","Wind":"from the ESE (120 degrees) at 18 MPH (16 KT):0","Visibility":"1 mile(s):0","Sky conditions":"mostly cloudy","Weather":"light snow; mist","Temperature":"33 F (1 C)","Windchill":"21 F (-6 C):1","Dew Point":"32 F (0 C)","Relative Humidity":"93%","Pressure (altimeter)":"28.70 in. Hg (0972 hPa)","ob":"EPGD 162200Z 12016KT 2500 -SN BR BKN003 01/M00 Q0972 RESN R11/690095","cycle":"22"},
{"_id":"4495a8a111ec85eb6d2389a681ebb86b","_rev":"1-19baf9d42b7b96c6189611b0a5120294","Location":"Gdansk-Rebiechowo, Poland (EPGD) 54-23N 018-28E 138M","Date":"Feb 14, 2012 - 07:00 AM EST / 2012.02.14 1200 UTC","Wind":"from the SW (230 degrees) at 8 MPH (7 KT) (direction variable):0","Visibility":"greater than 7 mile(s):0","Temperature":"30 F (-1 C)","Windchill":"23 F (-5 C):1","Dew Point":"23 F (-5 C)","Relative Humidity":"74%","Pressure (altimeter)":"29.88 in. Hg (1012 hPa)","ob":"EPGD 141200Z 23007KT 200V290 CAVOK M01/M05 Q1012 R11/190095","cycle":"12"},
{"_id":"4495a8a111ec85eb6d2389a681ebbe47","_rev":"1-11a3f53d976123f7f221687b260cc930","Location":"Gdansk-Rebiechowo, Poland (EPGD) 54-23N 018-28E 138M","Date":"Dec 28, 2011 - 07:00 AM EST / 2011.12.28 1200 UTC","Wind":"from the SSW (200 degrees) at 7 MPH (6 KT) (direction variable):0","Visibility":"greater than 7 mile(s):0","Sky conditions":"mostly cloudy","Temperature":"41 F (5 C)","Dew Point":"39 F (4 C)","Relative Humidity":"93%","Pressure (altimeter)":"30.21 in. Hg (1023 hPa)","ob":"EPGD 281200Z 20006KT 150V240 9999 BKN005 05/04 Q1023","cycle":"12"},
{"_id":"4495a8a111ec85eb6d2389a681ebcd70","_rev":"1-86182053ec412c0553236f810e5327f4","Location":"Gdansk-Rebiechowo, Poland (EPGD) 54-23N 018-28E 138M","Date":"Jan 19, 2012 - 08:00 PM EST / 2012.01.20 0100 UTC","Wind":"from the W (280 degrees) at 6 MPH (5 KT):0","Visibility":"2 mile(s):0","Sky conditions":"mostly cloudy","Weather":"light snow","Temperature":"33 F (1 C)","Windchill":"26 F (-3 C):1","Dew Point":"32 F (0 C)","Relative Humidity":"93%","Pressure (altimeter)":"29.38 in. Hg (0995 hPa)","ob":"EPGD 200100Z 28005KT 4000 -SN BKN008 01/M00 Q0995","cycle":"1"},
{"_id":"4495a8a111ec85eb6d2389a681ebd39d","_rev":"1-f3b7144a11e02dc604fd31ade898cfc7","Location":"Gdansk-Rebiechowo, Poland (EPGD) 54-23N 018-28E 138M","Date":"Dec 16, 2011 - 09:00 PM EST / 2011.12.17 0200 UTC","Wind":"from the S (190 degrees) at 12 MPH (10 KT) (direction variable):0","Visibility":"3 mile(s):0","Sky conditions":"mostly cloudy","Weather":"mist","Temperature":"39 F (4 C)","Dew Point":"32 F (0 C)","Relative Humidity":"75%","Pressure (altimeter)":"28.67 in. Hg (0971 hPa)","ob":"EPGD 170200Z 19010KT 150V220 5000 BR SCT015 BKN040 04/00 Q0971 R11/290064","cycle":"2"},
{"_id":"4495a8a111ec85eb6d2389a681ebdeb2","_rev":"1-d36ca511bba0940b717870cd9da7c5c2","Location":"Gdansk-Rebiechowo, Poland (EPGD) 54-23N 018-28E 138M","Date":"Jan 25, 2012 - 11:00 PM EST / 2012.01.26 0400 UTC","Wind":"from the E (090 degrees) at 2 MPH (2 KT):0","Visibility":"4 mile(s):0","Sky conditions":"mostly cloudy","Weather":"light snow showers; Towering cumulus clouds observed","Temperature":"28 F (-2 C)","Dew Point":"26 F (-3 C)","Relative Humidity":"92%","Pressure (altimeter)":"30.30 in. Hg (1026 hPa)","ob":"EPGD 260400Z 09002KT 8000 -SHSN FEW003TCU BKN005 M02/M03 Q1026 R11/290095","cycle":"4"},
{"_id":"4495a8a111ec85eb6d2389a681ebe06a","_rev":"1-1cabd2c693aba83dadd76f499c9201fb","Location":"Gdansk-Rebiechowo, Poland (EPGD) 54-23N 018-28E 138M","Date":"Jan 15, 2012 - 03:00 PM EST / 2012.01.15 2000 UTC","Wind":"from the NW (310 degrees) at 3 MPH (3 KT):0","Visibility":"4 mile(s):0","Sky conditions":"mostly cloudy","Weather":"light snow showers","Temperature":"28 F (-2 C)","Dew Point":"26 F (-3 C)","Relative Humidity":"92%","Pressure (altimeter)":"30.15 in. Hg (1021 hPa)","ob":"EPGD 152000Z 31003KT 8000 -SHSN SCT008 BKN023 M02/M03 Q1021 RESHSN R11/590142","cycle":"20"},
{"_id":"4495a8a111ec85eb6d2389a681ebeb4a","_rev":"1-e80e06e097398923e85f5f35cf8dd95a","Location":"Gdansk-Rebiechowo, Poland (EPGD) 54-23N 018-28E 138M","Date":"Feb 04, 2012 - 10:00 AM EST / 2012.02.04 1500 UTC","Wind":"from the ESE (120 degrees) at 6 MPH (5 KT):0","Visibility":"1 mile(s):0","Sky conditions":"mostly cloudy","Weather":"light snow; mist","Temperature":"8 F (-13 C)","Windchill":"-2 F (-19 C):1","Dew Point":"3 F (-16 C)","Relative Humidity":"78%","Pressure (altimeter)":"30.56 in. Hg (1035 hPa)","ob":"EPGD 041500Z 12005KT 2500 -SN BR FEW006 BKN011 M13/M16 Q1035 R11/490136","cycle":"15"},
{"_id":"4495a8a111ec85eb6d2389a681ebeddd","_rev":"1-1e4bea9474a571b292e007c17a6431df","Location":"Gdansk-Rebiechowo, Poland (EPGD) 54-23N 018-28E 138M","Date":"Feb 16, 2012 - 05:00 AM EST / 2012.02.16 1000 UTC","Wind":"from the ENE (070 degrees) at 3 MPH (3 KT) (direction variable):0","Visibility":"greater than 7 mile(s):0","Sky conditions":"partly cloudy","Temperature":"30 F (-1 C)","Dew Point":"23 F (-5 C)","Relative Humidity":"74%","Pressure (altimeter)":"29.97 in. Hg (1015 hPa)","ob":"EPGD 161000Z 07003KT 350V140 9999 SCT013 M01/M05 Q1015 R11/490075","cycle":"10"},
{"_id":"4495a8a111ec85eb6d2389a681ebfb2d","_rev":"1-3e1a912bd39d5c21fe4b516b93fffc64","Location":"Gdansk-Rebiechowo, Poland (EPGD) 54-23N 018-28E 138M","Date":"Feb 15, 2012 - 06:00 AM EST / 2012.02.15 1100 UTC","Wind":"from the NNE (030 degrees) at 5 MPH (4 KT) (direction variable):0","Visibility":"1 mile(s):0","Sky conditions":"mostly cloudy","Weather":"light snow; mist","Temperature":"26 F (-3 C)","Windchill":"19 F (-7 C):1","Dew Point":"24 F (-4 C)","Relative Humidity":"92%","Pressure (altimeter)":"29.06 in. Hg (0984 hPa)","ob":"EPGD 151100Z 03004KT 360V060 2500 R29/1100V1300 -SN BR BKN007 M03/M04 Q0984 R11/490157","cycle":"11"},
{"_id":"4495a8a111ec85eb6d2389a681ec0746","_rev":"1-0100f9a1c4a3ef34bff4b1800eb6d329","Location":"Gdansk-Rebiechowo, Poland (EPGD) 54-23N 018-28E 138M","Date":"Dec 27, 2011 - 04:00 AM EST / 2011.12.27 0900 UTC","Wind":"from the W (270 degrees) at 20 MPH (17 KT) gusting to 39 MPH (34 KT):0","Visibility":"greater than 7 mile(s):0","Sky conditions":"mostly cloudy","Weather":"light drizzle","Temperature":"50 F (10 C)","Dew Point":"44 F (7 C)","Relative Humidity":"81%","Pressure (altimeter)":"30.18 in. Hg (1022 hPa)","ob":"EPGD 270900Z 27017G34KT 9999 -DZ FEW009 BKN014 10/07 Q1022","cycle":"9"},
{"_id":"4495a8a111ec85eb6d2389a681ec0847","_rev":"1-6ab512263d302dd9c69ac835fc5c3464","Location":"Gdansk-Rebiechowo, Poland (EPGD) 54-23N 018-28E 138M","Date":"Feb 10, 2012 - 01:00 PM EST / 2012.02.10 1800 UTC","Wind":"from the NNE (030 degrees) at 3 MPH (3 KT) (direction variable):0","Visibility":"greater than 7 mile(s):0","Sky conditions":"mostly cloudy","Temperature":"15 F (-9 C)","Dew Point":"10 F (-12 C)","Relative Humidity":"78%","Pressure (altimeter)":"30.68 in. Hg (1039 hPa)","ob":"EPGD 101800Z 03003KT 340V070 9999 BKN013 M09/M12 Q1039 R11/090095","cycle":"18"},
{"_id":"4495a8a111ec85eb6d2389a681ec08fd","_rev":"1-5ff85d4c20b6cb71f304f6acee6b1aab","Location":"Gdansk-Rebiechowo, Poland (EPGD) 54-23N 018-28E 138M","Date":"Jan 02, 2012 - 10:00 AM EST / 2012.01.02 1500 UTC","Wind":"from the W (280 degrees) at 12 MPH (10 KT):0","Visibility":"greater than 7 mile(s):0","Sky conditions":"partly cloudy","Weather":"light rain showers; Towering cumulus clouds observed","Temperature":"46 F (8 C)","Dew Point":"42 F (6 C)","Relative Humidity":"87%","Pressure (altimeter)":"29.62 in. Hg (1003 hPa)","ob":"EPGD 021500Z 28010KT 9999 -SHRA SCT013TCU SCT015 08/06 Q1003","cycle":"15"},
{"_id":"4495a8a111ec85eb6d2389a681ec1203","_rev":"1-bf7bd1913755722ad409738fa468db15","Location":"Gdansk-Rebiechowo, Poland (EPGD) 54-23N 018-28E 138M","Date":"Jan 13, 2012 - 06:00 PM EST / 2012.01.13 2300 UTC","Wind":"from the NW (310 degrees) at 20 MPH (17 KT):0","Visibility":"greater than 7 mile(s):0","Sky conditions":"partly cloudy","Weather":"light snow showers","Temperature":"32 F (0 C)","Windchill":"19 F (-7 C):1","Dew Point":"24 F (-4 C)","Relative Humidity":"74%","Pressure (altimeter)":"29.59 in. Hg (1002 hPa)","ob":"EPGD 132300Z 31017KT 9999 -SHSN FEW019 SCT027 00/M04 Q1002 R11/590195","cycle":"23"},
{"_id":"4495a8a111ec85eb6d2389a681ec1409","_rev":"1-f70bb989709d870b4bf78845ab032ac0","Location":"Gdansk-Rebiechowo, Poland (EPGD) 54-23N 018-28E 138M","Date":"Dec 24, 2011 - 09:00 AM EST / 2011.12.24 1400 UTC","Wind":"from the WSW (240 degrees) at 5 MPH (4 KT) (direction variable):0","Visibility":"2 mile(s):0","Sky conditions":"mostly cloudy","Weather":"light rain; mist","Temperature":"41 F (5 C)","Dew Point":"39 F (4 C)","Relative Humidity":"93%","Pressure (altimeter)":"29.77 in. Hg (1008 hPa)","ob":"EPGD 241400Z 24004KT 200V270 4000 -RA BR BKN003 BKN020 05/04 Q1008","cycle":"14"},
{"_id":"4495a8a111ec85eb6d2389a681ec1f59","_rev":"1-f5c92eb3272a32fd8fa33b7f2eec48c7","Location":"Gdansk-Rebiechowo, Poland (EPGD) 54-23N 018-28E 138M","Date":"Feb 14, 2012 - 08:00 PM EST / 2012.02.15 0100 UTC","Wind":"from the S (190 degrees) at 10 MPH (9 KT) (direction variable):0","Visibility":"1 mile(s):0","Sky conditions":"mostly cloudy","Weather":"light snow; mist","Temperature":"24 F (-4 C)","Windchill":"14 F (-10 C):1","Dew Point":"23 F (-5 C)","Relative Humidity":"92%","Pressure (altimeter)":"29.15 in. Hg (0987 hPa)","ob":"EPGD 150100Z 19009KT 150V210 2200 -SN BR SCT005 BKN014 M04/M05 Q0987 R11/590243","cycle":"1"},
{"_id":"4495a8a111ec85eb6d2389a681ec2d05","_rev":"1-1241721e2a79f750cf0d860c462d9a7d","Location":"Gdansk-Rebiechowo, Poland (EPGD) 54-23N 018-28E 138M","Date":"Feb 18, 2012 - 02:00 AM EST / 2012.02.18 0700 UTC","Wind":"from the W (260 degrees) at 8 MPH (7 KT) (direction variable):0","Visibility":"greater than 7 mile(s):0","Sky conditions":"mostly cloudy","Temperature":"32 F (0 C)","Windchill":"24 F (-4 C):1","Dew Point":"28 F (-2 C)","Relative Humidity":"86%","Pressure (altimeter)":"29.91 in. Hg (1013 hPa)","ob":"EPGD 180700Z 26007KT 220V290 9999 BKN005 M00/M02 Q1013 R11/190095","cycle":"7"},
{"_id":"4495a8a111ec85eb6d2389a681ec39a4","_rev":"1-3ff4266225189074e8dbb4070e16e61f","Location":"Gdansk-Rebiechowo, Poland (EPGD) 54-23N 018-28E 138M","Date":"Jan 06, 2012 - 10:00 AM EST / 2012.01.06 1500 UTC","Wind":"from the NW (310 degrees) at 16 MPH (14 KT):0","Visibility":"4 mile(s):0","Sky conditions":"mostly cloudy","Weather":"light snow showers","Temperature":"33 F (1 C)","Windchill":"23 F (-5 C):1","Dew Point":"30 F (-1 C)","Relative Humidity":"86%","Pressure (altimeter)":"29.62 in. Hg (1003 hPa)","ob":"EPGD 061500Z 31014KT 7000 -SHSN BKN007 01/M01 Q1003","cycle":"15"},
{"_id":"4495a8a111ec85eb6d2389a681ec43e0","_rev":"1-8fd5d660f12d1c5e0e423b2966a637bd","Location":"Gdansk-Rebiechowo, Poland (EPGD) 54-23N 018-28E 138M","Date":"Feb 14, 2012 - 12:00 PM EST / 2012.02.14 1700 UTC","Wind":"from the SSW (210 degrees) at 10 MPH (9 KT) (direction variable):0","Visibility":"greater than 7 mile(s):0","Temperature":"26 F (-3 C)","Windchill":"15 F (-9 C):1","Dew Point":"19 F (-7 C)","Relative Humidity":"73%","Pressure (altimeter)":"29.68 in. Hg (1005 hPa)","ob":"EPGD 141700Z 21009KT 170V240 CAVOK M03/M07 Q1005 R11/190095","cycle":"17"},
{"_id":"4495a8a111ec85eb6d2389a681ec4877","_rev":"1-6b27828740352a08a688e3149692fa14","Location":"Gdansk-Rebiechowo, Poland (EPGD) 54-23N 018-28E 138M","Date":"Jan 26, 2012 - 08:00 AM EST / 2012.01.26 1300 UTC","Wind":"from the ESE (110 degrees) at 9 MPH (8 KT) (direction variable):0","Visibility":"4 mile(s):0","Sky conditions":"overcast","Temperature":"26 F (-3 C)","Windchill":"17 F (-8 C):1","Dew Point":"23 F (-5 C)","Relative Humidity":"86%","Pressure (altimeter)":"30.42 in. Hg (1030 hPa)","ob":"EPGD 261300Z 11008KT 080V140 7000 OVC008 M03/M05 Q1030 R11/290095","cycle":"13"},
{"_id":"4495a8a111ec85eb6d2389a681ec49ae","_rev":"1-78f1715cf30abce6b78499f8c90b497a","Location":"Gdansk-Rebiechowo, Poland (EPGD) 54-23N 018-28E 138M","Date":"Jan 16, 2012 - 12:00 PM EST / 2012.01.16 1700 UTC","Wind":"from the W (270 degrees) at 3 MPH (3 KT):0","Visibility":"greater than 7 mile(s):0","Temperature":"26 F (-3 C)","Dew Point":"23 F (-5 C)","Relative Humidity":"86%","Pressure (altimeter)":"30.12 in. Hg (1020 hPa)","ob":"EPGD 161700Z 27003KT CAVOK M03/M05 Q1020 R11/190095","cycle":"17"},
{"_id":"4495a8a111ec85eb6d2389a681ec5184","_rev":"1-a5f8758fbe62aeb4b1a35d048952f0a7","Location":"Gdansk-Rebiechowo, Poland (EPGD) 54-23N 018-28E 138M","Date":"Dec 28, 2011 - 05:00 PM EST / 2011.12.28 2200 UTC","Wind":"from the WSW (240 degrees) at 9 MPH (8 KT) (direction variable):0","Visibility":"greater than 7 mile(s):0","Sky conditions":"mostly cloudy","Temperature":"41 F (5 C)","Dew Point":"37 F (3 C)","Relative Humidity":"86%","Pressure (altimeter)":"29.88 in. Hg (1012 hPa)","ob":"EPGD 282200Z 24008KT 200V270 9999 BKN013 05/03 Q1012","cycle":"22"},
{"_id":"4495a8a111ec85eb6d2389a681ec5e15","_rev":"1-a071281f8d78772c462ff6d9b3e55c1b","Location":"Gdansk-Rebiechowo, Poland (EPGD) 54-23N 018-28E 138M","Date":"Jan 24, 2012 - 03:00 AM EST / 2012.01.24 0800 UTC","Wind":"Variable at 2 MPH (2 KT):0","Visibility":"2 mile(s):0","Sky conditions":"mostly cloudy","Weather":"mist","Temperature":"32 F (0 C)","Dew Point":"32 F (0 C)","Relative Humidity":"100%","Pressure (altimeter)":"29.91 in. Hg (1013 hPa)","ob":"EPGD 240800Z VRB02KT 4000 BR FEW007 BKN026 00/M00 Q1013 R11/690252","cycle":"8"},
{"_id":"4495a8a111ec85eb6d2389a681ec5eae","_rev":"1-7a86c79237791052e028d9c1a5089929","Location":"Gdansk-Rebiechowo, Poland (EPGD) 54-23N 018-28E 138M","Date":"Feb 01, 2012 - 08:00 PM EST / 2012.02.02 0100 UTC","Wind":"Calm:0","Visibility":"1 mile(s):0","Sky conditions":"mostly cloudy","Weather":"light snow","Temperature":"5 F (-15 C)","Dew Point":"0 F (-18 C)","Relative Humidity":"77%","Pressure (altimeter)":"30.62 in. Hg (1037 hPa)","ob":"EPGD 020100Z 00000KT 3000 -SN SCT009 BKN035 M15/M18 Q1037 R11/490150","cycle":"1"},
{"_id":"4495a8a111ec85eb6d2389a681ec6452","_rev":"1-202a9c97d86dc2b2d24a9b314252117e","Location":"Gdansk-Rebiechowo, Poland (EPGD) 54-23N 018-28E 138M","Date":"Dec 15, 2011 - 08:00 AM EST / 2011.12.15 1300 UTC","Wind":"from the S (190 degrees) at 9 MPH (8 KT) (direction variable):0","Visibility":"greater than 7 mile(s):0","Sky conditions":"mostly clear","Temperature":"39 F (4 C)","Dew Point":"32 F (0 C)","Relative Humidity":"75%","Pressure (altimeter)":"29.65 in. Hg (1004 hPa)","ob":"EPGD 151300Z 19008KT 160V230 9999 FEW046 04/M00 Q1004","cycle":"13"},
{"_id":"4495a8a111ec85eb6d2389a681ec6817","_rev":"1-eb60c29a1d02aae49b54c777666ae927","Location":"Gdansk-Rebiechowo, Poland (EPGD) 54-23N 018-28E 138M","Date":"Dec 16, 2011 - 03:00 PM EST / 2011.12.16 2000 UTC","Wind":"from the ESE (120 degrees) at 20 MPH (17 KT) gusting to 31 MPH (27 KT):0","Visibility":"1 mile(s):0","Sky conditions":"mostly cloudy","Weather":"light rain, snow; mist","Temperature":"35 F (2 C)","Windchill":"24 F (-4 C):1","Dew Point":"33 F (1 C)","Relative Humidity":"93%","Pressure (altimeter)":"28.79 in. Hg (0975 hPa)","ob":"EPGD 162000Z 12017G27KT 2500 -RASN BR BKN004 02/01 Q0975 R11/690095","cycle":"20"},
{"_id":"4495a8a111ec85eb6d2389a681ec74d5","_rev":"1-623329634a7c148525cf8a1717b5f723","Location":"Gdansk-Rebiechowo, Poland (EPGD) 54-23N 018-28E 138M","Date":"Dec 24, 2011 - 05:00 PM EST / 2011.12.24 2200 UTC","Wind":"from the WNW (290 degrees) at 15 MPH (13 KT):0","Visibility":"greater than 7 mile(s):0","Sky conditions":"mostly cloudy","Temperature":"37 F (3 C)","Dew Point":"33 F (1 C)","Relative Humidity":"86%","Pressure (altimeter)":"29.97 in. Hg (1015 hPa)","ob":"EPGD 242200Z 29013KT 9999 BKN013 03/01 Q1015","cycle":"22"},
{"_id":"4495a8a111ec85eb6d2389a681ec7684","_rev":"1-7eaa12aa00101c3dd0540d001789d59d","Location":"Gdansk-Rebiechowo, Poland (EPGD) 54-23N 018-28E 138M","Date":"Jan 15, 2012 - 06:00 AM EST / 2012.01.15 1100 UTC","Wind":"from the N (360 degrees) at 12 MPH (10 KT) gusting to 23 MPH (20 KT) (direction variable):0","Visibility":"greater than 7 mile(s):0","Sky conditions":"mostly cloudy","Temperature":"32 F (0 C)","Windchill":"23 F (-5 C):1","Dew Point":"26 F (-3 C)","Relative Humidity":"80%","Pressure (altimeter)":"30.06 in. Hg (1018 hPa)","ob":"EPGD 151100Z 36010G20KT 300V050 9999 FEW011 BKN015 M00/M03 Q1018 R11/590142","cycle":"11"},
{"_id":"4495a8a111ec85eb6d2389a681ec79a4","_rev":"1-06e4163b160eb8903f97f1b1c5bf07f5","Location":"Gdansk-Rebiechowo, Poland (EPGD) 54-23N 018-28E 138M","Date":"Dec 13, 2011 - 12:00 PM EST / 2011.12.13 1700 UTC","Wind":"from the S (180 degrees) at 16 MPH (14 KT) gusting to 28 MPH (24 KT) (direction variable):0","Visibility":"greater than 7 mile(s):0","Sky conditions":"mostly cloudy","Temperature":"41 F (5 C)","Dew Point":"32 F (0 C)","Relative Humidity":"70%","Pressure (altimeter)":"29.50 in. Hg (0999 hPa)","ob":"EPGD 131700Z 18014G24KT 140V230 9999 FEW026 BKN033 05/M00 Q0999","cycle":"17"},
{"_id":"4495a8a111ec85eb6d2389a681ec7fa3","_rev":"1-33ea39de76432fdda5607d498d18b9a7","Location":"Gdansk-Rebiechowo, Poland (EPGD) 54-23N 018-28E 138M","Date":"Jan 20, 2012 - 02:00 PM EST / 2012.01.20 1900 UTC","Wind":"from the WSW (250 degrees) at 5 MPH (4 KT) (direction variable):0","Visibility":"greater than 7 mile(s):0","Sky conditions":"mostly cloudy","Temperature":"33 F (1 C)","Windchill":"28 F (-2 C):1","Dew Point":"30 F (-1 C)","Relative Humidity":"86%","Pressure (altimeter)":"29.56 in. Hg (1001 hPa)","ob":"EPGD 201900Z 25004KT 220V290 9999 FEW008 BKN015 01/M01 Q1001 R11/190095","cycle":"19"},
{"_id":"4495a8a111ec85eb6d2389a681ec8b26","_rev":"1-0d354dfe3715060f9d6ca1541c4598aa","Location":"Gdansk-Rebiechowo, Poland (EPGD) 54-23N 018-28E 138M","Date":"Dec 25, 2011 - 05:00 AM EST / 2011.12.25 1000 UTC","Wind":"from the WSW (240 degrees) at 12 MPH (10 KT) (direction variable):0","Visibility":"greater than 7 mile(s):0","Sky conditions":"mostly cloudy","Temperature":"37 F (3 C)","Dew Point":"33 F (1 C)","Relative Humidity":"86%","Pressure (altimeter)":"30.15 in. Hg (1021 hPa)","ob":"EPGD 251000Z 24010KT 180V260 9999 BKN009 03/01 Q1021","cycle":"10"},
{"_id":"4495a8a111ec85eb6d2389a681ec985d","_rev":"1-365302579301337b636fb6f785653d46","Location":"Gdansk-Rebiechowo, Poland (EPGD) 54-23N 018-28E 138M","Date":"Feb 04, 2012 - 06:00 AM EST / 2012.02.04 1100 UTC","Wind":"from the SE (130 degrees) at 9 MPH (8 KT) (direction variable):0","Visibility":"less than 1 mile:0","Sky conditions":"mostly cloudy","Weather":"light snow; mist","Temperature":"8 F (-13 C)","Windchill":"-5 F (-21 C):2","Dew Point":"3 F (-16 C)","Relative Humidity":"78%","Pressure (altimeter)":"30.56 in. Hg (1035 hPa)","ob":"EPGD 041100Z 13008KT 100V160 1500 R29/1400U -SN BR FEW005 BKN010 M13/M16 Q1035 R11/490136","cycle":"11"},
{"_id":"4495a8a111ec85eb6d2389a681eca692","_rev":"1-f0cd6dd13df38dabc6dba70bcdf72d44","Location":"Gdansk-Rebiechowo, Poland (EPGD) 54-23N 018-28E 138M","Date":"Jan 13, 2012 - 10:00 PM EST / 2012.01.14 0300 UTC","Wind":"from the NW (320 degrees) at 23 MPH (20 KT):0","Visibility":"4 mile(s):0","Sky conditions":"mostly cloudy","Weather":"light snow; low drifting snow","Temperature":"32 F (0 C)","Windchill":"19 F (-7 C):1","Dew Point":"23 F (-5 C)","Relative Humidity":"69%","Pressure (altimeter)":"29.65 in. Hg (1004 hPa)","ob":"EPGD 140300Z 32020KT 8000 -SN DRSN FEW009 BKN022 00/M05 Q1004 R11/590195","cycle":"3"},
{"_id":"4495a8a111ec85eb6d2389a681ecafe1","_rev":"1-fa4ae034b09b316bdf6a3abe49976066","Location":"Gdansk-Rebiechowo, Poland (EPGD) 54-23N 018-28E 138M","Date":"Dec 23, 2011 - 08:00 AM EST / 2011.12.23 1300 UTC","Wind":"from the SSW (210 degrees) at 6 MPH (5 KT) (direction variable):0","Visibility":"3 mile(s):0","Sky conditions":"overcast","Weather":"mist","Temperature":"33 F (1 C)","Windchill":"26 F (-3 C):1","Dew Point":"32 F (0 C)","Relative Humidity":"93%","Pressure (altimeter)":"29.97 in. Hg (1015 hPa)","ob":"EPGD 231300Z 21005KT 130V250 5000 BR OVC004 01/M00 Q1015","cycle":"13"},
{"_id":"4495a8a111ec85eb6d2389a681ecb120","_rev":"1-3a61ac53a8205ac283f739884a61ed70","Location":"Gdansk-Rebiechowo, Poland (EPGD) 54-23N 018-28E 138M","Date":"Feb 17, 2012 - 08:00 AM EST / 2012.02.17 1300 UTC","Wind":"from the W (280 degrees) at 15 MPH (13 KT):0","Visibility":"4 mile(s):0","Sky conditions":"mostly cloudy","Temperature":"33 F (1 C)","Windchill":"23 F (-5 C):1","Dew Point":"32 F (0 C)","Relative Humidity":"93%","Pressure (altimeter)":"29.71 in. Hg (1006 hPa)","ob":"EPGD 171300Z 28013KT 8000 BKN006 01/M00 Q1006 R11/290095","cycle":"13"},
{"_id":"4495a8a111ec85eb6d2389a681ecbfdf","_rev":"1-00b1aa7438d39dac21f8d75d7fe4dcc0","Location":"Gdansk-Rebiechowo, Poland (EPGD) 54-23N 018-28E 138M","Date":"Jan 20, 2012 - 02:00 AM EST / 2012.01.20 0700 UTC","Wind":"from the W (270 degrees) at 8 MPH (7 KT):0","Visibility":"greater than 7 mile(s):0","Sky conditions":"mostly cloudy","Temperature":"33 F (1 C)","Windchill":"26 F (-3 C):1","Dew Point":"32 F (0 C)","Relative Humidity":"93%","Pressure (altimeter)":"29.47 in. Hg (0998 hPa)","ob":"EPGD 200700Z 27007KT 9999 BKN006 01/M00 Q0998 R29/69 R11/690252","cycle":"7"},
{"_id":"4495a8a111ec85eb6d2389a681ecc947","_rev":"1-349e80d541e53155421aa27cff98b6a1","Location":"Gdansk-Rebiechowo, Poland (EPGD) 54-23N 018-28E 138M","Date":"Dec 23, 2011 - 09:00 PM EST / 2011.12.24 0200 UTC","Wind":"from the SW (220 degrees) at 5 MPH (4 KT) (direction variable):0","Visibility":"2 mile(s):0","Sky conditions":"mostly cloudy","Weather":"mist","Temperature":"37 F (3 C)","Dew Point":"37 F (3 C)","Relative Humidity":"100%","Pressure (altimeter)":"29.77 in. Hg (1008 hPa)","ob":"EPGD 240200Z 22004KT 150V300 4000 BR BKN003 03/03 Q1008","cycle":"2"},
{"_id":"4495a8a111ec85eb6d2389a681ecd34e","_rev":"1-6ba178f00cb43ec518e3064ee5577189","Location":"Gdansk-Rebiechowo, Poland (EPGD) 54-23N 018-28E 138M","Date":"Dec 27, 2011 - 02:00 PM EST / 2011.12.27 1900 UTC","Wind":"from the W (280 degrees) at 14 MPH (12 KT):0","Visibility":"greater than 7 mile(s):0","Sky conditions":"partly cloudy","Temperature":"41 F (5 C)","Dew Point":"35 F (2 C)","Relative Humidity":"80%","Pressure (altimeter)":"30.36 in. Hg (1028 hPa)","ob":"EPGD 271900Z 28012KT 9999 SCT015 05/02 Q1028","cycle":"19"},
{"_id":"4495a8a111ec85eb6d2389a681ecd713","_rev":"1-b9dc4989e0b4fb9a11b4f3d598a4671c","Location":"Gdansk-Rebiechowo, Poland (EPGD) 54-23N 018-28E 138M","Date":"Jan 02, 2012 - 03:00 AM EST / 2012.01.02 0800 UTC","Wind":"from the SSW (210 degrees) at 14 MPH (12 KT) (direction variable):0","Visibility":"2 mile(s):0","Sky conditions":"mostly cloudy","Weather":"light rain; mist","Temperature":"48 F (9 C)","Dew Point":"46 F (8 C)","Relative Humidity":"93%","Pressure (altimeter)":"29.56 in. Hg (1001 hPa)","ob":"EPGD 020800Z 21012KT 180V240 4500 -RA BR BKN008 09/08 Q1001","cycle":"8"},
{"_id":"4495a8a111ec85eb6d2389a681ece118","_rev":"1-58e74a5009bd194d750202261f7fef6b","Location":"Gdansk-Rebiechowo, Poland (EPGD) 54-23N 018-28E 138M","Date":"Feb 19, 2012 - 04:00 AM EST / 2012.02.19 0900 UTC","Wind":"from the SSW (200 degrees) at 8 MPH (7 KT) (direction variable):0","Visibility":"3 mile(s):0","Sky conditions":"mostly cloudy","Weather":"light rain","Temperature":"37 F (3 C)","Dew Point":"35 F (2 C)","Relative Humidity":"93%","Pressure (altimeter)":"29.62 in. Hg (1003 hPa)","ob":"EPGD 190900Z 20007KT 160V230 6000 -RA BKN004 03/02 Q1003 R11/290095","cycle":"9"},
{"_id":"4495a8a111ec85eb6d2389a681ecea4f","_rev":"1-cf6713744e99ee0457627cd66fb91b71","Location":"Gdansk-Rebiechowo, Poland (EPGD) 54-23N 018-28E 138M","Date":"Jan 17, 2012 - 07:00 PM EST / 2012.01.18 0000 UTC","Wind":"from the WSW (240 degrees) at 5 MPH (4 KT) (direction variable):0","Visibility":"3 mile(s):0","Sky conditions":"mostly cloudy","Temperature":"30 F (-1 C)","Windchill":"24 F (-4 C):1","Dew Point":"28 F (-2 C)","Relative Humidity":"92%","Pressure (altimeter)":"30.21 in. Hg (1023 hPa)","ob":"EPGD 180000Z 24004KT 210V280 6000 BKN005 M01/M02 Q1023 R11/290095","cycle":"0"},
{"_id":"4495a8a111ec85eb6d2389a681ecf92b","_rev":"1-f2d43cd4331abd927f8eeaa14ec5f89f","Location":"Gdansk-Rebiechowo, Poland (EPGD) 54-23N 018-28E 138M","Date":"Jan 04, 2012 - 10:00 AM EST / 2012.01.04 1500 UTC","Wind":"from the WSW (250 degrees) at 18 MPH (16 KT):0","Visibility":"greater than 7 mile(s):0","Sky conditions":"mostly cloudy","Temperature":"41 F (5 C)","Dew Point":"30 F (-1 C)","Relative Humidity":"65%","Pressure (altimeter)":"29.44 in. Hg (0997 hPa)","ob":"EPGD 041500Z 25016KT 9999 BKN028 05/M01 Q0997","cycle":"15"},
{"_id":"4495a8a111ec85eb6d2389a681ed0825","_rev":"1-bcf795391abee015231346121fb1e70e","Location":"Gdansk-Rebiechowo, Poland (EPGD) 54-23N 018-28E 138M","Date":"Jan 24, 2012 - 06:00 PM EST / 2012.01.24 2300 UTC","Wind":"from the W (270 degrees) at 6 MPH (5 KT):0","Visibility":"greater than 7 mile(s):0","Sky conditions":"mostly cloudy","Weather":"light snow showers; Towering cumulus clouds observed","Temperature":"28 F (-2 C)","Windchill":"21 F (-6 C):1","Dew Point":"26 F (-3 C)","Relative Humidity":"92%","Pressure (altimeter)":"30.09 in. Hg (1019 hPa)","ob":"EPGD 242300Z 27005KT 9999 -SHSN FEW005 FEW014TCU BKN024 M02/M03 Q1019 R11/590249","cycle":"23"},
{"_id":"4495a8a111ec85eb6d2389a681ed13de","_rev":"1-1d41f0d701ae132989eea196ebcbaf14","Location":"Gdansk-Rebiechowo, Poland (EPGD) 54-23N 018-28E 138M","Date":"Dec 24, 2011 - 04:00 PM EST / 2011.12.24 2100 UTC","Wind":"from the WNW (290 degrees) at 14 MPH (12 KT):0","Visibility":"greater than 7 mile(s):0","Sky conditions":"mostly cloudy","Temperature":"37 F (3 C)","Dew Point":"35 F (2 C)","Relative Humidity":"93%","Pressure (altimeter)":"29.94 in. Hg (1014 hPa)","ob":"EPGD 242100Z 29012KT 9999 BKN009 03/02 Q1014","cycle":"21"},
{"_id":"4495a8a111ec85eb6d2389a681ed1bc2","_rev":"1-67869da6f1a1716e497fbe731d78a65a","Location":"Gdansk-Rebiechowo, Poland (EPGD) 54-23N 018-28E 138M","Date":"Jan 06, 2012 - 04:00 PM EST / 2012.01.06 2100 UTC","Wind":"from the W (260 degrees) at 7 MPH (6 KT):0","Visibility":"greater than 7 mile(s):0","Temperature":"28 F (-2 C)","Windchill":"21 F (-6 C):1","Dew Point":"24 F (-4 C)","Relative Humidity":"86%","Pressure (altimeter)":"29.74 in. Hg (1007 hPa)","ob":"EPGD 062100Z 26006KT CAVOK M02/M04 Q1007 R11/190095","cycle":"21"},
{"_id":"4495a8a111ec85eb6d2389a681ed1f46","_rev":"1-d764b65c3994d60034f9cbd14982d0fa","Location":"Gdansk-Rebiechowo, Poland (EPGD) 54-23N 018-28E 138M","Date":"Feb 04, 2012 - 01:00 PM EST / 2012.02.04 1800 UTC","Wind":"from the E (100 degrees) at 7 MPH (6 KT):0","Visibility":"1 mile(s):0","Sky conditions":"partly cloudy","Weather":"mist","Temperature":"5 F (-15 C)","Windchill":"-7 F (-22 C):2","Dew Point":"0 F (-18 C)","Relative Humidity":"77%","Pressure (altimeter)":"30.62 in. Hg (1037 hPa)","ob":"EPGD 041800Z 10006KT 2200 BR SCT005 SCT014 M15/M18 Q1037 R11/490136","cycle":"18"},
{"_id":"4495a8a111ec85eb6d2389a681ed2e61","_rev":"1-2f363e6ab63eaa7a9a8e5dd1f570e74f","Location":"Gdansk-Rebiechowo, Poland (EPGD) 54-23N 018-28E 138M","Date":"Feb 12, 2012 - 04:00 PM EST / 2012.02.12 2100 UTC","Wind":"from the W (270 degrees) at 8 MPH (7 KT):0","Visibility":"3 mile(s):0","Sky conditions":"overcast","Temperature":"21 F (-6 C)","Windchill":"12 F (-11 C):1","Dew Point":"19 F (-7 C)","Relative Humidity":"92%","Pressure (altimeter)":"30.09 in. Hg (1019 hPa)","ob":"EPGD 122100Z 27007KT 6000 OVC006 M06/M07 Q1019 R29/490233","cycle":"21"},
{"_id":"4495a8a111ec85eb6d2389a681ed3628","_rev":"1-9fa56e4f940e36bcd542c9ca5200a866","Location":"Gdansk-Rebiechowo, Poland (EPGD) 54-23N 018-28E 138M","Date":"Jan 29, 2012 - 01:00 PM EST / 2012.01.29 1800 UTC","Wind":"from the ESE (110 degrees) at 8 MPH (7 KT):0","Visibility":"greater than 7 mile(s):0","Temperature":"14 F (-10 C)","Windchill":"3 F (-16 C):1","Dew Point":"3 F (-16 C)","Relative Humidity":"61%","Pressure (altimeter)":"30.77 in. Hg (1042 hPa)","ob":"EPGD 291800Z 11007KT CAVOK M10/M16 Q1042 R11/190095","cycle":"18"},
{"_id":"4495a8a111ec85eb6d2389a681ed393e","_rev":"1-35f32862dfb08dae55fec56200dd3dd7","Location":"Gdansk-Rebiechowo, Poland (EPGD) 54-23N 018-28E 138M","Date":"Feb 15, 2012 - 07:00 PM EST / 2012.02.16 0000 UTC","Wind":"from the N (360 degrees) at 8 MPH (7 KT):0","Visibility":"3 mile(s):0","Sky conditions":"mostly cloudy","Temperature":"28 F (-2 C)","Windchill":"19 F (-7 C):1","Dew Point":"21 F (-6 C)","Relative Humidity":"74%","Pressure (altimeter)":"29.68 in. Hg (1005 hPa)","ob":"EPGD 160000Z 36007KT 6000 BKN025 M02/M06 Q1005 R11/490348","cycle":"0"},
{"_id":"4495a8a111ec85eb6d2389a681ed4446","_rev":"1-9726aa32dd5674c97dee216349d25eaf","Location":"Gdansk-Rebiechowo, Poland (EPGD) 54-23N 018-28E 138M","Date":"Feb 02, 2012 - 07:00 AM EST / 2012.02.02 1200 UTC","Wind":"Calm:0","Visibility":"greater than 7 mile(s):0","Temperature":"5 F (-15 C)","Dew Point":"-4 F (-20 C)","Relative Humidity":"65%","Pressure (altimeter)":"30.56 in. Hg (1035 hPa)","ob":"EPGD 021200Z 00000KT CAVOK M15/M20 Q1035 R11/490140","cycle":"12"},
{"_id":"4495a8a111ec85eb6d2389a681ed498c","_rev":"1-ce8c157b057ce569c0c86021b797c63c","Location":"Gdansk-Rebiechowo, Poland (EPGD) 54-23N 018-28E 138M","Date":"Feb 09, 2012 - 06:00 AM EST / 2012.02.09 1100 UTC","Wind":"from the E (080 degrees) at 14 MPH (12 KT):0","Visibility":"4 mile(s):0","Sky conditions":"mostly cloudy","Weather":"light snow","Temperature":"17 F (-8 C)","Windchill":"3 F (-16 C):1","Dew Point":"12 F (-11 C)","Relative Humidity":"78%","Pressure (altimeter)":"30.59 in. Hg (1036 hPa)","ob":"EPGD 091100Z 08012KT 8000 -SN FEW007 BKN012 M08/M11 Q1036 R11/490333","cycle":"11"},
{"_id":"4495a8a111ec85eb6d2389a681ed50cd","_rev":"1-b1fa0f27b95666c6bf3953bcb82e48a5","Location":"Gdansk-Rebiechowo, Poland (EPGD) 54-23N 018-28E 138M","Date":"Jan 18, 2012 - 12:00 AM EST / 2012.01.18 0500 UTC","Wind":"from the W (270 degrees) at 6 MPH (5 KT):0","Visibility":"greater than 7 mile(s):0","Sky conditions":"mostly cloudy","Temperature":"33 F (1 C)","Windchill":"26 F (-3 C):1","Dew Point":"32 F (0 C)","Relative Humidity":"93%","Pressure (altimeter)":"30.15 in. Hg (1021 hPa)","ob":"EPGD 180500Z 27005KT 9999 BKN009 01/00 Q1021 R11/290095","cycle":"5"},
{"_id":"4495a8a111ec85eb6d2389a681ed5d66","_rev":"1-e58ca81a2c335480ddee76ac32e5674d","Location":"Gdansk-Rebiechowo, Poland (EPGD) 54-23N 018-28E 138M","Date":"Dec 28, 2011 - 11:00 PM EST / 2011.12.29 0400 UTC","Wind":"from the SW (220 degrees) at 9 MPH (8 KT) (direction variable):0","Visibility":"greater than 7 mile(s):0","Sky conditions":"mostly cloudy","Weather":"light rain","Temperature":"41 F (5 C)","Dew Point":"39 F (4 C)","Relative Humidity":"93%","Pressure (altimeter)":"29.80 in. Hg (1009 hPa)","ob":"EPGD 290400Z 22008KT 190V250 9999 -RA BKN006 05/04 Q1009","cycle":"4"},
{"_id":"4495a8a111ec85eb6d2389a681ed6a82","_rev":"1-3886672e98fdd905ba0198704c430b70","Location":"Gdansk-Rebiechowo, Poland (EPGD) 54-23N 018-28E 138M","Date":"Jan 08, 2012 - 09:00 AM EST / 2012.01.08 1400 UTC","Wind":"from the W (280 degrees) at 7 MPH (6 KT) (direction variable):0","Visibility":"greater than 7 mile(s):0","Sky conditions":"mostly cloudy","Temperature":"39 F (4 C)","Dew Point":"35 F (2 C)","Relative Humidity":"86%","Pressure (altimeter)":"29.74 in. Hg (1007 hPa)","ob":"EPGD 081400Z 28006KT 240V300 9999 SCT011 BKN025 04/02 Q1007","cycle":"14"},
{"_id":"4495a8a111ec85eb6d2389a681ed7625","_rev":"1-4b55de6e5ac447b304bf08f464899cc2","Location":"Gdansk-Rebiechowo, Poland (EPGD) 54-23N 018-28E 138M","Date":"Dec 22, 2011 - 12:00 AM EST / 2011.12.22 0500 UTC","Wind":"Calm:0","Visibility":"1 mile(s):0","Weather":"mist","Temperature":"19 F (-7 C)","Dew Point":"17 F (-8 C)","Relative Humidity":"92%","Pressure (altimeter)":"30.06 in. Hg (1018 hPa)","ob":"EPGD 220500Z 00000KT 2500 BR NSC M07/M08 Q1018","cycle":"5"},
{"_id":"4495a8a111ec85eb6d2389a681ed7af4","_rev":"1-1fb3b25742830c5008c55b4a952c2cf5","Location":"Gdansk-Rebiechowo, Poland (EPGD) 54-23N 018-28E 138M","Date":"Dec 24, 2011 - 10:00 PM EST / 2011.12.25 0300 UTC","Wind":"from the W (280 degrees) at 15 MPH (13 KT):0","Visibility":"greater than 7 mile(s):0","Sky conditions":"partly cloudy","Temperature":"35 F (2 C)","Windchill":"24 F (-4 C):1","Dew Point":"32 F (0 C)","Relative Humidity":"86%","Pressure (altimeter)":"30.09 in. Hg (1019 hPa)","ob":"EPGD 250300Z 28013KT 9999 SCT011 02/00 Q1019","cycle":"3"},
{"_id":"4495a8a111ec85eb6d2389a681ed8442","_rev":"1-4bdc645649e82af076b1fea2186dab16","Location":"Gdansk-Rebiechowo, Poland (EPGD) 54-23N 018-28E 138M","Date":"Jan 08, 2012 - 02:00 AM EST / 2012.01.08 0700 UTC","Wind":"from the W (260 degrees) at 10 MPH (9 KT):0","Visibility":"greater than 7 mile(s):0","Sky conditions":"mostly cloudy","Temperature":"37 F (3 C)","Dew Point":"35 F (2 C)","Relative Humidity":"93%","Pressure (altimeter)":"29.62 in. Hg (1003 hPa)","ob":"EPGD 080700Z 26009KT 9999 BKN013 03/02 Q1003","cycle":"7"},
{"_id":"4495a8a111ec85eb6d2389a681ed8ab9","_rev":"1-5e967c39335ab0814795fa85f144c589","Location":"Gdansk-Rebiechowo, Poland (EPGD) 54-23N 018-28E 138M","Date":"Dec 29, 2011 - 04:00 PM EST / 2011.12.29 2100 UTC","Wind":"from the SW (230 degrees) at 15 MPH (13 KT) (direction variable):0","Visibility":"greater than 7 mile(s):0","Sky conditions":"partly cloudy","Temperature":"39 F (4 C)","Dew Point":"30 F (-1 C)","Relative Humidity":"69%","Pressure (altimeter)":"29.56 in. Hg (1001 hPa)","ob":"EPGD 292100Z 23013KT 180V260 9999 SCT023 04/M01 Q1001","cycle":"21"},
{"_id":"4495a8a111ec85eb6d2389a681ed8c65","_rev":"1-4555c694912c6b48ade350f74402aa55","Location":"Gdansk-Rebiechowo, Poland (EPGD) 54-23N 018-28E 138M","Date":"Jan 26, 2012 - 07:00 AM EST / 2012.01.26 1200 UTC","Wind":"from the ESE (110 degrees) at 10 MPH (9 KT):0","Visibility":"3 mile(s):0","Sky conditions":"overcast","Weather":"mist","Temperature":"26 F (-3 C)","Windchill":"15 F (-9 C):1","Dew Point":"23 F (-5 C)","Relative Humidity":"86%","Pressure (altimeter)":"30.42 in. Hg (1030 hPa)","ob":"EPGD 261200Z 11009KT 5000 BR OVC007 M03/M05 Q1030 R11/290095","cycle":"12"},
{"_id":"4495a8a111ec85eb6d2389a681ed92e9","_rev":"1-4c630d7fe25ce767a07a99f7464abd28","Location":"Gdansk-Rebiechowo, Poland (EPGD) 54-23N 018-28E 138M","Date":"Jan 11, 2012 - 06:00 AM EST / 2012.01.11 1100 UTC","Wind":"from the W (260 degrees) at 13 MPH (11 KT):0","Visibility":"greater than 7 mile(s):0","Sky conditions":"mostly cloudy","Temperature":"41 F (5 C)","Dew Point":"37 F (3 C)","Relative Humidity":"86%","Pressure (altimeter)":"30.03 in. Hg (1017 hPa)","ob":"EPGD 111100Z 26011KT 9999 BKN008 05/03 Q1017 R11/290095","cycle":"11"},
{"_id":"4495a8a111ec85eb6d2389a681eda213","_rev":"1-944aeb9b18571c958b0fe6076088831f","Location":"Gdansk-Rebiechowo, Poland (EPGD) 54-23N 018-28E 138M","Date":"Jan 05, 2012 - 04:00 AM EST / 2012.01.05 0900 UTC","Wind":"from the S (180 degrees) at 13 MPH (11 KT) (direction variable):0","Visibility":"1 mile(s):0","Sky conditions":"mostly cloudy","Weather":"light snow","Temperature":"33 F (1 C)","Windchill":"23 F (-5 C):1","Dew Point":"32 F (0 C)","Relative Humidity":"93%","Pressure (altimeter)":"28.79 in. Hg (0975 hPa)","ob":"EPGD 050900Z 18011KT 140V210 2500 -SN FEW005 BKN006 01/M00 Q0975","cycle":"9"},
{"_id":"4495a8a111ec85eb6d2389a681eda7b3","_rev":"1-78021de7f032b0417d2ab91c36732768","Location":"Gdansk-Rebiechowo, Poland (EPGD) 54-23N 018-28E 138M","Date":"Dec 21, 2011 - 09:00 AM EST / 2011.12.21 1400 UTC","Wind":"Calm:0","Visibility":"3 mile(s):0","Weather":"mist","Temperature":"24 F (-4 C)","Dew Point":"21 F (-6 C)","Relative Humidity":"85%","Pressure (altimeter)":"29.83 in. Hg (1010 hPa)","ob":"EPGD 211400Z 00000KT 5000 BR NSC M04/M06 Q1010 R11/190095","cycle":"14"},
{"_id":"4495a8a111ec85eb6d2389a681edae9f","_rev":"1-b54bd6308131479444fb3ce4b6e9d445","Location":"Gdansk-Rebiechowo, Poland (EPGD) 54-23N 018-28E 138M","Date":"Jan 09, 2012 - 07:00 PM EST / 2012.01.10 0000 UTC","Wind":"from the S (190 degrees) at 3 MPH (3 KT) (direction variable):0","Visibility":"less than 1 mile:0","Sky conditions":"mostly cloudy","Weather":"snow","Temperature":"30 F (-1 C)","Dew Point":"28 F (-2 C)","Relative Humidity":"92%","Pressure (altimeter)":"30.00 in. Hg (1016 hPa)","ob":"EPGD 100000Z 19003KT 120V220 1600 SN BKN005 M01/M02 Q1016 R11/290095","cycle":"0"},
{"_id":"4495a8a111ec85eb6d2389a681edbdbf","_rev":"1-505be29f6c69479a2c0ab5e475b7e9cc","Location":"Gdansk-Rebiechowo, Poland (EPGD) 54-23N 018-28E 138M","Date":"Jan 11, 2012 - 09:00 PM EST / 2012.01.12 0200 UTC","Wind":"from the WSW (240 degrees) at 9 MPH (8 KT):0","Visibility":"greater than 7 mile(s):0","Sky conditions":"mostly clear","Temperature":"39 F (4 C)","Dew Point":"33 F (1 C)","Relative Humidity":"80%","Pressure (altimeter)":"30.03 in. Hg (1017 hPa)","ob":"EPGD 120200Z 24008KT 9999 FEW016 04/01 Q1017 R11/290095","cycle":"2"},
{"_id":"4495a8a111ec85eb6d2389a681edcd69","_rev":"1-ccc1a404fdd176e65c54706a16a69903","Location":"Gdansk-Rebiechowo, Poland (EPGD) 54-23N 018-28E 138M","Date":"Jan 29, 2012 - 09:00 AM EST / 2012.01.29 1400 UTC","Wind":"from the E (100 degrees) at 13 MPH (11 KT):0","Visibility":"greater than 7 mile(s):0","Temperature":"19 F (-7 C)","Windchill":"6 F (-14 C):1","Dew Point":"5 F (-15 C)","Relative Humidity":"52%","Pressure (altimeter)":"30.77 in. Hg (1042 hPa)","ob":"EPGD 291400Z 10011KT CAVOK M07/M15 Q1042 R11/190095","cycle":"14"},
{"_id":"4495a8a111ec85eb6d2389a681edd439","_rev":"1-7aba9833fc1d99a50fefb71a94f89b02","Location":"Gdansk-Rebiechowo, Poland (EPGD) 54-23N 018-28E 138M","Date":"Dec 16, 2011 - 04:00 AM EST / 2011.12.16 0900 UTC","Wind":"from the S (190 degrees) at 8 MPH (7 KT) (direction variable):0","Visibility":"greater than 7 mile(s):0","Temperature":"35 F (2 C)","Windchill":"28 F (-2 C):1","Dew Point":"32 F (0 C)","Relative Humidity":"86%","Pressure (altimeter)":"29.38 in. Hg (0995 hPa)","ob":"EPGD 160900Z 19007KT 160V220 CAVOK 02/M00 Q0995","cycle":"9"},
{"_id":"4495a8a111ec85eb6d2389a681ede1f7","_rev":"1-cb94eac7491e35d072925d49e3a539f6","Location":"Gdansk-Rebiechowo, Poland (EPGD) 54-23N 018-28E 138M","Date":"Feb 19, 2012 - 09:00 AM EST / 2012.02.19 1400 UTC","Wind":"from the W (260 degrees) at 10 MPH (9 KT):0","Visibility":"greater than 7 mile(s):0","Sky conditions":"mostly cloudy","Temperature":"35 F (2 C)","Windchill":"26 F (-3 C):1","Dew Point":"32 F (0 C)","Relative Humidity":"86%","Pressure (altimeter)":"29.71 in. Hg (1006 hPa)","ob":"EPGD 191400Z 26009KT 9999 FEW013 BKN030 02/M00 Q1006 R11/290095","cycle":"14"},
{"_id":"4495a8a111ec85eb6d2389a681ede52e","_rev":"1-e5baf699c20f9f740c26168a9cc84d20","Location":"Gdansk-Rebiechowo, Poland (EPGD) 54-23N 018-28E 138M","Date":"Dec 23, 2011 - 03:00 AM EST / 2011.12.23 0800 UTC","Wind":"from the S (190 degrees) at 3 MPH (3 KT):0","Visibility":"1 mile(s):0","Sky conditions":"overcast","Weather":"light drizzle; mist","Temperature":"32 F (0 C)","Dew Point":"30 F (-1 C)","Relative Humidity":"92%","Pressure (altimeter)":"30.06 in. Hg (1018 hPa)","ob":"EPGD 230800Z 19003KT 2500 -DZ BR OVC004 M00/M01 Q1018","cycle":"8"},
{"_id":"4495a8a111ec85eb6d2389a681edf509","_rev":"1-e872473ddf5ea09aa48acb123ac08fd6","Location":"Gdansk-Rebiechowo, Poland (EPGD) 54-23N 018-28E 138M","Date":"Jan 07, 2012 - 06:00 AM EST / 2012.01.07 1100 UTC","Wind":"from the SW (230 degrees) at 12 MPH (10 KT) (direction variable):0","Visibility":"greater than 7 mile(s):0","Sky conditions":"overcast","Temperature":"35 F (2 C)","Windchill":"26 F (-3 C):1","Dew Point":"32 F (0 C)","Relative Humidity":"86%","Pressure (altimeter)":"29.62 in. Hg (1003 hPa)","ob":"EPGD 071100Z 23010KT 190V280 9999 OVC008 02/00 Q1003","cycle":"11"},
{"_id":"4495a8a111ec85eb6d2389a681edf891","_rev":"1-3e16f8f1e02fac1d4c17471e8d1c37ab","Location":"Gdansk-Rebiechowo, Poland (EPGD) 54-23N 018-28E 138M","Date":"Feb 18, 2012 - 07:00 PM EST / 2012.02.19 0000 UTC","Wind":"from the SSW (200 degrees) at 9 MPH (8 KT) (direction variable):0","Visibility":"4 mile(s):0","Sky conditions":"mostly cloudy","Weather":"light rain","Temperature":"35 F (2 C)","Windchill":"28 F (-2 C):1","Dew Point":"33 F (1 C)","Relative Humidity":"93%","Pressure (altimeter)":"29.71 in. Hg (1006 hPa)","ob":"EPGD 190000Z 20008KT 170V230 8000 -RA FEW005 BKN007 02/01 Q1006 R11/290095","cycle":"0"},
{"_id":"4495a8a111ec85eb6d2389a681ee0760","_rev":"1-6288b01fad4a03553a1f044ec340315d","Location":"Gdansk-Rebiechowo, Poland (EPGD) 54-23N 018-28E 138M","Date":"Dec 27, 2011 - 11:00 PM EST / 2011.12.28 0400 UTC","Wind":"from the W (270 degrees) at 6 MPH (5 KT):0","Visibility":"greater than 7 mile(s):0","Sky conditions":"partly cloudy","Temperature":"35 F (2 C)","Windchill":"30 F (-1 C):1","Dew Point":"33 F (1 C)","Relative Humidity":"93%","Pressure (altimeter)":"30.36 in. Hg (1028 hPa)","ob":"EPGD 280400Z 27005KT 9999 SCT007 02/01 Q1028","cycle":"4"},
{"_id":"4495a8a111ec85eb6d2389a681ee0c76","_rev":"1-bd874ad0ff2786ddb8b186c483d3db57","Location":"Gdansk-Rebiechowo, Poland (EPGD) 54-23N 018-28E 138M","Date":"Dec 29, 2011 - 04:00 AM EST / 2011.12.29 0900 UTC","Wind":"from the SW (230 degrees) at 14 MPH (12 KT) gusting to 25 MPH (22 KT) (direction variable):0","Visibility":"greater than 7 mile(s):0","Sky conditions":"partly cloudy","Temperature":"42 F (6 C)","Dew Point":"33 F (1 C)","Relative Humidity":"70%","Pressure (altimeter)":"29.71 in. Hg (1006 hPa)","ob":"EPGD 290900Z 23012G22KT 190V270 9999 SCT023 06/01 Q1006","cycle":"9"},
{"_id":"4495a8a111ec85eb6d2389a681ee16e3","_rev":"1-fda67e9f381e53f79ba1efd8b657972e","Location":"Gdansk-Rebiechowo, Poland (EPGD) 54-23N 018-28E 138M","Date":"Jan 29, 2012 - 03:00 PM EST / 2012.01.29 2000 UTC","Wind":"Calm:0","Visibility":"greater than 7 mile(s):0","Temperature":"10 F (-12 C)","Dew Point":"1 F (-17 C)","Relative Humidity":"66%","Pressure (altimeter)":"30.80 in. Hg (1043 hPa)","ob":"EPGD 292000Z 00000KT CAVOK M12/M17 Q1043 R11/190095","cycle":"20"},
{"_id":"4495a8a111ec85eb6d2389a681ee195b","_rev":"1-6fdd17721723f7473579e1fdda933070","Location":"Gdansk-Rebiechowo, Poland (EPGD) 54-23N 018-28E 138M","Date":"Feb 01, 2012 - 03:00 AM EST / 2012.02.01 0800 UTC","Wind":"from the ESE (120 degrees) at 5 MPH (4 KT):0","Visibility":"1 mile(s):0","Sky conditions":"mostly cloudy","Weather":"light snow showers; mist","Temperature":"5 F (-15 C)","Windchill":"-4 F (-20 C):1","Dew Point":"1 F (-17 C)","Relative Humidity":"84%","Pressure (altimeter)":"30.71 in. Hg (1040 hPa)","ob":"EPGD 010800Z 12004KT 2000 -SHSN BR BKN004 M15/M17 Q1040 R11/490142","cycle":"8"},
{"_id":"4495a8a111ec85eb6d2389a681ee288b","_rev":"1-9bdfe984a0e3f993d249a30bafa3a419","Location":"Gdansk-Rebiechowo, Poland (EPGD) 54-23N 018-28E 138M","Date":"Jan 15, 2012 - 09:00 AM EST / 2012.01.15 1400 UTC","Wind":"from the N (010 degrees) at 7 MPH (6 KT) (direction variable):0","Visibility":"greater than 7 mile(s):0","Sky conditions":"mostly cloudy","Temperature":"32 F (0 C)","Windchill":"24 F (-4 C):1","Dew Point":"26 F (-3 C)","Relative Humidity":"80%","Pressure (altimeter)":"30.06 in. Hg (1018 hPa)","ob":"EPGD 151400Z 01006KT 340V060 9999 FEW011 BKN023 M00/M03 Q1018 R11/590142","cycle":"14"},
{"_id":"4495a8a111ec85eb6d2389a681ee30ae","_rev":"1-68391410228a939ddfb386a73ce4275a","Location":"Gdansk-Rebiechowo, Poland (EPGD) 54-23N 018-28E 138M","Date":"Feb 16, 2012 - 10:00 PM EST / 2012.02.17 0300 UTC","Wind":"from the S (190 degrees) at 12 MPH (10 KT) (direction variable):0","Visibility":"greater than 7 mile(s):0","Sky conditions":"mostly cloudy","Weather":"light rain","Temperature":"28 F (-2 C)","Windchill":"17 F (-8 C):1","Dew Point":"24 F (-4 C)","Relative Humidity":"86%","Pressure (altimeter)":"29.80 in. Hg (1009 hPa)","ob":"EPGD 170300Z 19010KT 160V240 9999 -RA SCT011 BKN018 M02/M04 Q1009 R29/090095","cycle":"3"},
{"_id":"4495a8a111ec85eb6d2389a681ee3669","_rev":"1-4fef87632e4514fdf0c55e0b049190f7","Location":"Gdansk-Rebiechowo, Poland (EPGD) 54-23N 018-28E 138M","Date":"Jan 16, 2012 - 07:00 PM EST / 2012.01.17 0000 UTC","Wind":"Calm:0","Visibility":"less than 1 mile:0","Sky conditions":"mostly cloudy","Weather":"mist","Temperature":"26 F (-3 C)","Dew Point":"26 F (-3 C)","Relative Humidity":"100%","Pressure (altimeter)":"30.09 in. Hg (1019 hPa)","ob":"EPGD 170000Z 00000KT 1200 R29/P2000N BR BKN023 M03/M03 Q1019 R11/190095","cycle":"0"},
{"_id":"4495a8a111ec85eb6d2389a681ee441b","_rev":"1-7dbdd4821ce5f9815e9e5c8285532ff6","Location":"Gdansk-Rebiechowo, Poland (EPGD) 54-23N 018-28E 138M","Date":"Dec 15, 2011 - 03:00 AM EST / 2011.12.15 0800 UTC","Wind":"from the SW (230 degrees) at 12 MPH (10 KT) (direction variable):0","Visibility":"greater than 7 mile(s):0","Sky conditions":"mostly clear","Temperature":"37 F (3 C)","Dew Point":"33 F (1 C)","Relative Humidity":"86%","Pressure (altimeter)":"29.62 in. Hg (1003 hPa)","ob":"EPGD 150800Z 23010KT 180V260 9999 FEW013 03/01 Q1003","cycle":"8"},
{"_id":"4495a8a111ec85eb6d2389a681ee44b5","_rev":"1-8113cd3df685d2633f2c3398e31a2e11","Location":"Gdansk-Rebiechowo, Poland (EPGD) 54-23N 018-28E 138M","Date":"Dec 15, 2011 - 07:00 PM EST / 2011.12.16 0000 UTC","Wind":"from the S (170 degrees) at 5 MPH (4 KT) (direction variable):0","Visibility":"greater than 7 mile(s):0","Sky conditions":"mostly clear","Temperature":"35 F (2 C)","Windchill":"30 F (-1 C):1","Dew Point":"32 F (0 C)","Relative Humidity":"86%","Pressure (altimeter)":"29.59 in. Hg (1002 hPa)","ob":"EPGD 160000Z 17004KT 110V220 9999 FEW009 02/00 Q1002","cycle":"0"},
{"_id":"4495a8a111ec85eb6d2389a681ee52cb","_rev":"1-a9da7e14f748ddac9ca886c40d88d07d","Location":"Gdansk-Rebiechowo, Poland (EPGD) 54-23N 018-28E 138M","Date":"Jan 06, 2012 - 09:00 PM EST / 2012.01.07 0200 UTC","Wind":"from the WSW (240 degrees) at 8 MPH (7 KT) (direction variable):0","Visibility":"greater than 7 mile(s):0","Temperature":"30 F (-1 C)","Windchill":"23 F (-5 C):1","Dew Point":"26 F (-3 C)","Relative Humidity":"86%","Pressure (altimeter)":"29.71 in. Hg (1006 hPa)","ob":"EPGD 070200Z 24007KT 210V270 CAVOK M01/M03 Q1006 R11/190095","cycle":"2"},
{"_id":"4495a8a111ec85eb6d2389a681ee604b","_rev":"1-0d6aa792249f95cb9938ede8004be3f5","Location":"Gdansk-Rebiechowo, Poland (EPGD) 54-23N 018-28E 138M","Date":"Dec 14, 2011 - 03:00 AM EST / 2011.12.14 0800 UTC","Wind":"from the SW (230 degrees) at 13 MPH (11 KT) (direction variable):0","Visibility":"greater than 7 mile(s):0","Sky conditions":"mostly clear","Temperature":"41 F (5 C)","Dew Point":"35 F (2 C)","Relative Humidity":"80%","Pressure (altimeter)":"29.62 in. Hg (1003 hPa)","ob":"EPGD 140800Z 23011KT 190V260 9999 FEW017 05/02 Q1003","cycle":"8"},
{"_id":"4495a8a111ec85eb6d2389a681ee6657","_rev":"1-f29477be84ccfe686f323b3f5b0c8148","Location":"Gdansk-Rebiechowo, Poland (EPGD) 54-23N 018-28E 138M","Date":"Feb 10, 2012 - 04:00 PM EST / 2012.02.10 2100 UTC","Wind":"from the SE (130 degrees) at 5 MPH (4 KT):0","Visibility":"4 mile(s):0","Sky conditions":"partly cloudy","Temperature":"6 F (-14 C)","Windchill":"-4 F (-20 C):1","Dew Point":"1 F (-17 C)","Relative Humidity":"77%","Pressure (altimeter)":"30.68 in. Hg (1039 hPa)","ob":"EPGD 102100Z 13004KT 8000 SCT011 M14/M17 Q1039 R11/090095","cycle":"21"},
{"_id":"4495a8a111ec85eb6d2389a681ee7337","_rev":"1-271af6201b49d40ca26f6b7c1e01b186","Location":"Gdansk-Rebiechowo, Poland (EPGD) 54-23N 018-28E 138M","Date":"Feb 19, 2012 - 01:00 PM EST / 2012.02.19 1800 UTC","Wind":"from the SW (230 degrees) at 9 MPH (8 KT):0","Visibility":"greater than 7 mile(s):0","Sky conditions":"mostly cloudy","Temperature":"35 F (2 C)","Windchill":"28 F (-2 C):1","Dew Point":"30 F (-1 C)","Relative Humidity":"80%","Pressure (altimeter)":"29.80 in. Hg (1009 hPa)","ob":"EPGD 191800Z 23008KT 9999 FEW015 BKN020 02/M01 Q1009 R11/290095","cycle":"18"},
{"_id":"4495a8a111ec85eb6d2389a681ee7d64","_rev":"1-78d7f8fe473e64de948042318f86143f","Location":"Gdansk-Rebiechowo, Poland (EPGD) 54-23N 018-28E 138M","Date":"Jan 09, 2012 - 07:00 AM EST / 2012.01.09 1200 UTC","Wind":"from the WNW (290 degrees) at 10 MPH (9 KT):0","Visibility":"greater than 7 mile(s):0","Sky conditions":"mostly cloudy","Temperature":"32 F (0 C)","Windchill":"23 F (-5 C):1","Dew Point":"26 F (-3 C)","Relative Humidity":"80%","Pressure (altimeter)":"30.09 in. Hg (1019 hPa)","ob":"EPGD 091200Z 29009KT 9999 BKN017 00/M03 Q1019 R11/290095","cycle":"12"},
{"_id":"4495a8a111ec85eb6d2389a681ee8004","_rev":"1-96c67f26eedff5fc0e6cd1eeaeb58b92","Location":"Gdansk-Rebiechowo, Poland (EPGD) 54-23N 018-28E 138M","Date":"Dec 17, 2011 - 01:00 PM EST / 2011.12.17 1800 UTC","Wind":"from the W (270 degrees) at 15 MPH (13 KT):0","Visibility":"4 mile(s):0","Sky conditions":"mostly cloudy","Weather":"light rain","Temperature":"37 F (3 C)","Dew Point":"33 F (1 C)","Relative Humidity":"86%","Pressure (altimeter)":"29.03 in. Hg (0983 hPa)","ob":"EPGD 171800Z 27013KT 8000 -RA BKN008 03/01 Q0983 R11/290064","cycle":"18"},
{"_id":"4495a8a111ec85eb6d2389a681ee9000","_rev":"1-0f42287d93f6cdd5fcfd29d4512e4bd7","Location":"Gdansk-Rebiechowo, Poland (EPGD) 54-23N 018-28E 138M","Date":"Feb 08, 2012 - 12:00 PM EST / 2012.02.08 1700 UTC","Wind":"from the W (280 degrees) at 7 MPH (6 KT):0","Visibility":"2 mile(s):0","Sky conditions":"mostly cloudy","Weather":"light snow","Temperature":"24 F (-4 C)","Windchill":"15 F (-9 C):1","Dew Point":"21 F (-6 C)","Relative Humidity":"85%","Pressure (altimeter)":"30.56 in. Hg (1035 hPa)","ob":"EPGD 081700Z 28006KT 4000 -SN FEW007 BKN015 M04/M06 Q1035 R11/190095","cycle":"17"},
{"_id":"4495a8a111ec85eb6d2389a681ee9262","_rev":"1-1263a67aeb0577c4fc2d8e639f2ac214","Location":"Gdansk-Rebiechowo, Poland (EPGD) 54-23N 018-28E 138M","Date":"Feb 13, 2012 - 05:00 AM EST / 2012.02.13 1000 UTC","Wind":"from the W (280 degrees) at 7 MPH (6 KT):0","Visibility":"3 mile(s):0","Sky conditions":"mostly cloudy","Temperature":"30 F (-1 C)","Windchill":"23 F (-5 C):1","Dew Point":"26 F (-3 C)","Relative Humidity":"86%","Pressure (altimeter)":"30.00 in. Hg (1016 hPa)","ob":"EPGD 131000Z 28006KT 6000 FEW008 BKN038 M01/M03 Q1016 R11/490144","cycle":"10"},
{"_id":"4495a8a111ec85eb6d2389a681ee9876","_rev":"1-171475afb4705897e817f715729c6050","Location":"Gdansk-Rebiechowo, Poland (EPGD) 54-23N 018-28E 138M","Date":"Jan 28, 2012 - 12:00 PM EST / 2012.01.28 1700 UTC","Wind":"from the ESE (110 degrees) at 8 MPH (7 KT):0","Visibility":"greater than 7 mile(s):0","Temperature":"10 F (-12 C)","Windchill":"-2 F (-19 C):1","Dew Point":"5 F (-15 C)","Relative Humidity":"78%","Pressure (altimeter)":"30.59 in. Hg (1036 hPa)","ob":"EPGD 281700Z 11007KT CAVOK M12/M15 Q1036 R11/190095","cycle":"17"},
{"_id":"4495a8a111ec85eb6d2389a681ee9a4a","_rev":"1-ac8354b46252ac269abd029bf44e19ee","Location":"Gdansk-Rebiechowo, Poland (EPGD) 54-23N 018-28E 138M","Date":"Dec 31, 2011 - 03:00 AM EST / 2011.12.31 0800 UTC","Wind":"from the WNW (290 degrees) at 3 MPH (3 KT):0","Visibility":"greater than 7 mile(s):0","Sky conditions":"mostly clear","Temperature":"32 F (0 C)","Dew Point":"30 F (-1 C)","Relative Humidity":"92%","Pressure (altimeter)":"29.77 in. Hg (1008 hPa)","ob":"EPGD 310800Z 29003KT 9999 FEW017 M00/M01 Q1008","cycle":"8"},
{"_id":"4495a8a111ec85eb6d2389a681ee9fc9","_rev":"1-859629a188a42b0a3a5826202843fbba","Location":"Gdansk-Rebiechowo, Poland (EPGD) 54-23N 018-28E 138M","Date":"Jan 03, 2012 - 06:00 PM EST / 2012.01.03 2300 UTC","Wind":"from the SSW (210 degrees) at 17 MPH (15 KT) gusting to 30 MPH (26 KT) (direction variable):0","Visibility":"greater than 7 mile(s):0","Sky conditions":"mostly cloudy","Temperature":"41 F (5 C)","Dew Point":"37 F (3 C)","Relative Humidity":"86%","Pressure (altimeter)":"29.38 in. Hg (0995 hPa)","ob":"EPGD 032300Z 21015G26KT 170V250 9999 BKN016 05/03 Q0995","cycle":"23"},
{"_id":"4495a8a111ec85eb6d2389a681eea4c4","_rev":"1-8b3efb19278270b8f72eaf3250a24a6f","Location":"Gdansk-Rebiechowo, Poland (EPGD) 54-23N 018-28E 138M","Date":"Jan 24, 2012 - 10:00 PM EST / 2012.01.25 0300 UTC","Wind":"from the W (270 degrees) at 3 MPH (3 KT):0","Visibility":"greater than 7 mile(s):0","Sky conditions":"mostly cloudy","Temperature":"26 F (-3 C)","Dew Point":"23 F (-5 C)","Relative Humidity":"86%","Pressure (altimeter)":"30.12 in. Hg (1020 hPa)","ob":"EPGD 250300Z 27003KT 9999 SCT007 BKN025 M03/M05 Q1020 R11/590249","cycle":"3"},
{"_id":"4495a8a111ec85eb6d2389a681eeb0c3","_rev":"1-009b0a8859996a8de0dea8ef221e8e5f","Location":"Gdansk-Rebiechowo, Poland (EPGD) 54-23N 018-28E 138M","Date":"Dec 25, 2011 - 01:00 AM EST / 2011.12.25 0600 UTC","Wind":"from the W (260 degrees) at 9 MPH (8 KT):0","Visibility":"greater than 7 mile(s):0","Sky conditions":"mostly cloudy","Temperature":"37 F (3 C)","Dew Point":"33 F (1 C)","Relative Humidity":"86%","Pressure (altimeter)":"30.12 in. Hg (1020 hPa)","ob":"EPGD 250600Z 26008KT 9999 BKN019 03/01 Q1020","cycle":"6"},
{"_id":"4495a8a111ec85eb6d2389a681eeb5c5","_rev":"1-c55335b12080782be2a3b4ca3f26caae","Location":"Gdansk-Rebiechowo, Poland (EPGD) 54-23N 018-28E 138M","Date":"Dec 21, 2011 - 01:00 AM EST / 2011.12.21 0600 UTC","Wind":"from the ESE (110 degrees) at 2 MPH (2 KT):0","Visibility":"1 mile(s):0","Weather":"mist","Temperature":"23 F (-5 C)","Dew Point":"21 F (-6 C)","Relative Humidity":"92%","Pressure (altimeter)":"29.77 in. Hg (1008 hPa)","ob":"EPGD 210600Z 11002KT 2000 BR NSC M05/M06 Q1008 R11/190095","cycle":"6"},
{"_id":"4495a8a111ec85eb6d2389a681eebbf1","_rev":"1-ab1ba7456ae60cf079980869567b7a92","Location":"Gdansk-Rebiechowo, Poland (EPGD) 54-23N 018-28E 138M","Date":"Feb 11, 2012 - 04:00 AM EST / 2012.02.11 0900 UTC","Wind":"from the W (280 degrees) at 3 MPH (3 KT) (direction variable):0","Visibility":"1 mile(s):0","Sky conditions":"mostly cloudy","Weather":"light snow; mist","Temperature":"12 F (-11 C)","Dew Point":"6 F (-14 C)","Relative Humidity":"78%","Pressure (altimeter)":"30.59 in. Hg (1036 hPa)","ob":"EPGD 110900Z 28003KT 240V300 2500 -SN BR FEW006 BKN012 M11/M14 Q1036 R29/090095","cycle":"9"},
{"_id":"4495a8a111ec85eb6d2389a681eec48b","_rev":"1-da2098184c6b016fbe3a6704e99e4842","Location":"Gdansk-Rebiechowo, Poland (EPGD) 54-23N 018-28E 138M","Date":"Dec 14, 2011 - 11:00 AM EST / 2011.12.14 1600 UTC","Wind":"from the SSE (150 degrees) at 12 MPH (10 KT) (direction variable):0","Visibility":"greater than 7 mile(s):0","Sky conditions":"mostly cloudy","Weather":"light rain","Temperature":"41 F (5 C)","Dew Point":"35 F (2 C)","Relative Humidity":"80%","Pressure (altimeter)":"29.50 in. Hg (0999 hPa)","ob":"EPGD 141600Z 15010KT 110V200 9999 -RA FEW009 BKN040 05/02 Q0999","cycle":"16"},
{"_id":"4495a8a111ec85eb6d2389a681eecac2","_rev":"1-00a8b8ec2a820db65bb152bd5fb6bfb3","Location":"Gdansk-Rebiechowo, Poland (EPGD) 54-23N 018-28E 138M","Date":"Jan 27, 2012 - 03:00 AM EST / 2012.01.27 0800 UTC","Wind":"Calm:0","Visibility":"3 mile(s):0","Weather":"mist","Temperature":"8 F (-13 C)","Dew Point":"5 F (-15 C)","Relative Humidity":"84%","Pressure (altimeter)":"30.47 in. Hg (1032 hPa)","ob":"EPGD 270800Z 00000KT 5000 BR NSC M13/M15 Q1032 R11/190095","cycle":"8"},
{"_id":"4495a8a111ec85eb6d2389a681eeda5e","_rev":"1-6e176dbfe294076cd0ccd9b44756918d","Location":"Gdansk-Rebiechowo, Poland (EPGD) 54-23N 018-28E 138M","Date":"Dec 14, 2011 - 04:00 AM EST / 2011.12.14 0900 UTC","Wind":"from the SW (220 degrees) at 13 MPH (11 KT) (direction variable):0","Visibility":"greater than 7 mile(s):0","Sky conditions":"mostly clear","Temperature":"42 F (6 C)","Dew Point":"35 F (2 C)","Relative Humidity":"75%","Pressure (altimeter)":"29.65 in. Hg (1004 hPa)","ob":"EPGD 140900Z 22011KT 190V270 9999 FEW015 06/02 Q1004","cycle":"9"},
{"_id":"4495a8a111ec85eb6d2389a681eee247","_rev":"1-97d5f9d521585101df99cffd2092dbae","Location":"Gdansk-Rebiechowo, Poland (EPGD) 54-23N 018-28E 138M","Date":"Feb 15, 2012 - 02:00 AM EST / 2012.02.15 0700 UTC","Wind":"from the ESE (120 degrees) at 10 MPH (9 KT) (direction variable):0","Visibility":"less than 1 mile:0","Sky conditions":"mostly cloudy","Weather":"light snow; low drifting snow; mist","Temperature":"24 F (-4 C)","Windchill":"14 F (-10 C):1","Dew Point":"23 F (-5 C)","Relative Humidity":"92%","Pressure (altimeter)":"28.88 in. Hg (0978 hPa)","ob":"EPGD 150700Z 12009KT 1500 R29/1200V1400 -SN DRSN BR BKN004 M04/M05 Q0978 R11/490332","cycle":"7"},
{"_id":"4495a8a111ec85eb6d2389a681eee284","_rev":"1-c99abf5ccf9388fb23fbdbf9d06008eb","Location":"Gdansk-Rebiechowo, Poland (EPGD) 54-23N 018-28E 138M","Date":"Jan 08, 2012 - 12:00 AM EST / 2012.01.08 0500 UTC","Wind":"from the W (270 degrees) at 8 MPH (7 KT):0","Visibility":"greater than 7 mile(s):0","Sky conditions":"mostly cloudy","Weather":"light rain","Temperature":"37 F (3 C)","Dew Point":"35 F (2 C)","Relative Humidity":"93%","Pressure (altimeter)":"29.59 in. Hg (1002 hPa)","ob":"EPGD 080500Z 27007KT 9999 -RA BKN013 03/02 Q1002","cycle":"5"},
{"_id":"4495a8a111ec85eb6d2389a681eee56f","_rev":"1-963909454f40ac074199b0777b48fcc9","Location":"Gdansk-Rebiechowo, Poland (EPGD) 54-23N 018-28E 138M","Date":"Jan 06, 2012 - 01:00 PM EST / 2012.01.06 1800 UTC","Wind":"from the WNW (300 degrees) at 12 MPH (10 KT):0","Visibility":"greater than 7 mile(s):0","Sky conditions":"mostly cloudy","Temperature":"33 F (1 C)","Windchill":"24 F (-4 C):1","Dew Point":"28 F (-2 C)","Relative Humidity":"80%","Pressure (altimeter)":"29.71 in. Hg (1006 hPa)","ob":"EPGD 061800Z 30010KT 9999 BKN045 01/M02 Q1006","cycle":"18"},
{"_id":"4495a8a111ec85eb6d2389a681eef367","_rev":"1-d2ba14d731a636faff189d24b5b1ae3a","Location":"Gdansk-Rebiechowo, Poland (EPGD) 54-23N 018-28E 138M","Date":"Dec 27, 2011 - 12:00 AM EST / 2011.12.27 0500 UTC","Wind":"from the W (260 degrees) at 24 MPH (21 KT) gusting to 37 MPH (32 KT):0","Visibility":"greater than 7 mile(s):0","Sky conditions":"mostly cloudy","Temperature":"51 F (11 C)","Dew Point":"44 F (7 C)","Relative Humidity":"76%","Pressure (altimeter)":"30.18 in. Hg (1022 hPa)","ob":"EPGD 270500Z 26021G32KT 9999 BKN021 11/07 Q1022","cycle":"5"},
{"_id":"4495a8a111ec85eb6d2389a681eef641","_rev":"1-0464dadc513246f54e73f6189addcee5","Location":"Gdansk-Rebiechowo, Poland (EPGD) 54-23N 018-28E 138M","Date":"Dec 20, 2011 - 01:00 AM EST / 2011.12.20 0600 UTC","Wind":"from the SW (220 degrees) at 6 MPH (5 KT) (direction variable):0","Visibility":"greater than 7 mile(s):0","Sky conditions":"mostly cloudy","Temperature":"33 F (1 C)","Windchill":"26 F (-3 C):1","Dew Point":"30 F (-1 C)","Relative Humidity":"86%","Pressure (altimeter)":"29.88 in. Hg (1012 hPa)","ob":"EPGD 200600Z 22005KT 160V270 9999 BKN009 01/M01 Q1012 R11/190095","cycle":"6"},
{"_id":"4495a8a111ec85eb6d2389a681ef040a","_rev":"1-8216738cc9c870ca2d7ac7c013ed161c","Location":"Gdansk-Rebiechowo, Poland (EPGD) 54-23N 018-28E 138M","Date":"Feb 02, 2012 - 04:00 AM EST / 2012.02.02 0900 UTC","Wind":"from the ESE (120 degrees) at 7 MPH (6 KT):0","Visibility":"greater than 7 mile(s):0","Temperature":"3 F (-16 C)","Windchill":"-9 F (-23 C):2","Dew Point":"-4 F (-20 C)","Relative Humidity":"71%","Pressure (altimeter)":"30.59 in. Hg (1036 hPa)","ob":"EPGD 020900Z 12006KT CAVOK M16/M20 Q1036 R11/490140","cycle":"9"},
{"_id":"4495a8a111ec85eb6d2389a681ef110c","_rev":"1-17e1407699735f7898996d1cb18a09c1","Location":"Gdansk-Rebiechowo, Poland (EPGD) 54-23N 018-28E 138M","Date":"Dec 19, 2011 - 06:00 AM EST / 2011.12.19 1100 UTC","Wind":"from the SW (220 degrees) at 15 MPH (13 KT) gusting to 29 MPH (25 KT) (direction variable):0","Visibility":"greater than 7 mile(s):0","Sky conditions":"mostly cloudy","Temperature":"37 F (3 C)","Dew Point":"30 F (-1 C)","Relative Humidity":"74%","Pressure (altimeter)":"29.74 in. Hg (1007 hPa)","ob":"EPGD 191100Z 22013G25KT 190V260 9999 BKN017 03/M01 Q1007 R11/290062","cycle":"11"},
{"_id":"4495a8a111ec85eb6d2389a681ef1b69","_rev":"1-b0c4e841bc0fe386194643862bd9b4fa","Location":"Gdansk-Rebiechowo, Poland (EPGD) 54-23N 018-28E 138M","Date":"Dec 29, 2011 - 01:00 PM EST / 2011.12.29 1800 UTC","Wind":"from the SW (230 degrees) at 16 MPH (14 KT) gusting to 29 MPH (25 KT) (direction variable):0","Visibility":"greater than 7 mile(s):0","Sky conditions":"partly cloudy","Temperature":"39 F (4 C)","Dew Point":"32 F (0 C)","Relative Humidity":"75%","Pressure (altimeter)":"29.62 in. Hg (1003 hPa)","ob":"EPGD 291800Z 23014G25KT 200V260 9999 SCT032 04/00 Q1003","cycle":"18"},
{"_id":"4495a8a111ec85eb6d2389a681ef2096","_rev":"1-687a71d21d5afbfcb8230799c2c728c4","Location":"Gdansk-Rebiechowo, Poland (EPGD) 54-23N 018-28E 138M","Date":"Jan 17, 2012 - 09:00 PM EST / 2012.01.18 0200 UTC","Wind":"from the WSW (250 degrees) at 6 MPH (5 KT):0","Visibility":"2 mile(s):0","Sky conditions":"mostly cloudy","Weather":"mist","Temperature":"32 F (0 C)","Windchill":"26 F (-3 C):1","Dew Point":"30 F (-1 C)","Relative Humidity":"92%","Pressure (altimeter)":"30.18 in. Hg (1022 hPa)","ob":"EPGD 180200Z 25005KT 4000 BR FEW003 BKN021 M00/M01 Q1022 R11/290095","cycle":"2"},
{"_id":"4495a8a111ec85eb6d2389a681ef2200","_rev":"1-c7ef9fef253e0788eed76e18865fd7b4","Location":"Gdansk-Rebiechowo, Poland (EPGD) 54-23N 018-28E 138M","Date":"Feb 11, 2012 - 01:00 AM EST / 2012.02.11 0600 UTC","Wind":"from the W (280 degrees) at 3 MPH (3 KT):0","Visibility":"greater than 7 mile(s):0","Sky conditions":"mostly cloudy","Temperature":"3 F (-16 C)","Dew Point":"-2 F (-19 C)","Relative Humidity":"77%","Pressure (altimeter)":"30.59 in. Hg (1036 hPa)","ob":"EPGD 110600Z 28003KT 9999 BKN033 M16/M19 Q1036 R11/090095","cycle":"6"},
{"_id":"4495a8a111ec85eb6d2389a681ef2604","_rev":"1-c17904a58b2305a5e9a77399649ff836","Location":"Gdansk-Rebiechowo, Poland (EPGD) 54-23N 018-28E 138M","Date":"Dec 16, 2011 - 11:00 AM EST / 2011.12.16 1600 UTC","Wind":"from the ESE (120 degrees) at 15 MPH (13 KT):0","Visibility":"greater than 7 mile(s):0","Sky conditions":"partly cloudy","Temperature":"35 F (2 C)","Windchill":"24 F (-4 C):1","Dew Point":"32 F (0 C)","Relative Humidity":"86%","Pressure (altimeter)":"29.00 in. Hg (0982 hPa)","ob":"EPGD 161600Z 12013KT 9999 FEW017 SCT028 02/M00 Q0982","cycle":"16"},
{"_id":"4495a8a111ec85eb6d2389a681ef2f73","_rev":"1-f24a347aefd64183b79304c38943eabb","Location":"Gdansk-Rebiechowo, Poland (EPGD) 54-23N 018-28E 138M","Date":"Dec 20, 2011 - 05:00 PM EST / 2011.12.20 2200 UTC","Wind":"Calm:0","Visibility":"4 mile(s):0","Sky conditions":"mostly cloudy","Temperature":"32 F (0 C)","Dew Point":"28 F (-2 C)","Relative Humidity":"86%","Pressure (altimeter)":"29.83 in. Hg (1010 hPa)","ob":"EPGD 202200Z 00000KT 7000 BKN040 M00/M02 Q1010 R11/190095","cycle":"22"},
{"_id":"4495a8a111ec85eb6d2389a681ef308a","_rev":"1-afd6300cb4fd864cd1633f19e8be789e","Location":"Gdansk-Rebiechowo, Poland (EPGD) 54-23N 018-28E 138M","Date":"Jan 12, 2012 - 06:00 AM EST / 2012.01.12 1100 UTC","Wind":"from the SW (230 degrees) at 15 MPH (13 KT) gusting to 32 MPH (28 KT) (direction variable):0","Visibility":"2 mile(s):0","Sky conditions":"mostly cloudy","Weather":"light rain; mist","Temperature":"44 F (7 C)","Dew Point":"42 F (6 C)","Relative Humidity":"93%","Pressure (altimeter)":"29.65 in. Hg (1004 hPa)","ob":"EPGD 121100Z 23013G28KT 200V260 4000 -RA BR BKN008 07/06 Q1004","cycle":"11"},
{"_id":"4495a8a111ec85eb6d2389a681ef3ac7","_rev":"1-b8c10363d0fbdc36579b0ec255dd6a1e","Location":"Gdansk-Rebiechowo, Poland (EPGD) 54-23N 018-28E 138M","Date":"Feb 09, 2012 - 07:00 AM EST / 2012.02.09 1200 UTC","Wind":"from the ENE (070 degrees) at 14 MPH (12 KT):0","Visibility":"greater than 7 mile(s):0","Sky conditions":"mostly cloudy","Temperature":"17 F (-8 C)","Windchill":"3 F (-16 C):1","Dew Point":"12 F (-11 C)","Relative Humidity":"78%","Pressure (altimeter)":"30.59 in. Hg (1036 hPa)","ob":"EPGD 091200Z 07012KT 9999 FEW008 BKN015 M08/M11 Q1036 R11/490333","cycle":"12"},
{"_id":"4495a8a111ec85eb6d2389a681ef3f03","_rev":"1-0e0ea359446e5b7aae4867854c1771be","Location":"Gdansk-Rebiechowo, Poland (EPGD) 54-23N 018-28E 138M","Date":"Feb 17, 2012 - 10:00 AM EST / 2012.02.17 1500 UTC","Wind":"from the WNW (290 degrees) at 22 MPH (19 KT):0","Visibility":"greater than 7 mile(s):0","Sky conditions":"mostly cloudy","Temperature":"33 F (1 C)","Windchill":"21 F (-6 C):1","Dew Point":"30 F (-1 C)","Relative Humidity":"86%","Pressure (altimeter)":"29.74 in. Hg (1007 hPa)","ob":"EPGD 171500Z 29019KT 9999 BKN006 01/M01 Q1007 R11/290095","cycle":"15"},
{"_id":"4495a8a111ec85eb6d2389a681ef4321","_rev":"1-503d9ad6b4f74d201cde5ca569f7bce7","Location":"Gdansk-Rebiechowo, Poland (EPGD) 54-23N 018-28E 138M","Date":"Feb 07, 2012 - 05:00 PM EST / 2012.02.07 2200 UTC","Wind":"from the ESE (120 degrees) at 7 MPH (6 KT):0","Visibility":"greater than 7 mile(s):0","Sky conditions":"mostly cloudy","Temperature":"15 F (-9 C)","Windchill":"5 F (-15 C):1","Dew Point":"12 F (-11 C)","Relative Humidity":"85%","Pressure (altimeter)":"30.80 in. Hg (1043 hPa)","ob":"EPGD 072200Z 12006KT 9999 BKN010 M09/M11 Q1043 R11/490138","cycle":"22"},
{"_id":"4495a8a111ec85eb6d2389a681ef5120","_rev":"1-6547e8eb0929a0e40390a5ed2b1d3cc3","Location":"Gdansk-Rebiechowo, Poland (EPGD) 54-23N 018-28E 138M","Date":"Jan 26, 2012 - 12:00 AM EST / 2012.01.26 0500 UTC","Wind":"from the E (100 degrees) at 6 MPH (5 KT):0","Visibility":"4 mile(s):0","Sky conditions":"mostly cloudy","Temperature":"28 F (-2 C)","Windchill":"21 F (-6 C):1","Dew Point":"26 F (-3 C)","Relative Humidity":"92%","Pressure (altimeter)":"30.30 in. Hg (1026 hPa)","ob":"EPGD 260500Z 10005KT 8000 BKN005 M02/M03 Q1026 R11/290095","cycle":"5"},
{"_id":"4495a8a111ec85eb6d2389a681ef5731","_rev":"1-363bd29f1cf18f8023bc40f5ddab4e95","Location":"Gdansk-Rebiechowo, Poland (EPGD) 54-23N 018-28E 138M","Date":"Feb 06, 2012 - 01:00 PM EST / 2012.02.06 1800 UTC","Wind":"from the E (080 degrees) at 9 MPH (8 KT):0","Visibility":"greater than 7 mile(s):0","Sky conditions":"mostly cloudy","Weather":"light snow","Temperature":"14 F (-10 C)","Windchill":"1 F (-17 C):1","Dew Point":"8 F (-13 C)","Relative Humidity":"78%","Pressure (altimeter)":"30.62 in. Hg (1037 hPa)","ob":"EPGD 061800Z 08008KT 9999 -SN BKN008 M10/M13 Q1037 R11/490152","cycle":"18"},
{"_id":"4495a8a111ec85eb6d2389a681ef6007","_rev":"1-2c13e2f4a937fc563f63a1bd8aba2478","Location":"Gdansk-Rebiechowo, Poland (EPGD) 54-23N 018-28E 138M","Date":"Dec 28, 2011 - 10:00 PM EST / 2011.12.29 0300 UTC","Wind":"from the SW (220 degrees) at 8 MPH (7 KT) (direction variable):0","Visibility":"greater than 7 mile(s):0","Sky conditions":"mostly cloudy","Temperature":"41 F (5 C)","Dew Point":"37 F (3 C)","Relative Humidity":"86%","Pressure (altimeter)":"29.80 in. Hg (1009 hPa)","ob":"EPGD 290300Z 22007KT 180V260 9999 BKN006 05/03 Q1009","cycle":"3"},
{"_id":"4495a8a111ec85eb6d2389a681ef6364","_rev":"1-012c879376d3847e79f6e7808d3732b2","Location":"Gdansk-Rebiechowo, Poland (EPGD) 54-23N 018-28E 138M","Date":"Jan 29, 2012 - 10:00 AM EST / 2012.01.29 1500 UTC","Wind":"from the E (090 degrees) at 9 MPH (8 KT):0","Visibility":"greater than 7 mile(s):0","Temperature":"17 F (-8 C)","Windchill":"5 F (-15 C):1","Dew Point":"3 F (-16 C)","Relative Humidity":"52%","Pressure (altimeter)":"30.77 in. Hg (1042 hPa)","ob":"EPGD 291500Z 09008KT CAVOK M08/M16 Q1042 R11/190095","cycle":"15"},
{"_id":"4495a8a111ec85eb6d2389a681ef6f7f","_rev":"1-7698a49aaabb8004e6fc4f8c6554e04c","Location":"Gdansk-Rebiechowo, Poland (EPGD) 54-23N 018-28E 138M","Date":"Jan 12, 2012 - 03:00 AM EST / 2012.01.12 0800 UTC","Wind":"from the SW (230 degrees) at 13 MPH (11 KT) (direction variable):0","Visibility":"2 mile(s):0","Sky conditions":"mostly cloudy","Weather":"light drizzle; mist","Temperature":"42 F (6 C)","Dew Point":"41 F (5 C)","Relative Humidity":"93%","Pressure (altimeter)":"29.80 in. Hg (1009 hPa)","ob":"EPGD 120800Z 23011KT 200V270 4000 -DZ BR BKN008 06/05 Q1009 R11/290095","cycle":"8"},
{"_id":"4495a8a111ec85eb6d2389a681ef7049","_rev":"1-c0e2f435ad9f60ad192d377ad3450155","Location":"Gdansk-Rebiechowo, Poland (EPGD) 54-23N 018-28E 138M","Date":"Dec 30, 2011 - 12:00 PM EST / 2011.12.30 1700 UTC","Wind":"from the W (280 degrees) at 3 MPH (3 KT):0","Visibility":"greater than 7 mile(s):0","Sky conditions":"mostly cloudy","Temperature":"35 F (2 C)","Dew Point":"33 F (1 C)","Relative Humidity":"93%","Pressure (altimeter)":"29.56 in. Hg (1001 hPa)","ob":"EPGD 301700Z 28003KT 9999 FEW007 BKN020 02/01 Q1001","cycle":"17"},
{"_id":"4495a8a111ec85eb6d2389a681ef773a","_rev":"1-443800d9e7220be9e7c51fdafc041a96","Location":"Gdansk-Rebiechowo, Poland (EPGD) 54-23N 018-28E 138M","Date":"Jan 18, 2012 - 11:00 PM EST / 2012.01.19 0400 UTC","Wind":"from the W (260 degrees) at 16 MPH (14 KT):0","Visibility":"3 mile(s):0","Sky conditions":"overcast","Weather":"light drizzle; mist","Temperature":"35 F (2 C)","Windchill":"24 F (-4 C):1","Dew Point":"33 F (1 C)","Relative Humidity":"93%","Pressure (altimeter)":"29.74 in. Hg (1007 hPa)","ob":"EPGD 190400Z 26014KT 5000 -DZ BR OVC002 02/01 Q1007 R11/290095","cycle":"4"},
{"_id":"4495a8a111ec85eb6d2389a681ef8371","_rev":"1-b4ca290963ed43653db29adf0fd329dc","Location":"Gdansk-Rebiechowo, Poland (EPGD) 54-23N 018-28E 138M","Date":"Dec 20, 2011 - 08:00 PM EST / 2011.12.21 0100 UTC","Wind":"from the ESE (110 degrees) at 3 MPH (3 KT) (direction variable):0","Visibility":"less than 1 mile:0","Sky conditions":"obscured","Weather":"freezing fog","Temperature":"24 F (-4 C)","Dew Point":"23 F (-5 C)","Relative Humidity":"92%","Pressure (altimeter)":"29.80 in. Hg (1009 hPa)","ob":"EPGD 210100Z 11003KT 0700 R29/0325V0550 FZFG VV001 M04/M05 Q1009 R11/190095","cycle":"1"},
{"_id":"4495a8a111ec85eb6d2389a681ef8e5d","_rev":"1-ae10a2099ae2a8ab9e7e72dc6c788522","Location":"Gdansk-Rebiechowo, Poland (EPGD) 54-23N 018-28E 138M","Date":"Jan 07, 2012 - 04:00 PM EST / 2012.01.07 2100 UTC","Wind":"from the WSW (240 degrees) at 8 MPH (7 KT) (direction variable):0","Visibility":"greater than 7 mile(s):0","Sky conditions":"mostly cloudy","Temperature":"35 F (2 C)","Windchill":"28 F (-2 C):1","Dew Point":"33 F (1 C)","Relative Humidity":"93%","Pressure (altimeter)":"29.50 in. Hg (0999 hPa)","ob":"EPGD 072100Z 24007KT 210V270 9999 BKN005 02/01 Q0999","cycle":"21"},
{"_id":"4495a8a111ec85eb6d2389a681ef9df7","_rev":"1-6753300803755b32c6cd8766649f3d6d","Location":"Gdansk-Rebiechowo, Poland (EPGD) 54-23N 018-28E 138M","Date":"Feb 19, 2012 - 08:00 AM EST / 2012.02.19 1300 UTC","Wind":"from the W (260 degrees) at 10 MPH (9 KT):0","Visibility":"greater than 7 mile(s):0","Sky conditions":"mostly cloudy","Temperature":"35 F (2 C)","Windchill":"26 F (-3 C):1","Dew Point":"32 F (0 C)","Relative Humidity":"86%","Pressure (altimeter)":"29.68 in. Hg (1005 hPa)","ob":"EPGD 191300Z 26009KT 9999 BKN014 02/M00 Q1005 R11/290095","cycle":"13"},
{"_id":"4495a8a111ec85eb6d2389a681efa92f","_rev":"1-93210c68ee9d6de6fa05331010bce997","Location":"Gdansk-Rebiechowo, Poland (EPGD) 54-23N 018-28E 138M","Date":"Feb 17, 2012 - 11:00 PM EST / 2012.02.18 0400 UTC","Wind":"from the W (280 degrees) at 9 MPH (8 KT):0","Visibility":"greater than 7 mile(s):0","Sky conditions":"mostly cloudy","Temperature":"32 F (0 C)","Windchill":"24 F (-4 C):1","Dew Point":"30 F (-1 C)","Relative Humidity":"92%","Pressure (altimeter)":"29.91 in. Hg (1013 hPa)","ob":"EPGD 180400Z 28008KT 9999 BKN003 00/M01 Q1013 R11/190095","cycle":"4"},
{"_id":"4495a8a111ec85eb6d2389a681efa9ef","_rev":"1-d6b0107e8ba6cda14f40599d1d407305","Location":"Gdansk-Rebiechowo, Poland (EPGD) 54-23N 018-28E 138M","Date":"Feb 08, 2012 - 07:00 PM EST / 2012.02.09 0000 UTC","Wind":"from the S (190 degrees) at 3 MPH (3 KT):0","Visibility":"less than 1 mile:0","Sky conditions":"mostly cloudy","Weather":"snow; mist","Temperature":"24 F (-4 C)","Dew Point":"23 F (-5 C)","Relative Humidity":"92%","Pressure (altimeter)":"30.39 in. Hg (1029 hPa)","ob":"EPGD 090000Z 19003KT 1600 SN BR BKN006 M04/M05 Q1029 R11/490042","cycle":"0"},
{"_id":"4495a8a111ec85eb6d2389a681efb055","_rev":"1-7de16bb6dae7a80e32e200b037ec9209","Location":"Gdansk-Rebiechowo, Poland (EPGD) 54-23N 018-28E 138M","Date":"Dec 23, 2011 - 03:00 PM EST / 2011.12.23 2000 UTC","Wind":"from the SW (230 degrees) at 6 MPH (5 KT) (direction variable):0","Visibility":"less than 1 mile:0","Sky conditions":"mostly cloudy","Weather":"light drizzle; fog","Temperature":"35 F (2 C)","Windchill":"30 F (-1 C):1","Dew Point":"33 F (1 C)","Relative Humidity":"93%","Pressure (altimeter)":"29.85 in. Hg (1011 hPa)","ob":"EPGD 232000Z 23005KT 180V260 0700 R29/1700 -DZ FG BKN001 02/01 Q1011","cycle":"20"},
{"_id":"4495a8a111ec85eb6d2389a681efb54a","_rev":"1-6f3d0bfad9764eed821d33f2c379f27e","Location":"Gdansk-Rebiechowo, Poland (EPGD) 54-23N 018-28E 138M","Date":"Dec 18, 2011 - 10:00 AM EST / 2011.12.18 1500 UTC","Wind":"from the WSW (240 degrees) at 15 MPH (13 KT):0","Visibility":"greater than 7 mile(s):0","Sky conditions":"mostly cloudy","Weather":"Cumulonimbus clouds observed","Temperature":"35 F (2 C)","Windchill":"24 F (-4 C):1","Dew Point":"32 F (0 C)","Relative Humidity":"86%","Pressure (altimeter)":"29.35 in. Hg (0994 hPa)","ob":"EPGD 181500Z 24013KT 9999 SCT012CB BKN015 02/M00 Q0994","cycle":"15"},
{"_id":"4495a8a111ec85eb6d2389a681efc1e3","_rev":"1-e09096dbb98df596d66e485679155626","Location":"Gdansk-Rebiechowo, Poland (EPGD) 54-23N 018-28E 138M","Date":"Dec 25, 2011 - 06:00 PM EST / 2011.12.25 2300 UTC","Wind":"from the SW (230 degrees) at 14 MPH (12 KT) (direction variable):0","Visibility":"greater than 7 mile(s):0","Sky conditions":"mostly cloudy","Temperature":"42 F (6 C)","Dew Point":"41 F (5 C)","Relative Humidity":"93%","Pressure (altimeter)":"30.09 in. Hg (1019 hPa)","ob":"EPGD 252300Z 23012KT 190V270 9999 BKN006 06/05 Q1019","cycle":"23"},
{"_id":"4495a8a111ec85eb6d2389a681efcdb1","_rev":"1-ac678c4604737d363c61c4a6568909e7","Location":"Gdansk-Rebiechowo, Poland (EPGD) 54-23N 018-28E 138M","Date":"Jan 26, 2012 - 11:00 PM EST / 2012.01.27 0400 UTC","Wind":"from the ESE (122 degrees) at 7 MPH (6 KT):0","Visibility":"2 mile(s):0","Weather":"mist","Temperature":"10 F (-12 C)","Windchill":"0 F (-18 C):1","Dew Point":"6 F (-14 C)","Relative Humidity":"85%","Pressure (altimeter)":"30.45 in. Hg (1031 hPa)","ob":"EPGD 270400Z 12206KT 4000 BR NSC M12/M14 Q1031","cycle":"4"},
{"_id":"4495a8a111ec85eb6d2389a681efdd80","_rev":"1-7a95ed3e0cf1d9f6b4c173679a8b94d3","Location":"Gdansk-Rebiechowo, Poland (EPGD) 54-23N 018-28E 138M","Date":"Dec 15, 2011 - 10:00 AM EST / 2011.12.15 1500 UTC","Wind":"from the SSW (200 degrees) at 7 MPH (6 KT) (direction variable):0","Visibility":"greater than 7 mile(s):0","Sky conditions":"partly cloudy","Temperature":"37 F (3 C)","Dew Point":"32 F (0 C)","Relative Humidity":"80%","Pressure (altimeter)":"29.65 in. Hg (1004 hPa)","ob":"EPGD 151500Z 20006KT 160V250 9999 SCT046 03/M00 Q1004","cycle":"15"},
{"_id":"4495a8a111ec85eb6d2389a681efe142","_rev":"1-7e55597085089cd2a01916a4393d54e2","Location":"Gdansk-Rebiechowo, Poland (EPGD) 54-23N 018-28E 138M","Date":"Feb 15, 2012 - 06:00 PM EST / 2012.02.15 2300 UTC","Wind":"from the N (010 degrees) at 7 MPH (6 KT) (direction variable):0","Visibility":"3 mile(s):0","Sky conditions":"mostly cloudy","Temperature":"28 F (-2 C)","Windchill":"21 F (-6 C):1","Dew Point":"21 F (-6 C)","Relative Humidity":"74%","Pressure (altimeter)":"29.65 in. Hg (1004 hPa)","ob":"EPGD 152300Z 01006KT 330V040 6000 BKN020 M02/M06 Q1004 R11/490348","cycle":"23"},
{"_id":"4495a8a111ec85eb6d2389a681efed2f","_rev":"1-9e82b4f51542460628e39db8116aa11e","Location":"Gdansk-Rebiechowo, Poland (EPGD) 54-23N 018-28E 138M","Date":"Jan 25, 2012 - 09:00 AM EST / 2012.01.25 1400 UTC","Wind":"from the W (270 degrees) at 2 MPH (2 KT):0","Visibility":"greater than 7 mile(s):0","Sky conditions":"partly cloudy","Temperature":"30 F (-1 C)","Dew Point":"26 F (-3 C)","Relative Humidity":"86%","Pressure (altimeter)":"30.18 in. Hg (1022 hPa)","ob":"EPGD 251400Z 27002KT 9999 FEW013 SCT017 M01/M03 Q1022 R11/290095","cycle":"14"},
{"_id":"4495a8a111ec85eb6d2389a681eff123","_rev":"1-83815bc0ec256a38254ffd3f4ddf3b9b","Location":"Gdansk-Rebiechowo, Poland (EPGD) 54-23N 018-28E 138M","Date":"Dec 26, 2011 - 08:00 AM EST / 2011.12.26 1300 UTC","Wind":"from the W (270 degrees) at 20 MPH (17 KT):0","Visibility":"greater than 7 mile(s):0","Sky conditions":"mostly cloudy","Temperature":"48 F (9 C)","Dew Point":"46 F (8 C)","Relative Humidity":"93%","Pressure (altimeter)":"30.24 in. Hg (1024 hPa)","ob":"EPGD 261300Z 27017KT 9999 BKN007 09/08 Q1024","cycle":"13"},
{"_id":"4495a8a111ec85eb6d2389a681eff853","_rev":"1-120bcbc49bc084ac908d801c0ea88e35","Location":"Gdansk-Rebiechowo, Poland (EPGD) 54-23N 018-28E 138M","Date":"Jan 01, 2012 - 08:00 PM EST / 2012.01.02 0100 UTC","Wind":"from the S (190 degrees) at 5 MPH (4 KT) (direction variable):0","Visibility":"less than 1 mile:0","Sky conditions":"mostly cloudy","Weather":"fog","Temperature":"39 F (4 C)","Dew Point":"39 F (4 C)","Relative Humidity":"100%","Pressure (altimeter)":"29.71 in. Hg (1006 hPa)","ob":"EPGD 020100Z 19004KT 160V220 0800 R29/1900 FG BKN001 04/04 Q1006","cycle":"1"},
{"_id":"4495a8a111ec85eb6d2389a681eff914","_rev":"1-ef7710b8a8fb075f2570e2e1403175d5","Location":"Gdansk-Rebiechowo, Poland (EPGD) 54-23N 018-28E 138M","Date":"Jan 28, 2012 - 02:00 PM EST / 2012.01.28 1900 UTC","Wind":"from the ESE (120 degrees) at 8 MPH (7 KT):0","Visibility":"greater than 7 mile(s):0","Temperature":"10 F (-12 C)","Windchill":"-2 F (-19 C):1","Dew Point":"5 F (-15 C)","Relative Humidity":"78%","Pressure (altimeter)":"30.59 in. Hg (1036 hPa)","ob":"EPGD 281900Z 12007KT CAVOK M12/M15 Q1036 R11/190095","cycle":"19"},
{"_id":"4495a8a111ec85eb6d2389a681f001bd","_rev":"1-c09c6086a4b39965dfa8013d3307f556","Location":"Gdansk-Rebiechowo, Poland (EPGD) 54-23N 018-28E 138M","Date":"Jan 28, 2012 - 03:00 AM EST / 2012.01.28 0800 UTC","Wind":"from the ESE (120 degrees) at 9 MPH (8 KT):0","Visibility":"greater than 7 mile(s):0","Temperature":"8 F (-13 C)","Windchill":"-5 F (-21 C):2","Dew Point":"5 F (-15 C)","Relative Humidity":"84%","Pressure (altimeter)":"30.56 in. Hg (1035 hPa)","ob":"EPGD 280800Z 12008KT CAVOK M13/M15 Q1035 R11/190095","cycle":"8"},
{"_id":"4495a8a111ec85eb6d2389a681f001d8","_rev":"1-43fbee7cabd47da346a56ef88a5d0078","Location":"Gdansk-Rebiechowo, Poland (EPGD) 54-23N 018-28E 138M","Date":"Dec 16, 2011 - 06:00 AM EST / 2011.12.16 1100 UTC","Wind":"from the SE (140 degrees) at 8 MPH (7 KT) (direction variable):0","Visibility":"greater than 7 mile(s):0","Temperature":"37 F (3 C)","Dew Point":"32 F (0 C)","Relative Humidity":"80%","Pressure (altimeter)":"29.26 in. Hg (0991 hPa)","ob":"EPGD 161100Z 14007KT 110V190 CAVOK 03/M00 Q0991","cycle":"11"},
{"_id":"4495a8a111ec85eb6d2389a681f00c16","_rev":"1-4882b5c2a91da4491088b93dbf2f8791","Location":"Gdansk-Rebiechowo, Poland (EPGD) 54-23N 018-28E 138M","Date":"Dec 14, 2011 - 10:00 AM EST / 2011.12.14 1500 UTC","Wind":"from the SE (140 degrees) at 9 MPH (8 KT) (direction variable):0","Visibility":"greater than 7 mile(s):0","Sky conditions":"mostly clear","Temperature":"41 F (5 C)","Dew Point":"35 F (2 C)","Relative Humidity":"80%","Pressure (altimeter)":"29.53 in. Hg (1000 hPa)","ob":"EPGD 141500Z 14008KT 100V180 9999 FEW047 05/02 Q1000","cycle":"15"},
{"_id":"4495a8a111ec85eb6d2389a681f011f5","_rev":"1-d2bbe5d1fd3ef5eca71690f86ec99844","Location":"Gdansk-Rebiechowo, Poland (EPGD) 54-23N 018-28E 138M","Date":"Dec 17, 2011 - 09:00 PM EST / 2011.12.18 0200 UTC","Wind":"from the W (270 degrees) at 16 MPH (14 KT):0","Visibility":"greater than 7 mile(s):0","Sky conditions":"mostly cloudy","Temperature":"35 F (2 C)","Windchill":"24 F (-4 C):1","Dew Point":"32 F (0 C)","Relative Humidity":"86%","Pressure (altimeter)":"29.18 in. Hg (0988 hPa)","ob":"EPGD 180200Z 27014KT 9999 FEW006 BKN020 02/M00 Q0988 R11/290064","cycle":"2"},
{"_id":"4495a8a111ec85eb6d2389a681f01719","_rev":"1-afe95799cf1698ce5460bed93004d5ae","Location":"Gdansk-Rebiechowo, Poland (EPGD) 54-23N 018-28E 138M","Date":"Dec 20, 2011 - 07:00 PM EST / 2011.12.21 0000 UTC","Wind":"from the ESE (110 degrees) at 5 MPH (4 KT) (direction variable):0","Visibility":"less than 1 mile:0","Sky conditions":"obscured","Weather":"freezing fog","Temperature":"26 F (-3 C)","Windchill":"19 F (-7 C):1","Dew Point":"26 F (-3 C)","Relative Humidity":"100%","Pressure (altimeter)":"29.80 in. Hg (1009 hPa)","ob":"EPGD 210000Z 11004KT 0150 R29/0300V0375 FZFG VV002 M03/M03 Q1009 R11/190095","cycle":"0"},
{"_id":"4495a8a111ec85eb6d2389a681f0260a","_rev":"1-fd11440cce6ef19b058e4269c6879430","Location":"Gdansk-Rebiechowo, Poland (EPGD) 54-23N 018-28E 138M","Date":"Dec 13, 2011 - 10:00 PM EST / 2011.12.14 0300 UTC","Wind":"from the SW (220 degrees) at 10 MPH (9 KT) (direction variable):0","Visibility":"greater than 7 mile(s):0","Sky conditions":"mostly cloudy","Temperature":"41 F (5 C)","Dew Point":"37 F (3 C)","Relative Humidity":"86%","Pressure (altimeter)":"29.56 in. Hg (1001 hPa)","ob":"EPGD 140300Z 22009KT 170V260 9999 BKN011 05/03 Q1001","cycle":"3"},
{"_id":"4495a8a111ec85eb6d2389a681f02f69","_rev":"1-da923a3043bb2561fec9b5d55135ada4","Location":"Gdansk-Rebiechowo, Poland (EPGD) 54-23N 018-28E 138M","Date":"Dec 15, 2011 - 09:00 PM EST / 2011.12.16 0200 UTC","Wind":"from the S (170 degrees) at 6 MPH (5 KT) (direction variable):0","Visibility":"greater than 7 mile(s):0","Temperature":"37 F (3 C)","Dew Point":"33 F (1 C)","Relative Humidity":"86%","Pressure (altimeter)":"29.56 in. Hg (1001 hPa)","ob":"EPGD 160200Z 17005KT 120V210 CAVOK 03/01 Q1001","cycle":"2"},
{"_id":"4495a8a111ec85eb6d2389a681f031a7","_rev":"1-a2c648cc9cd57452a13ba5306095035a","Location":"Gdansk-Rebiechowo, Poland (EPGD) 54-23N 018-28E 138M","Date":"Jan 05, 2012 - 05:00 PM EST / 2012.01.05 2200 UTC","Wind":"from the S (190 degrees) at 8 MPH (7 KT) (direction variable):0","Visibility":"greater than 7 mile(s):0","Sky conditions":"mostly cloudy","Temperature":"37 F (3 C)","Dew Point":"33 F (1 C)","Relative Humidity":"86%","Pressure (altimeter)":"28.70 in. Hg (0972 hPa)","ob":"EPGD 052200Z 19007KT 160V240 9999 BKN013 03/01 Q0972","cycle":"22"},
{"_id":"4495a8a111ec85eb6d2389a681f0419d","_rev":"1-931371dd432ab528ba950ac0b6ce8d1e","Location":"Gdansk-Rebiechowo, Poland (EPGD) 54-23N 018-28E 138M","Date":"Jan 27, 2012 - 07:00 PM EST / 2012.01.28 0000 UTC","Wind":"from the ESE (120 degrees) at 7 MPH (6 KT):0","Visibility":"greater than 7 mile(s):0","Temperature":"8 F (-13 C)","Windchill":"-4 F (-20 C):1","Dew Point":"5 F (-15 C)","Relative Humidity":"84%","Pressure (altimeter)":"30.53 in. Hg (1034 hPa)","ob":"EPGD 280000Z 12006KT CAVOK M13/M15 Q1034 R11/190095","cycle":"0"},
{"_id":"4495a8a111ec85eb6d2389a681f05025","_rev":"1-efc95a0efe216142ec29aa0a7acc260a","Location":"Gdansk-Rebiechowo, Poland (EPGD) 54-23N 018-28E 138M","Date":"Feb 08, 2012 - 01:00 AM EST / 2012.02.08 0600 UTC","Wind":"from the NNW (330 degrees) at 3 MPH (3 KT):0","Visibility":"greater than 7 mile(s):0","Sky conditions":"mostly cloudy","Temperature":"12 F (-11 C)","Dew Point":"8 F (-13 C)","Relative Humidity":"85%","Pressure (altimeter)":"30.74 in. Hg (1041 hPa)","ob":"EPGD 080600Z 33003KT 9999 BKN013 M11/M13 Q1041 R11/490143","cycle":"6"},
{"_id":"4495a8a111ec85eb6d2389a681f05c74","_rev":"1-bbeca7cfdc01712f2fd34cebb080c1d6","Location":"Gdansk-Rebiechowo, Poland (EPGD) 54-23N 018-28E 138M","Date":"Jan 24, 2012 - 05:00 AM EST / 2012.01.24 1000 UTC","Wind":"from the NW (310 degrees) at 5 MPH (4 KT):0","Visibility":"4 mile(s):0","Sky conditions":"mostly cloudy","Temperature":"33 F (1 C)","Windchill":"28 F (-2 C):1","Dew Point":"32 F (0 C)","Relative Humidity":"93%","Pressure (altimeter)":"29.94 in. Hg (1014 hPa)","ob":"EPGD 241000Z 31004KT 7000 FEW007 BKN030 01/M00 Q1014 R11/690252","cycle":"10"},
{"_id":"4495a8a111ec85eb6d2389a681f0637c","_rev":"1-bc23c7b6365eb95b9ddf91d55612ff48","Location":"Gdansk-Rebiechowo, Poland (EPGD) 54-23N 018-28E 138M","Date":"Feb 04, 2012 - 04:00 AM EST / 2012.02.04 0900 UTC","Wind":"from the SE (140 degrees) at 6 MPH (5 KT) (direction variable):0","Visibility":"1 mile(s):0","Sky conditions":"partly cloudy","Weather":"mist","Temperature":"10 F (-12 C)","Windchill":"0 F (-18 C):1","Dew Point":"6 F (-14 C)","Relative Humidity":"85%","Pressure (altimeter)":"30.56 in. Hg (1035 hPa)","ob":"EPGD 040900Z 14005KT 110V170 3000 BR SCT033 M12/M14 Q1035 R11/490136","cycle":"9"},
{"_id":"4495a8a111ec85eb6d2389a681f06ea0","_rev":"1-259e2f2c02c8a88c694a5a7fab642444","Location":"Gdansk-Rebiechowo, Poland (EPGD) 54-23N 018-28E 138M","Date":"Feb 16, 2012 - 03:00 AM EST / 2012.02.16 0800 UTC","Wind":"from the N (360 degrees) at 3 MPH (3 KT) (direction variable):0","Visibility":"greater than 7 mile(s):0","Sky conditions":"partly cloudy","Temperature":"26 F (-3 C)","Dew Point":"21 F (-6 C)","Relative Humidity":"79%","Pressure (altimeter)":"29.91 in. Hg (1013 hPa)","ob":"EPGD 160800Z 36003KT 320V040 9999 SCT011 SCT023 M03/M06 Q1013 R11/490075","cycle":"8"},
{"_id":"4495a8a111ec85eb6d2389a681f078de","_rev":"1-28ff3b27f1228cbc3c701564980b2fd9","Location":"Gdansk-Rebiechowo, Poland (EPGD) 54-23N 018-28E 138M","Date":"Feb 04, 2012 - 02:00 PM EST / 2012.02.04 1900 UTC","Wind":"from the E (100 degrees) at 7 MPH (6 KT):0","Visibility":"1 mile(s):0","Sky conditions":"mostly clear","Weather":"mist","Temperature":"3 F (-16 C)","Windchill":"-9 F (-23 C):2","Dew Point":"0 F (-18 C)","Relative Humidity":"84%","Pressure (altimeter)":"30.62 in. Hg (1037 hPa)","ob":"EPGD 041900Z 10006KT 2500 BR FEW003 M16/M18 Q1037 R11/490136","cycle":"19"},
{"_id":"4495a8a111ec85eb6d2389a681f07994","_rev":"1-112c2c09b3cc97d55415e399e85ebc09","Location":"Gdansk-Rebiechowo, Poland (EPGD) 54-23N 018-28E 138M","Date":"Dec 25, 2011 - 11:00 PM EST / 2011.12.26 0400 UTC","Wind":"from the WSW (250 degrees) at 15 MPH (13 KT):0","Visibility":"3 mile(s):0","Sky conditions":"mostly cloudy","Weather":"drizzle; mist","Temperature":"46 F (8 C)","Dew Point":"44 F (7 C)","Relative Humidity":"93%","Pressure (altimeter)":"30.06 in. Hg (1018 hPa)","ob":"EPGD 260400Z 25013KT 5000 DZ BR BKN007 08/07 Q1018","cycle":"4"},
{"_id":"4495a8a111ec85eb6d2389a681f07ed7","_rev":"1-832db5b813cc7975afa63df64478033a","Location":"Gdansk-Rebiechowo, Poland (EPGD) 54-23N 018-28E 138M","Date":"Dec 16, 2011 - 07:00 PM EST / 2011.12.17 0000 UTC","Wind":"from the SE (140 degrees) at 12 MPH (10 KT) (direction variable):0","Visibility":"2 mile(s):0","Sky conditions":"mostly cloudy","Weather":"mist","Temperature":"37 F (3 C)","Dew Point":"35 F (2 C)","Relative Humidity":"93%","Pressure (altimeter)":"28.67 in. Hg (0971 hPa)","ob":"EPGD 170000Z 14010KT 110V170 4000 BR BKN002 03/02 Q0971 R11/290064","cycle":"0"},
{"_id":"4495a8a111ec85eb6d2389a681f086f9","_rev":"1-41622706ecc246cbbf57c4ccc7af31f7","Location":"Gdansk-Rebiechowo, Poland (EPGD) 54-23N 018-28E 138M","Date":"Feb 02, 2012 - 03:00 AM EST / 2012.02.02 0800 UTC","Wind":"Calm:0","Visibility":"1 mile(s):0","Sky conditions":"mostly cloudy","Weather":"light snow; mist","Temperature":"1 F (-17 C)","Dew Point":"-2 F (-19 C)","Relative Humidity":"84%","Pressure (altimeter)":"30.59 in. Hg (1036 hPa)","ob":"EPGD 020800Z 00000KT 2000 -SN BR SCT005 BKN011 M17/M19 Q1036 R11/490140","cycle":"8"},
{"_id":"4495a8a111ec85eb6d2389a681f09456","_rev":"1-294efe8fca9432f54076d6bc358ae415","Location":"Gdansk-Rebiechowo, Poland (EPGD) 54-23N 018-28E 138M","Date":"Jan 24, 2012 - 04:00 PM EST / 2012.01.24 2100 UTC","Wind":"from the WNW (290 degrees) at 6 MPH (5 KT):0","Visibility":"4 mile(s):0","Sky conditions":"mostly cloudy","Weather":"light snow showers","Temperature":"30 F (-1 C)","Windchill":"23 F (-5 C):1","Dew Point":"30 F (-1 C)","Relative Humidity":"100%","Pressure (altimeter)":"30.09 in. Hg (1019 hPa)","ob":"EPGD 242100Z 29005KT 7000 -SHSN SCT005 BKN014 M01/M01 Q1019 R11/290095","cycle":"21"},
{"_id":"4495a8a111ec85eb6d2389a681f09f5b","_rev":"1-6971ac1b73f38f9443dbaa81bb797d0a","Location":"Gdansk-Rebiechowo, Poland (EPGD) 54-23N 018-28E 138M","Date":"Jan 09, 2012 - 11:00 AM EST / 2012.01.09 1600 UTC","Wind":"from the W (280 degrees) at 13 MPH (11 KT):0","Visibility":"greater than 7 mile(s):0","Sky conditions":"mostly cloudy","Temperature":"30 F (-1 C)","Windchill":"19 F (-7 C):1","Dew Point":"23 F (-5 C)","Relative Humidity":"74%","Pressure (altimeter)":"30.12 in. Hg (1020 hPa)","ob":"EPGD 091600Z 28011KT 9999 BKN021 M01/M05 Q1020 R11/290095","cycle":"16"},
{"_id":"4495a8a111ec85eb6d2389a681f0a8b1","_rev":"1-266bd9dd10a871d39364d6a6eadd1677","Location":"Gdansk-Rebiechowo, Poland (EPGD) 54-23N 018-28E 138M","Date":"Feb 02, 2012 - 05:00 AM EST / 2012.02.02 1000 UTC","Wind":"from the ESE (120 degrees) at 7 MPH (6 KT):0","Visibility":"greater than 7 mile(s):0","Temperature":"3 F (-16 C)","Windchill":"-9 F (-23 C):2","Dew Point":"-5 F (-21 C)","Relative Humidity":"65%","Pressure (altimeter)":"30.59 in. Hg (1036 hPa)","ob":"EPGD 021000Z 12006KT CAVOK M16/M21 Q1036 R11/490140","cycle":"10"},
{"_id":"4495a8a111ec85eb6d2389a681f0aea0","_rev":"1-b18e6e4288073ee947568c3ad594d617","Location":"Gdansk-Rebiechowo, Poland (EPGD) 54-23N 018-28E 138M","Date":"Jan 26, 2012 - 05:00 PM EST / 2012.01.26 2200 UTC","Wind":"from the ESE (110 degrees) at 9 MPH (8 KT):0","Visibility":"3 mile(s):0","Weather":"mist","Temperature":"17 F (-8 C)","Windchill":"5 F (-15 C):1","Dew Point":"14 F (-10 C)","Relative Humidity":"85%","Pressure (altimeter)":"30.45 in. Hg (1031 hPa)","ob":"EPGD 262200Z 11008KT 5000 BR NSC M08/M10 Q1031","cycle":"22"},
{"_id":"4495a8a111ec85eb6d2389a681f0af3c","_rev":"1-b12e96277774d575f250b3fe9a7cdcce","Location":"Gdansk-Rebiechowo, Poland (EPGD) 54-23N 018-28E 138M","Date":"Feb 10, 2012 - 05:00 AM EST / 2012.02.10 1000 UTC","Wind":"from the ESE (110 degrees) at 5 MPH (4 KT):0","Visibility":"3 mile(s):0","Sky conditions":"mostly cloudy","Temperature":"15 F (-9 C)","Windchill":"6 F (-14 C):1","Dew Point":"10 F (-12 C)","Relative Humidity":"78%","Pressure (altimeter)":"30.71 in. Hg (1040 hPa)","ob":"EPGD 101000Z 11004KT 6000 BKN014 M09/M12 Q1040 R11/090095","cycle":"10"},
{"_id":"4495a8a111ec85eb6d2389a681f0b499","_rev":"1-4b8e642e4228c83e32197bf984642a39","Location":"Gdansk-Rebiechowo, Poland (EPGD) 54-23N 018-28E 138M","Date":"Dec 13, 2011 - 05:00 PM EST / 2011.12.13 2200 UTC","Wind":"from the SSW (200 degrees) at 10 MPH (9 KT) (direction variable):0","Visibility":"greater than 7 mile(s):0","Sky conditions":"partly cloudy","Temperature":"39 F (4 C)","Dew Point":"35 F (2 C)","Relative Humidity":"86%","Pressure (altimeter)":"29.50 in. Hg (0999 hPa)","ob":"EPGD 132200Z 20009KT 170V230 9999 SCT011 04/02 Q0999","cycle":"22"},
{"_id":"4495a8a111ec85eb6d2389a681f0bb62","_rev":"1-282bf0e1a7466a06b6f3a37aba414273","Location":"Gdansk-Rebiechowo, Poland (EPGD) 54-23N 018-28E 138M","Date":"Jan 14, 2012 - 09:00 AM EST / 2012.01.14 1400 UTC","Wind":"from the NW (320 degrees) at 21 MPH (18 KT):0","Visibility":"2 mile(s):0","Sky conditions":"mostly cloudy","Weather":"light snow showers; Towering cumulus clouds observed","Temperature":"32 F (0 C)","Windchill":"19 F (-7 C):1","Dew Point":"26 F (-3 C)","Relative Humidity":"80%","Pressure (altimeter)":"29.83 in. Hg (1010 hPa)","ob":"EPGD 141400Z 32018KT 4000 -SHSN FEW006 FEW019TCU BKN025 M00/M03 Q1010 R11/620163","cycle":"14"},
{"_id":"4495a8a111ec85eb6d2389a681f0c7c2","_rev":"1-87ee0d19a3cf080972bf54b55c88b4d3","Location":"Gdansk-Rebiechowo, Poland (EPGD) 54-23N 018-28E 138M","Date":"Jan 27, 2012 - 06:00 PM EST / 2012.01.27 2300 UTC","Wind":"from the ESE (120 degrees) at 8 MPH (7 KT):0","Visibility":"greater than 7 mile(s):0","Temperature":"8 F (-13 C)","Windchill":"-4 F (-20 C):1","Dew Point":"5 F (-15 C)","Relative Humidity":"84%","Pressure (altimeter)":"30.53 in. Hg (1034 hPa)","ob":"EPGD 272300Z 12007KT CAVOK M13/M15 Q1034 R11/190095","cycle":"23"},
{"_id":"4495a8a111ec85eb6d2389a681f0cf7a","_rev":"1-21c5d6cab657b08b5c7e5188e642533f","Location":"Gdansk-Rebiechowo, Poland (EPGD) 54-23N 018-28E 138M","Date":"Jan 16, 2012 - 10:00 AM EST / 2012.01.16 1500 UTC","Wind":"from the W (280 degrees) at 5 MPH (4 KT):0","Visibility":"greater than 7 mile(s):0","Temperature":"26 F (-3 C)","Windchill":"19 F (-7 C):1","Dew Point":"23 F (-5 C)","Relative Humidity":"86%","Pressure (altimeter)":"30.12 in. Hg (1020 hPa)","ob":"EPGD 161500Z 28004KT CAVOK M03/M05 Q1020 R11/290095","cycle":"15"},
{"_id":"4495a8a111ec85eb6d2389a681f0d959","_rev":"1-f54e4e72866c0d3f7f140783f7a8bd3e","Location":"Gdansk-Rebiechowo, Poland (EPGD) 54-23N 018-28E 138M","Date":"Jan 03, 2012 - 03:00 PM EST / 2012.01.03 2000 UTC","Wind":"from the S (190 degrees) at 17 MPH (15 KT) gusting to 31 MPH (27 KT) (direction variable):0","Visibility":"4 mile(s):0","Sky conditions":"mostly cloudy","Weather":"rain","Temperature":"37 F (3 C)","Dew Point":"33 F (1 C)","Relative Humidity":"86%","Pressure (altimeter)":"29.50 in. Hg (0999 hPa)","ob":"EPGD 032000Z 19015G27KT 160V230 8000 RA FEW005 BKN013 03/01 Q0999","cycle":"20"},
{"_id":"4495a8a111ec85eb6d2389a681f0da8d","_rev":"1-ffe308f293e1041e0afa06aff3e3d84e","Location":"Gdansk-Rebiechowo, Poland (EPGD) 54-23N 018-28E 138M","Date":"Dec 23, 2011 - 07:00 AM EST / 2011.12.23 1200 UTC","Wind":"from the SSW (200 degrees) at 3 MPH (3 KT) (direction variable):0","Visibility":"1 mile(s):0","Sky conditions":"overcast","Weather":"mist","Temperature":"33 F (1 C)","Dew Point":"32 F (0 C)","Relative Humidity":"93%","Pressure (altimeter)":"30.00 in. Hg (1016 hPa)","ob":"EPGD 231200Z 20003KT 080V250 3000 BR OVC004 01/M00 Q1016","cycle":"12"},
{"_id":"4495a8a111ec85eb6d2389a681f0e79d","_rev":"1-9a32a89b28237c0927822451f3b19d1d","Location":"Gdansk-Rebiechowo, Poland (EPGD) 54-23N 018-28E 138M","Date":"Feb 12, 2012 - 09:00 AM EST / 2012.02.12 1400 UTC","Wind":"from the SW (220 degrees) at 8 MPH (7 KT) (direction variable):0","Visibility":"1 mile(s):0","Sky conditions":"mostly cloudy","Weather":"light snow","Temperature":"19 F (-7 C)","Windchill":"8 F (-13 C):1","Dew Point":"15 F (-9 C)","Relative Humidity":"85%","Pressure (altimeter)":"30.18 in. Hg (1022 hPa)","ob":"EPGD 121400Z 22007KT 190V250 3000 -SN SCT009 BKN017 M07/M09 Q1022 R11/450195","cycle":"14"},
{"_id":"4495a8a111ec85eb6d2389a681f0f689","_rev":"1-9fccb66bc6ae7be83d4ee1b8b2520dd8","Location":"Gdansk-Rebiechowo, Poland (EPGD) 54-23N 018-28E 138M","Date":"Jan 11, 2012 - 04:00 PM EST / 2012.01.11 2100 UTC","Wind":"from the W (280 degrees) at 16 MPH (14 KT) gusting to 30 MPH (26 KT):0","Visibility":"greater than 7 mile(s):0","Sky conditions":"mostly cloudy","Temperature":"39 F (4 C)","Dew Point":"33 F (1 C)","Relative Humidity":"80%","Pressure (altimeter)":"30.09 in. Hg (1019 hPa)","ob":"EPGD 112100Z 28014G26KT 9999 BKN015 04/01 Q1019 R11/290095","cycle":"21"},
{"_id":"4495a8a111ec85eb6d2389a681f100f9","_rev":"1-0cbf38936f0c042a91e6f4ca288a2a5b","Location":"Gdansk-Rebiechowo, Poland (EPGD) 54-23N 018-28E 138M","Date":"Feb 11, 2012 - 08:00 AM EST / 2012.02.11 1300 UTC","Wind":"from the W (260 degrees) at 5 MPH (4 KT):0","Visibility":"1 mile(s):0","Sky conditions":"mostly cloudy","Weather":"light snow; mist","Temperature":"21 F (-6 C)","Windchill":"14 F (-10 C):1","Dew Point":"15 F (-9 C)","Relative Humidity":"79%","Pressure (altimeter)":"30.56 in. Hg (1035 hPa)","ob":"EPGD 111300Z 26004KT 3000 -SN BR FEW011 BKN017 M06/M09 Q1035 R11/490154","cycle":"13"},
{"_id":"4495a8a111ec85eb6d2389a681f101f8","_rev":"1-4d0f71d268cc6f5a42f13129bab32e37","Location":"Gdansk-Rebiechowo, Poland (EPGD) 54-23N 018-28E 138M","Date":"Jan 24, 2012 - 03:00 PM EST / 2012.01.24 2000 UTC","Wind":"from the W (280 degrees) at 8 MPH (7 KT):0","Visibility":"3 mile(s):0","Sky conditions":"mostly cloudy","Weather":"light snow showers; Towering cumulus clouds observed","Temperature":"30 F (-1 C)","Windchill":"23 F (-5 C):1","Dew Point":"30 F (-1 C)","Relative Humidity":"100%","Pressure (altimeter)":"30.09 in. Hg (1019 hPa)","ob":"EPGD 242000Z 28007KT 6000 -SHSN SCT006 BKN025TCU M01/M01 Q1019 RESN R11/290095","cycle":"20"},
{"_id":"4495a8a111ec85eb6d2389a681f10d44","_rev":"1-e493719fe7942c345326aa9c787acc92","Location":"Gdansk-Rebiechowo, Poland (EPGD) 54-23N 018-28E 138M","Date":"Feb 15, 2012 - 08:00 AM EST / 2012.02.15 1300 UTC","Wind":"from the N (010 degrees) at 9 MPH (8 KT) (direction variable):0","Visibility":"less than 1 mile:0","Sky conditions":"mostly cloudy","Weather":"snow; mist","Temperature":"26 F (-3 C)","Windchill":"17 F (-8 C):1","Dew Point":"24 F (-4 C)","Relative Humidity":"92%","Pressure (altimeter)":"29.12 in. Hg (0986 hPa)","ob":"EPGD 151300Z 01008KT 330V050 1600 R29/1400V1500 SN BR SCT005 BKN007 M03/M04 Q0986 R11/490157","cycle":"13"},
{"_id":"4495a8a111ec85eb6d2389a681f111e0","_rev":"1-5226e36ae72dc640d0312e425fcfba54","Location":"Gdansk-Rebiechowo, Poland (EPGD) 54-23N 018-28E 138M","Date":"Dec 19, 2011 - 03:00 PM EST / 2011.12.19 2000 UTC","Wind":"from the WSW (240 degrees) at 13 MPH (11 KT) (direction variable):0","Visibility":"greater than 7 mile(s):0","Sky conditions":"mostly cloudy","Temperature":"35 F (2 C)","Windchill":"26 F (-3 C):1","Dew Point":"30 F (-1 C)","Relative Humidity":"80%","Pressure (altimeter)":"29.88 in. Hg (1012 hPa)","ob":"EPGD 192000Z 24011KT 190V270 9999 BKN017 02/M01 Q1012 R11/290095","cycle":"20"},
{"_id":"4495a8a111ec85eb6d2389a681f11500","_rev":"1-cd353623c833d218fadb3f46be85ee06","Location":"Gdansk-Rebiechowo, Poland (EPGD) 54-23N 018-28E 138M","Date":"Jan 27, 2012 - 12:00 PM EST / 2012.01.27 1700 UTC","Wind":"from the ESE (120 degrees) at 8 MPH (7 KT):0","Visibility":"greater than 7 mile(s):0","Temperature":"10 F (-12 C)","Windchill":"-2 F (-19 C):1","Dew Point":"5 F (-15 C)","Relative Humidity":"78%","Pressure (altimeter)":"30.50 in. Hg (1033 hPa)","ob":"EPGD 271700Z 12007KT CAVOK M12/M15 Q1033 R11/190095","cycle":"17"},
{"_id":"4495a8a111ec85eb6d2389a681f1191d","_rev":"1-1ddb0aafd3b152808e7eb76efea01a4b","Location":"Gdansk-Rebiechowo, Poland (EPGD) 54-23N 018-28E 138M","Date":"Dec 31, 2011 - 09:00 AM EST / 2011.12.31 1400 UTC","Wind":"from the W (270 degrees) at 6 MPH (5 KT):0","Visibility":"greater than 7 mile(s):0","Temperature":"35 F (2 C)","Windchill":"30 F (-1 C):1","Dew Point":"30 F (-1 C)","Relative Humidity":"80%","Pressure (altimeter)":"29.83 in. Hg (1010 hPa)","ob":"EPGD 311400Z 27005KT CAVOK 02/M01 Q1010","cycle":"14"},
{"_id":"4495a8a111ec85eb6d2389a681f1267f","_rev":"1-a42f3a12e4a140d5c969a06324ee1c90","Location":"Gdansk-Rebiechowo, Poland (EPGD) 54-23N 018-28E 138M","Date":"Feb 06, 2012 - 03:00 PM EST / 2012.02.06 2000 UTC","Wind":"from the ESE (120 degrees) at 6 MPH (5 KT):0","Visibility":"3 mile(s):0","Sky conditions":"mostly cloudy","Weather":"light snow","Temperature":"8 F (-13 C)","Windchill":"-2 F (-19 C):1","Dew Point":"3 F (-16 C)","Relative Humidity":"78%","Pressure (altimeter)":"30.62 in. Hg (1037 hPa)","ob":"EPGD 062000Z 12005KT 6000 -SN BKN005 M13/M16 Q1037 R11/490152","cycle":"20"},
{"_id":"4495a8a111ec85eb6d2389a681f130b2","_rev":"1-75d788fad31a4f75e9e35cbbd90e8df5","Location":"Gdansk-Rebiechowo, Poland (EPGD) 54-23N 018-28E 138M","Date":"Jan 16, 2012 - 05:00 AM EST / 2012.01.16 1000 UTC","Wind":"from the NW (320 degrees) at 8 MPH (7 KT):0","Visibility":"greater than 7 mile(s):0","Sky conditions":"mostly cloudy","Temperature":"30 F (-1 C)","Windchill":"23 F (-5 C):1","Dew Point":"24 F (-4 C)","Relative Humidity":"80%","Pressure (altimeter)":"30.15 in. Hg (1021 hPa)","ob":"EPGD 161000Z 32007KT 9999 FEW011 BKN038 M01/M04 Q1021 R11/590345","cycle":"10"},
{"_id":"4495a8a111ec85eb6d2389a681f1334a","_rev":"1-96458574c084c23ba1e69e8da9e3e1f3","Location":"Gdansk-Rebiechowo, Poland (EPGD) 54-23N 018-28E 138M","Date":"Feb 13, 2012 - 03:00 PM EST / 2012.02.13 2000 UTC","Wind":"from the W (260 degrees) at 5 MPH (4 KT):0","Visibility":"4 mile(s):0","Sky conditions":"mostly cloudy","Weather":"light snow","Temperature":"28 F (-2 C)","Windchill":"23 F (-5 C):1","Dew Point":"26 F (-3 C)","Relative Humidity":"92%","Pressure (altimeter)":"29.97 in. Hg (1015 hPa)","ob":"EPGD 132000Z 26004KT 7000 -SN FEW007 BKN025 M02/M03 Q1015 R11/190095","cycle":"20"},
{"_id":"4495a8a111ec85eb6d2389a681f13515","_rev":"1-9dea4a890ab04105b36ff0fec372ea7c","Location":"Gdansk-Rebiechowo, Poland (EPGD) 54-23N 018-28E 138M","Date":"Jan 08, 2012 - 10:00 AM EST / 2012.01.08 1500 UTC","Wind":"from the WNW (300 degrees) at 10 MPH (9 KT):0","Visibility":"greater than 7 mile(s):0","Sky conditions":"mostly cloudy","Temperature":"39 F (4 C)","Dew Point":"35 F (2 C)","Relative Humidity":"86%","Pressure (altimeter)":"29.77 in. Hg (1008 hPa)","ob":"EPGD 081500Z 30009KT 9999 BKN018 04/02 Q1008","cycle":"15"},
{"_id":"4495a8a111ec85eb6d2389a681f135fd","_rev":"1-487882b7071bb2f8ecaa6a4bf645fe2d","Location":"Gdansk-Rebiechowo, Poland (EPGD) 54-23N 018-28E 138M","Date":"Jan 23, 2012 - 09:00 PM EST / 2012.01.24 0200 UTC","Wind":"from the NW (310 degrees) at 5 MPH (4 KT):0","Visibility":"greater than 7 mile(s):0","Sky conditions":"mostly cloudy","Weather":"light snow showers","Temperature":"32 F (0 C)","Windchill":"26 F (-3 C):1","Dew Point":"32 F (0 C)","Relative Humidity":"100%","Pressure (altimeter)":"29.80 in. Hg (1009 hPa)","ob":"EPGD 240200Z 31004KT 9999 -SHSN FEW007 BKN022 00/M00 Q1009","cycle":"2"},
{"_id":"4495a8a111ec85eb6d2389a681f13690","_rev":"1-291dc8badcce0c4e24e93b4313022c41","Location":"Gdansk-Rebiechowo, Poland (EPGD) 54-23N 018-28E 138M","Date":"Dec 26, 2011 - 12:00 AM EST / 2011.12.26 0500 UTC","Wind":"from the WSW (250 degrees) at 14 MPH (12 KT):0","Visibility":"3 mile(s):0","Sky conditions":"mostly cloudy","Weather":"light drizzle; mist","Temperature":"46 F (8 C)","Dew Point":"44 F (7 C)","Relative Humidity":"93%","Pressure (altimeter)":"30.06 in. Hg (1018 hPa)","ob":"EPGD 260500Z 25012KT 5000 -DZ BR BKN006 08/07 Q1018","cycle":"5"},
{"_id":"4495a8a111ec85eb6d2389a681f137f3","_rev":"1-9729c35f091d6e850e1c1e551aa76670","Location":"Gdansk-Rebiechowo, Poland (EPGD) 54-23N 018-28E 138M","Date":"Jan 01, 2012 - 09:00 AM EST / 2012.01.01 1400 UTC","Wind":"from the S (170 degrees) at 6 MPH (5 KT) (direction variable):0","Visibility":"2 mile(s):0","Sky conditions":"mostly cloudy","Weather":"light rain; mist","Temperature":"33 F (1 C)","Windchill":"26 F (-3 C):1","Dew Point":"32 F (0 C)","Relative Humidity":"93%","Pressure (altimeter)":"29.77 in. Hg (1008 hPa)","ob":"EPGD 011400Z 17005KT 120V210 4000 -RA BR BKN005 01/M00 Q1008","cycle":"14"},
{"_id":"4495a8a111ec85eb6d2389a681f13d5b","_rev":"1-9f3452b8ec1b1915c435da7dc05188a0","Location":"Gdansk-Rebiechowo, Poland (EPGD) 54-23N 018-28E 138M","Date":"Feb 13, 2012 - 12:00 PM EST / 2012.02.13 1700 UTC","Wind":"Variable at 2 MPH (2 KT):0","Visibility":"greater than 7 mile(s):0","Sky conditions":"mostly cloudy","Temperature":"30 F (-1 C)","Dew Point":"24 F (-4 C)","Relative Humidity":"80%","Pressure (altimeter)":"29.97 in. Hg (1015 hPa)","ob":"EPGD 131700Z VRB02KT 9999 BKN030 M01/M04 Q1015 R11/190095","cycle":"17"},
{"_id":"4495a8a111ec85eb6d2389a681f1486f","_rev":"1-4c7260fd24a5819d0fd16fc3b5e23c5e","Location":"Gdansk-Rebiechowo, Poland (EPGD) 54-23N 018-28E 138M","Date":"Dec 24, 2011 - 09:00 PM EST / 2011.12.25 0200 UTC","Wind":"from the W (280 degrees) at 14 MPH (12 KT):0","Visibility":"greater than 7 mile(s):0","Sky conditions":"mostly cloudy","Temperature":"35 F (2 C)","Windchill":"26 F (-3 C):1","Dew Point":"33 F (1 C)","Relative Humidity":"93%","Pressure (altimeter)":"30.06 in. Hg (1018 hPa)","ob":"EPGD 250200Z 28012KT 9999 BKN011 02/01 Q1018","cycle":"2"},
{"_id":"4495a8a111ec85eb6d2389a681f154b6","_rev":"1-e7609b0038085fc61324295a396d25bc","Location":"Gdansk-Rebiechowo, Poland (EPGD) 54-23N 018-28E 138M","Date":"Jan 03, 2012 - 11:00 PM EST / 2012.01.04 0400 UTC","Wind":"from the SW (230 degrees) at 15 MPH (13 KT) gusting to 28 MPH (24 KT) (direction variable):0","Visibility":"greater than 7 mile(s):0","Sky conditions":"mostly clear","Temperature":"42 F (6 C)","Dew Point":"35 F (2 C)","Relative Humidity":"75%","Pressure (altimeter)":"29.38 in. Hg (0995 hPa)","ob":"EPGD 040400Z 23013G24KT 190V260 9999 FEW023 06/02 Q0995","cycle":"4"},
{"_id":"4495a8a111ec85eb6d2389a681f15ca4","_rev":"1-98169709f7a106e49adeae637bc40e4c","Location":"Gdansk-Rebiechowo, Poland (EPGD) 54-23N 018-28E 138M","Date":"Jan 06, 2012 - 12:00 PM EST / 2012.01.06 1700 UTC","Wind":"from the WNW (300 degrees) at 16 MPH (14 KT):0","Visibility":"greater than 7 mile(s):0","Sky conditions":"mostly cloudy","Temperature":"32 F (0 C)","Windchill":"21 F (-6 C):1","Dew Point":"28 F (-2 C)","Relative Humidity":"86%","Pressure (altimeter)":"29.68 in. Hg (1005 hPa)","ob":"EPGD 061700Z 30014KT 9999 FEW009 BKN021 00/M02 Q1005","cycle":"17"},
{"_id":"4495a8a111ec85eb6d2389a681f15d60","_rev":"1-f01dd54bedb8c3c6357be241dc7e6f4c","Location":"Gdansk-Rebiechowo, Poland (EPGD) 54-23N 018-28E 138M","Date":"Jan 25, 2012 - 08:00 PM EST / 2012.01.26 0100 UTC","Wind":"from the ENE (060 degrees) at 6 MPH (5 KT):0","Visibility":"greater than 7 mile(s):0","Sky conditions":"mostly cloudy","Temperature":"28 F (-2 C)","Windchill":"21 F (-6 C):1","Dew Point":"26 F (-3 C)","Relative Humidity":"92%","Pressure (altimeter)":"30.30 in. Hg (1026 hPa)","ob":"EPGD 260100Z 06005KT 9999 BKN008 M02/M03 Q1026 R11/290095","cycle":"1"},
{"_id":"4495a8a111ec85eb6d2389a681f16127","_rev":"1-e155338a317fb8e711cd9e421b80de07","Location":"Gdansk-Rebiechowo, Poland (EPGD) 54-23N 018-28E 138M","Date":"Feb 01, 2012 - 02:00 PM EST / 2012.02.01 1900 UTC","Wind":"from the SE (140 degrees) at 5 MPH (4 KT) (direction variable):0","Visibility":"greater than 7 mile(s):0","Sky conditions":"mostly cloudy","Temperature":"10 F (-12 C)","Windchill":"1 F (-17 C):1","Dew Point":"3 F (-16 C)","Relative Humidity":"72%","Pressure (altimeter)":"30.68 in. Hg (1039 hPa)","ob":"EPGD 011900Z 14004KT 100V170 9999 BKN016 M12/M16 Q1039 R11/190095","cycle":"19"},
{"_id":"4495a8a111ec85eb6d2389a681f16f69","_rev":"1-f3ff7f53fa2082f81910eba9075b20cb","Location":"Gdansk-Rebiechowo, Poland (EPGD) 54-23N 018-28E 138M","Date":"Feb 09, 2012 - 03:00 PM EST / 2012.02.09 2000 UTC","Wind":"from the SE (140 degrees) at 3 MPH (3 KT) (direction variable):0","Visibility":"4 mile(s):0","Sky conditions":"mostly cloudy","Weather":"light snow","Temperature":"15 F (-9 C)","Dew Point":"10 F (-12 C)","Relative Humidity":"78%","Pressure (altimeter)":"30.68 in. Hg (1039 hPa)","ob":"EPGD 092000Z 14003KT 100V180 8000 -SN FEW009 BKN015 M09/M12 Q1039 R11/090095","cycle":"20"},
{"_id":"4495a8a111ec85eb6d2389a681f17035","_rev":"1-c97fdf3b372eb7ac6250a41935af7b33","Location":"Gdansk-Rebiechowo, Poland (EPGD) 54-23N 018-28E 138M","Date":"Dec 17, 2011 - 02:00 PM EST / 2011.12.17 1900 UTC","Wind":"from the W (280 degrees) at 15 MPH (13 KT):0","Visibility":"greater than 7 mile(s):0","Sky conditions":"mostly cloudy","Weather":"light rain","Temperature":"37 F (3 C)","Dew Point":"33 F (1 C)","Relative Humidity":"86%","Pressure (altimeter)":"29.09 in. Hg (0985 hPa)","ob":"EPGD 171900Z 28013KT 9999 -RA FEW008 BKN011 03/01 Q0985 R11/290064","cycle":"19"},
{"_id":"4495a8a111ec85eb6d2389a681f174b5","_rev":"1-cccdff99fc5379901c58a4b7454c346c","Location":"Gdansk-Rebiechowo, Poland (EPGD) 54-23N 018-28E 138M","Date":"Feb 17, 2012 - 06:00 AM EST / 2012.02.17 1100 UTC","Wind":"from the W (280 degrees) at 15 MPH (13 KT):0","Visibility":"3 mile(s):0","Sky conditions":"overcast","Weather":"mist","Temperature":"35 F (2 C)","Windchill":"24 F (-4 C):1","Dew Point":"33 F (1 C)","Relative Humidity":"93%","Pressure (altimeter)":"29.68 in. Hg (1005 hPa)","ob":"EPGD 171100Z 28013KT 5000 BR OVC004 02/01 Q1005 R11/290095","cycle":"11"},
{"_id":"4495a8a111ec85eb6d2389a681f183e9","_rev":"1-f345c7ecc9ac2fdc686566cc6c6b6933","Location":"Gdansk-Rebiechowo, Poland (EPGD) 54-23N 018-28E 138M","Date":"Jan 28, 2012 - 04:00 PM EST / 2012.01.28 2100 UTC","Wind":"from the ESE (120 degrees) at 7 MPH (6 KT):0","Visibility":"greater than 7 mile(s):0","Temperature":"10 F (-12 C)","Windchill":"0 F (-18 C):1","Dew Point":"5 F (-15 C)","Relative Humidity":"78%","Pressure (altimeter)":"30.62 in. Hg (1037 hPa)","ob":"EPGD 282100Z 12006KT CAVOK M12/M15 Q1037 R11/190095","cycle":"21"},
{"_id":"4495a8a111ec85eb6d2389a681f1859f","_rev":"1-6083d8a56cacc873747f2a0c4efe640e","Location":"Gdansk-Rebiechowo, Poland (EPGD) 54-23N 018-28E 138M","Date":"Jan 31, 2012 - 01:00 AM EST / 2012.01.31 0600 UTC","Wind":"Calm:0","Visibility":"greater than 7 mile(s):0","Temperature":"0 F (-18 C)","Dew Point":"-4 F (-20 C)","Relative Humidity":"84%","Pressure (altimeter)":"30.71 in. Hg (1040 hPa)","ob":"EPGD 310600Z 00000KT CAVOK M18/M20 Q1040","cycle":"6"},
{"_id":"4495a8a111ec85eb6d2389a681f18fcf","_rev":"1-9afe287ce435fef65be8a440fa025235","Location":"Gdansk-Rebiechowo, Poland (EPGD) 54-23N 018-28E 138M","Date":"Jan 04, 2012 - 09:00 PM EST / 2012.01.05 0200 UTC","Wind":"from the SSW (210 degrees) at 15 MPH (13 KT) gusting to 26 MPH (23 KT) (direction variable):0","Visibility":"greater than 7 mile(s):0","Sky conditions":"mostly cloudy","Temperature":"39 F (4 C)","Dew Point":"32 F (0 C)","Relative Humidity":"75%","Pressure (altimeter)":"29.26 in. Hg (0991 hPa)","ob":"EPGD 050200Z 21013G23KT 180V270 9999 BKN017 04/00 Q0991","cycle":"2"},
{"_id":"4495a8a111ec85eb6d2389a681f19f63","_rev":"1-1f1a364fa1f98d58744cd05da198c746","Location":"Gdansk-Rebiechowo, Poland (EPGD) 54-23N 018-28E 138M","Date":"Jan 30, 2012 - 04:00 PM EST / 2012.01.30 2100 UTC","Wind":"from the E (100 degrees) at 8 MPH (7 KT):0","Visibility":"greater than 7 mile(s):0","Temperature":"6 F (-14 C)","Windchill":"-7 F (-22 C):2","Dew Point":"0 F (-18 C)","Relative Humidity":"71%","Pressure (altimeter)":"30.77 in. Hg (1042 hPa)","ob":"EPGD 302100Z 10007KT CAVOK M14/M18 Q1042","cycle":"21"},
{"_id":"4495a8a111ec85eb6d2389a681f1adf2","_rev":"1-2e93689f1950019139071a3e3ef22c0e","Location":"Gdansk-Rebiechowo, Poland (EPGD) 54-23N 018-28E 138M","Date":"Feb 02, 2012 - 08:00 AM EST / 2012.02.02 1300 UTC","Wind":"Calm:0","Visibility":"greater than 7 mile(s):0","Temperature":"6 F (-14 C)","Dew Point":"-4 F (-20 C)","Relative Humidity":"60%","Pressure (altimeter)":"30.56 in. Hg (1035 hPa)","ob":"EPGD 021300Z 00000KT CAVOK M14/M20 Q1035 R11/490140","cycle":"13"},
{"_id":"4495a8a111ec85eb6d2389a681f1bca8","_rev":"1-3efdc1817fef9f68a7bc5028420c3707","Location":"Gdansk-Rebiechowo, Poland (EPGD) 54-23N 018-28E 138M","Date":"Dec 19, 2011 - 04:00 AM EST / 2011.12.19 0900 UTC","Wind":"from the SW (230 degrees) at 16 MPH (14 KT) gusting to 30 MPH (26 KT) (direction variable):0","Visibility":"greater than 7 mile(s):0","Sky conditions":"mostly cloudy","Temperature":"35 F (2 C)","Windchill":"24 F (-4 C):1","Dew Point":"30 F (-1 C)","Relative Humidity":"80%","Pressure (altimeter)":"29.71 in. Hg (1006 hPa)","ob":"EPGD 190900Z 23014G26KT 170V260 9999 SCT017 BKN042 02/M01 Q1006 R11/290062","cycle":"9"},
{"_id":"4495a8a111ec85eb6d2389a681f1bd7e","_rev":"1-ea46230ec5fb656c86bb2c6236a56b7f","Location":"Gdansk-Rebiechowo, Poland (EPGD) 54-23N 018-28E 138M","Date":"Jan 17, 2012 - 03:00 PM EST / 2012.01.17 2000 UTC","Wind":"from the WSW (240 degrees) at 5 MPH (4 KT) (direction variable):0","Visibility":"greater than 7 mile(s):0","Sky conditions":"mostly cloudy","Temperature":"30 F (-1 C)","Windchill":"24 F (-4 C):1","Dew Point":"26 F (-3 C)","Relative Humidity":"86%","Pressure (altimeter)":"30.21 in. Hg (1023 hPa)","ob":"EPGD 172000Z 24004KT 200V270 9999 FEW017 BKN028 M01/M03 Q1023 R11/290095","cycle":"20"},
{"_id":"4495a8a111ec85eb6d2389a681f1c484","_rev":"1-8f0ac77b2e970d5e16e1782b16361eb9","Location":"Gdansk-Rebiechowo, Poland (EPGD) 54-23N 018-28E 138M","Date":"Dec 24, 2011 - 12:00 PM EST / 2011.12.24 1700 UTC","Wind":"from the W (260 degrees) at 7 MPH (6 KT):0","Visibility":"3 mile(s):0","Sky conditions":"mostly cloudy","Temperature":"41 F (5 C)","Dew Point":"39 F (4 C)","Relative Humidity":"93%","Pressure (altimeter)":"29.80 in. Hg (1009 hPa)","ob":"EPGD 241700Z 26006KT 6000 SCT005 BKN020 05/04 Q1009","cycle":"17"},
{"_id":"4495a8a111ec85eb6d2389a681f1cfe3","_rev":"1-eb00d5cd379cf592a69cb3d92a595f17","Location":"Gdansk-Rebiechowo, Poland (EPGD) 54-23N 018-28E 138M","Date":"Jan 23, 2012 - 05:00 PM EST / 2012.01.23 2200 UTC","Wind":"from the NW (310 degrees) at 6 MPH (5 KT):0","Visibility":"less than 1 mile:0","Sky conditions":"mostly cloudy","Weather":"snow showers; Cumulonimbus clouds observed","Temperature":"32 F (0 C)","Windchill":"26 F (-3 C):1","Dew Point":"32 F (0 C)","Relative Humidity":"100%","Pressure (altimeter)":"29.74 in. Hg (1007 hPa)","ob":"EPGD 232200Z 31005KT 1600 SHSN BKN004 BKN010CB 00/M00 Q1007","cycle":"22"},
{"_id":"4495a8a111ec85eb6d2389a681f1d4ea","_rev":"1-970e43ca7acdc80d2be285818988d59a","Location":"Gdansk-Rebiechowo, Poland (EPGD) 54-23N 018-28E 138M","Date":"Dec 29, 2011 - 06:00 PM EST / 2011.12.29 2300 UTC","Wind":"from the SW (230 degrees) at 13 MPH (11 KT) gusting to 24 MPH (21 KT) (direction variable):0","Visibility":"greater than 7 mile(s):0","Sky conditions":"mostly cloudy","Temperature":"37 F (3 C)","Dew Point":"30 F (-1 C)","Relative Humidity":"74%","Pressure (altimeter)":"29.56 in. Hg (1001 hPa)","ob":"EPGD 292300Z 23011G21KT 180V260 9999 FEW021 BKN036 03/M01 Q1001","cycle":"23"},
{"_id":"4495a8a111ec85eb6d2389a681f1e119","_rev":"1-195f16c0aab4263fa5d28f3370752364","Location":"Gdansk-Rebiechowo, Poland (EPGD) 54-23N 018-28E 138M","Date":"Jan 21, 2012 - 10:00 AM EST / 2012.01.21 1500 UTC","Wind":"from the SSE (160 degrees) at 9 MPH (8 KT) (direction variable):0","Visibility":"4 mile(s):0","Sky conditions":"mostly cloudy","Temperature":"33 F (1 C)","Windchill":"24 F (-4 C):1","Dew Point":"30 F (-1 C)","Relative Humidity":"86%","Pressure (altimeter)":"29.47 in. Hg (0998 hPa)","ob":"EPGD 211500Z 16008KT 130V220 7000 BKN006 01/M01 Q0998 R11/290095","cycle":"15"},
{"_id":"4495a8a111ec85eb6d2389a681f1e2d2","_rev":"1-92d26fb4edd38311aa66884f1cb735b3","Location":"Gdansk-Rebiechowo, Poland (EPGD) 54-23N 018-28E 138M","Date":"Jan 11, 2012 - 05:00 PM EST / 2012.01.11 2200 UTC","Wind":"from the W (270 degrees) at 14 MPH (12 KT):0","Visibility":"greater than 7 mile(s):0","Sky conditions":"mostly cloudy","Temperature":"37 F (3 C)","Dew Point":"33 F (1 C)","Relative Humidity":"86%","Pressure (altimeter)":"30.09 in. Hg (1019 hPa)","ob":"EPGD 112200Z 27012KT 9999 BKN013 03/01 Q1019 R11/290095","cycle":"22"},
{"_id":"4495a8a111ec85eb6d2389a681f1e5a1","_rev":"1-cfa868dabeef2661a1581b1e086ad6f7","Location":"Gdansk-Rebiechowo, Poland (EPGD) 54-23N 018-28E 138M","Date":"Jan 29, 2012 - 12:00 AM EST / 2012.01.29 0500 UTC","Wind":"from the ESE (120 degrees) at 12 MPH (10 KT):0","Visibility":"greater than 7 mile(s):0","Temperature":"6 F (-14 C)","Windchill":"-9 F (-23 C):2","Dew Point":"1 F (-17 C)","Relative Humidity":"77%","Pressure (altimeter)":"30.71 in. Hg (1040 hPa)","ob":"EPGD 290500Z 12010KT CAVOK M14/M17 Q1040","cycle":"5"},
{"_id":"4495a8a111ec85eb6d2389a681f1f3aa","_rev":"1-eb031332f05e980c46e64a619659474a","Location":"Gdansk-Rebiechowo, Poland (EPGD) 54-23N 018-28E 138M","Date":"Dec 22, 2011 - 09:00 PM EST / 2011.12.23 0200 UTC","Wind":"from the WSW (240 degrees) at 7 MPH (6 KT):0","Visibility":"2 mile(s):0","Sky conditions":"overcast","Weather":"mist","Temperature":"28 F (-2 C)","Windchill":"21 F (-6 C):1","Dew Point":"26 F (-3 C)","Relative Humidity":"92%","Pressure (altimeter)":"30.12 in. Hg (1020 hPa)","ob":"EPGD 230200Z 24006KT 3500 BR OVC003 M02/M03 Q1020","cycle":"2"},
{"_id":"4495a8a111ec85eb6d2389a681f1fec0","_rev":"1-6e98ab7a8ed1658a7ce9da2460fc80e1","Location":"Gdansk-Rebiechowo, Poland (EPGD) 54-23N 018-28E 138M","Date":"Jan 31, 2012 - 08:00 AM EST / 2012.01.31 1300 UTC","Wind":"from the E (100 degrees) at 7 MPH (6 KT):0","Visibility":"greater than 7 mile(s):0","Temperature":"17 F (-8 C)","Windchill":"6 F (-14 C):1","Dew Point":"1 F (-17 C)","Relative Humidity":"48%","Pressure (altimeter)":"30.71 in. Hg (1040 hPa)","ob":"EPGD 311300Z 10006KT CAVOK M08/M17 Q1040 R11/190095","cycle":"13"},
{"_id":"4495a8a111ec85eb6d2389a681f20aca","_rev":"1-aee96c82df98619cc265418f2732c0cb","Location":"Gdansk-Rebiechowo, Poland (EPGD) 54-23N 018-28E 138M","Date":"Jan 05, 2012 - 11:00 PM EST / 2012.01.06 0400 UTC","Wind":"from the NNW (340 degrees) at 3 MPH (3 KT):0","Visibility":"greater than 7 mile(s):0","Sky conditions":"mostly cloudy","Temperature":"35 F (2 C)","Dew Point":"33 F (1 C)","Relative Humidity":"93%","Pressure (altimeter)":"28.94 in. Hg (0980 hPa)","ob":"EPGD 060400Z 34003KT 9999 SCT004 BKN015 02/01 Q0980","cycle":"4"},
{"_id":"4495a8a111ec85eb6d2389a681f20fba","_rev":"1-c43ed380e08e316f1db88e45c836a126","Location":"Gdansk-Rebiechowo, Poland (EPGD) 54-23N 018-28E 138M","Date":"Jan 01, 2012 - 02:00 AM EST / 2012.01.01 0700 UTC","Wind":"from the SSE (160 degrees) at 6 MPH (5 KT) (direction variable):0","Visibility":"greater than 7 mile(s):0","Sky conditions":"mostly cloudy","Temperature":"28 F (-2 C)","Windchill":"21 F (-6 C):1","Dew Point":"24 F (-4 C)","Relative Humidity":"86%","Pressure (altimeter)":"29.88 in. Hg (1012 hPa)","ob":"EPGD 010700Z 16005KT 100V200 9999 BKN021 M02/M04 Q1012","cycle":"7"},
{"_id":"4495a8a111ec85eb6d2389a681f21c48","_rev":"1-dd04c48eb8b4671282a8993ba89f0b1f","Location":"Gdansk-Rebiechowo, Poland (EPGD) 54-23N 018-28E 138M","Date":"Dec 16, 2011 - 12:00 AM EST / 2011.12.16 0500 UTC","Wind":"from the S (190 degrees) at 6 MPH (5 KT) (direction variable):0","Visibility":"greater than 7 mile(s):0","Sky conditions":"partly cloudy","Temperature":"37 F (3 C)","Dew Point":"32 F (0 C)","Relative Humidity":"80%","Pressure (altimeter)":"29.50 in. Hg (0999 hPa)","ob":"EPGD 160500Z 19005KT 160V230 9999 FEW009 SCT015 03/00 Q0999","cycle":"5"},
{"_id":"4495a8a111ec85eb6d2389a681f22875","_rev":"1-48ba5cd7c65aa2f2a6bd9f841b6514ca","Location":"Gdansk-Rebiechowo, Poland (EPGD) 54-23N 018-28E 138M","Date":"Jan 24, 2012 - 02:00 AM EST / 2012.01.24 0700 UTC","Wind":"from the N (350 degrees) at 5 MPH (4 KT):0","Visibility":"1 mile(s):0","Sky conditions":"mostly cloudy","Weather":"light snow showers","Temperature":"32 F (0 C)","Windchill":"26 F (-3 C):1","Dew Point":"32 F (0 C)","Relative Humidity":"100%","Pressure (altimeter)":"29.88 in. Hg (1012 hPa)","ob":"EPGD 240700Z 35004KT 3000 -SHSN BKN004 00/M00 Q1012 R11/690252","cycle":"7"},
{"_id":"4495a8a111ec85eb6d2389a681f234f0","_rev":"1-0694b97612b1798e0c0d58bf3b1f669e","Location":"Gdansk-Rebiechowo, Poland (EPGD) 54-23N 018-28E 138M","Date":"Feb 08, 2012 - 05:00 AM EST / 2012.02.08 1000 UTC","Wind":"from the NW (310 degrees) at 2 MPH (2 KT):0","Visibility":"3 mile(s):0","Sky conditions":"mostly cloudy","Weather":"mist","Temperature":"23 F (-5 C)","Dew Point":"17 F (-8 C)","Relative Humidity":"79%","Pressure (altimeter)":"30.71 in. Hg (1040 hPa)","ob":"EPGD 081000Z 31002KT 5000 BR BKN023 M05/M08 Q1040 R11/90159","cycle":"10"},
{"_id":"4495a8a111ec85eb6d2389a681f23850","_rev":"1-0b291608860d05774ab07cf1e6910d2a","Location":"Gdansk-Rebiechowo, Poland (EPGD) 54-23N 018-28E 138M","Date":"Dec 15, 2011 - 03:00 PM EST / 2011.12.15 2000 UTC","Wind":"from the S (180 degrees) at 6 MPH (5 KT) (direction variable):0","Visibility":"greater than 7 mile(s):0","Sky conditions":"partly cloudy","Temperature":"37 F (3 C)","Dew Point":"32 F (0 C)","Relative Humidity":"80%","Pressure (altimeter)":"29.65 in. Hg (1004 hPa)","ob":"EPGD 152000Z 18005KT 140V220 9999 SCT030 03/00 Q1004","cycle":"20"},
{"_id":"4495a8a111ec85eb6d2389a681f24710","_rev":"1-2a6c1841836a3f86a30875561b25af52","Location":"Gdansk-Rebiechowo, Poland (EPGD) 54-23N 018-28E 138M","Date":"Feb 02, 2012 - 09:00 AM EST / 2012.02.02 1400 UTC","Wind":"Calm:0","Visibility":"greater than 7 mile(s):0","Temperature":"6 F (-14 C)","Dew Point":"-4 F (-20 C)","Relative Humidity":"60%","Pressure (altimeter)":"30.56 in. Hg (1035 hPa)","ob":"EPGD 021400Z 00000KT CAVOK M14/M20 Q1035 R11/190095","cycle":"14"},
{"_id":"4495a8a111ec85eb6d2389a681f2499c","_rev":"1-5886fb4bd8c42dc7d7a3d87b23190a7e","Location":"Gdansk-Rebiechowo, Poland (EPGD) 54-23N 018-28E 138M","Date":"Feb 17, 2012 - 10:00 PM EST / 2012.02.18 0300 UTC","Wind":"from the W (280 degrees) at 7 MPH (6 KT):0","Visibility":"greater than 7 mile(s):0","Sky conditions":"mostly cloudy","Temperature":"32 F (0 C)","Windchill":"24 F (-4 C):1","Dew Point":"30 F (-1 C)","Relative Humidity":"92%","Pressure (altimeter)":"29.91 in. Hg (1013 hPa)","ob":"EPGD 180300Z 28006KT 9999 BKN006 00/M01 Q1013 R11/190095","cycle":"3"},
{"_id":"4495a8a111ec85eb6d2389a681f25998","_rev":"1-f2860fe333150de2b33cf4aa1ff0001c","Location":"Gdansk-Rebiechowo, Poland (EPGD) 54-23N 018-28E 138M","Date":"Feb 10, 2012 - 02:00 AM EST / 2012.02.10 0700 UTC","Wind":"Variable at 1 MPH (1 KT):0","Visibility":"3 mile(s):0","Sky conditions":"mostly cloudy","Temperature":"5 F (-15 C)","Dew Point":"1 F (-17 C)","Relative Humidity":"84%","Pressure (altimeter)":"30.71 in. Hg (1040 hPa)","ob":"EPGD 100700Z VRB01KT 6000 BKN020 M15/M17 Q1040 R11/090095","cycle":"7"},
{"_id":"4495a8a111ec85eb6d2389a681f25e2b","_rev":"1-8d4df791fbb25c9e487143490a171ce0","Location":"Gdansk-Rebiechowo, Poland (EPGD) 54-23N 018-28E 138M","Date":"Jan 12, 2012 - 03:00 PM EST / 2012.01.12 2000 UTC","Wind":"from the W (270 degrees) at 20 MPH (17 KT):0","Visibility":"4 mile(s):0","Sky conditions":"mostly cloudy","Weather":"light rain showers; Towering cumulus clouds observed","Temperature":"37 F (3 C)","Dew Point":"35 F (2 C)","Relative Humidity":"93%","Pressure (altimeter)":"29.38 in. Hg (0995 hPa)","ob":"EPGD 122000Z 27017KT 7000 -SHRA FEW011TCU BKN012 03/02 Q0995","cycle":"20"},
{"_id":"4495a8a111ec85eb6d2389a681f26064","_rev":"1-a24edc3f7507f30b05223b9075585361","Location":"Gdansk-Rebiechowo, Poland (EPGD) 54-23N 018-28E 138M","Date":"Dec 15, 2011 - 04:00 PM EST / 2011.12.15 2100 UTC","Wind":"from the S (170 degrees) at 5 MPH (4 KT) (direction variable):0","Visibility":"greater than 7 mile(s):0","Sky conditions":"mostly clear","Temperature":"35 F (2 C)","Windchill":"30 F (-1 C):1","Dew Point":"32 F (0 C)","Relative Humidity":"86%","Pressure (altimeter)":"29.65 in. Hg (1004 hPa)","ob":"EPGD 152100Z 17004KT 120V220 9999 FEW013 02/00 Q1004","cycle":"21"},
{"_id":"4495a8a111ec85eb6d2389a681f26a07","_rev":"1-6594b7114ba0d3999c76b675a12f3973","Location":"Gdansk-Rebiechowo, Poland (EPGD) 54-23N 018-28E 138M","Date":"Jan 31, 2012 - 03:00 PM EST / 2012.01.31 2000 UTC","Wind":"from the ESE (120 degrees) at 5 MPH (4 KT):0","Visibility":"greater than 7 mile(s):0","Temperature":"12 F (-11 C)","Windchill":"3 F (-16 C):1","Dew Point":"3 F (-16 C)","Relative Humidity":"66%","Pressure (altimeter)":"30.71 in. Hg (1040 hPa)","ob":"EPGD 312000Z 12004KT CAVOK M11/M16 Q1040 R11/190095","cycle":"20"},
{"_id":"4495a8a111ec85eb6d2389a681f26e9f","_rev":"1-e737b69e9dbf0345c306688e974c7975","Location":"Gdansk-Rebiechowo, Poland (EPGD) 54-23N 018-28E 138M","Date":"Dec 31, 2011 - 02:00 PM EST / 2011.12.31 1900 UTC","Wind":"from the W (260 degrees) at 5 MPH (4 KT):0","Visibility":"4 mile(s):0","Temperature":"26 F (-3 C)","Windchill":"19 F (-7 C):1","Dew Point":"24 F (-4 C)","Relative Humidity":"92%","Pressure (altimeter)":"29.88 in. Hg (1012 hPa)","ob":"EPGD 311900Z 26004KT 8000 NSC M03/M04 Q1012","cycle":"19"},
{"_id":"4495a8a111ec85eb6d2389a681f27446","_rev":"1-a9300d51230bc4df261ae7fe935d9e44","Location":"Gdansk-Rebiechowo, Poland (EPGD) 54-23N 018-28E 138M","Date":"Dec 20, 2011 - 09:00 AM EST / 2011.12.20 1400 UTC","Wind":"from the SSE (150 degrees) at 3 MPH (3 KT) (direction variable):0","Visibility":"greater than 7 mile(s):0","Temperature":"35 F (2 C)","Dew Point":"30 F (-1 C)","Relative Humidity":"80%","Pressure (altimeter)":"29.85 in. Hg (1011 hPa)","ob":"EPGD 201400Z 15003KT 080V190 CAVOK 02/M01 Q1011 R11/190095","cycle":"14"},
{"_id":"4495a8a111ec85eb6d2389a681f27909","_rev":"1-9e8bad1742f9a6b78ae28595128f65f9","Location":"Gdansk-Rebiechowo, Poland (EPGD) 54-23N 018-28E 138M","Date":"Feb 06, 2012 - 08:00 AM EST / 2012.02.06 1300 UTC","Wind":"from the ESE (110 degrees) at 6 MPH (5 KT) (direction variable):0","Visibility":"2 mile(s):0","Sky conditions":"mostly cloudy","Weather":"light snow; mist","Temperature":"12 F (-11 C)","Windchill":"3 F (-16 C):1","Dew Point":"6 F (-14 C)","Relative Humidity":"78%","Pressure (altimeter)":"30.62 in. Hg (1037 hPa)","ob":"EPGD 061300Z 11005KT 040V160 4500 -SN BR FEW005 BKN009 M11/M14 Q1037 R11/490152","cycle":"13"},
{"_id":"4495a8a111ec85eb6d2389a681f27d8b","_rev":"1-bff09bb85a3e51d934c55a9842a4ed63","Location":"Gdansk-Rebiechowo, Poland (EPGD) 54-23N 018-28E 138M","Date":"Jan 29, 2012 - 08:00 PM EST / 2012.01.30 0100 UTC","Wind":"from the ESE (120 degrees) at 5 MPH (4 KT):0","Visibility":"greater than 7 mile(s):0","Temperature":"5 F (-15 C)","Windchill":"-4 F (-20 C):1","Dew Point":"-2 F (-19 C)","Relative Humidity":"71%","Pressure (altimeter)":"30.77 in. Hg (1042 hPa)","ob":"EPGD 300100Z 12004KT CAVOK M15/M19 Q1042 R11/190095","cycle":"1"},
{"_id":"4495a8a111ec85eb6d2389a681f287a6","_rev":"1-c650fa8b1f276fa6747dbd7b8c7ed390","Location":"Gdansk-Rebiechowo, Poland (EPGD) 54-23N 018-28E 138M","Date":"Jan 16, 2012 - 02:00 AM EST / 2012.01.16 0700 UTC","Wind":"from the NW (310 degrees) at 5 MPH (4 KT):0","Visibility":"greater than 7 mile(s):0","Sky conditions":"mostly cloudy","Temperature":"28 F (-2 C)","Windchill":"23 F (-5 C):1","Dew Point":"26 F (-3 C)","Relative Humidity":"92%","Pressure (altimeter)":"30.15 in. Hg (1021 hPa)","ob":"EPGD 160700Z 31004KT 9999 FEW020 BKN040 M02/M03 Q1021 R11/590345","cycle":"7"},
{"_id":"4495a8a111ec85eb6d2389a681f29597","_rev":"1-2bde9e4b132c89b6cf3c45b550330de3","Location":"Gdansk-Rebiechowo, Poland (EPGD) 54-23N 018-28E 138M","Date":"Feb 11, 2012 - 11:00 AM EST / 2012.02.11 1600 UTC","Wind":"from the W (260 degrees) at 5 MPH (4 KT):0","Visibility":"1 mile(s):0","Sky conditions":"mostly cloudy","Weather":"light snow; mist","Temperature":"21 F (-6 C)","Windchill":"14 F (-10 C):1","Dew Point":"17 F (-8 C)","Relative Humidity":"85%","Pressure (altimeter)":"30.50 in. Hg (1033 hPa)","ob":"EPGD 111600Z 26004KT 2200 -SN BR BKN009 M06/M08 Q1033 R11/490241","cycle":"16"},
{"_id":"4495a8a111ec85eb6d2389a681f2a1ad","_rev":"1-9a11b32593086e10e0497f47495b6908","Location":"Gdansk-Rebiechowo, Poland (EPGD) 54-23N 018-28E 138M","Date":"Jan 01, 2012 - 04:00 PM EST / 2012.01.01 2100 UTC","Wind":"from the SW (230 degrees) at 6 MPH (5 KT):0","Visibility":"1 mile(s):0","Sky conditions":"mostly cloudy","Weather":"light drizzle; mist","Temperature":"37 F (3 C)","Dew Point":"35 F (2 C)","Relative Humidity":"93%","Pressure (altimeter)":"29.74 in. Hg (1007 hPa)","ob":"EPGD 012100Z 23005KT 2500 -DZ BR BKN003 03/02 Q1007","cycle":"21"},
{"_id":"4495a8a111ec85eb6d2389a681f2adf0","_rev":"1-8665ec303a7932bbda1e42a8d943b354","Location":"Gdansk-Rebiechowo, Poland (EPGD) 54-23N 018-28E 138M","Date":"Dec 17, 2011 - 10:00 AM EST / 2011.12.17 1500 UTC","Wind":"from the W (280 degrees) at 18 MPH (16 KT) gusting to 31 MPH (27 KT):0","Visibility":"4 mile(s):0","Sky conditions":"mostly cloudy","Weather":"light rain","Temperature":"37 F (3 C)","Dew Point":"33 F (1 C)","Relative Humidity":"86%","Pressure (altimeter)":"28.94 in. Hg (0980 hPa)","ob":"EPGD 171500Z 28016G27KT 7000 -RA BKN009 03/01 Q0980 R11/290064","cycle":"15"},
{"_id":"4495a8a111ec85eb6d2389a681f2b87e","_rev":"1-e8ed8882e45c87551e0bf0f9d47ae2ea","Location":"Gdansk-Rebiechowo, Poland (EPGD) 54-23N 018-28E 138M","Date":"Feb 06, 2012 - 07:00 PM EST / 2012.02.07 0000 UTC","Wind":"from the ESE (120 degrees) at 6 MPH (5 KT):0","Visibility":"2 mile(s):0","Sky conditions":"mostly cloudy","Weather":"light snow; mist","Temperature":"8 F (-13 C)","Windchill":"-2 F (-19 C):1","Dew Point":"3 F (-16 C)","Relative Humidity":"78%","Pressure (altimeter)":"30.65 in. Hg (1038 hPa)","ob":"EPGD 070000Z 12005KT 4000 -SN BR SCT005 BKN007 M13/M16 Q1038 R/490152","cycle":"0"},
{"_id":"4495a8a111ec85eb6d2389a681f2c4fc","_rev":"1-dc9508349db176efef7483694f13a7da","Location":"Gdansk-Rebiechowo, Poland (EPGD) 54-23N 018-28E 138M","Date":"Feb 16, 2012 - 07:00 PM EST / 2012.02.17 0000 UTC","Wind":"from the SSW (200 degrees) at 9 MPH (8 KT) (direction variable):0","Visibility":"4 mile(s):0","Sky conditions":"mostly cloudy","Weather":"light snow","Temperature":"28 F (-2 C)","Windchill":"19 F (-7 C):1","Dew Point":"23 F (-5 C)","Relative Humidity":"79%","Pressure (altimeter)":"29.88 in. Hg (1012 hPa)","ob":"EPGD 170000Z 20008KT 170V250 8000 -SN SCT020 BKN044 M02/M05 Q1012 R29/090095","cycle":"0"},
{"_id":"4495a8a111ec85eb6d2389a681f2d181","_rev":"1-d272162e0b7e4c3a1910f564cbdfeedc","Location":"Gdansk-Rebiechowo, Poland (EPGD) 54-23N 018-28E 138M","Date":"Dec 29, 2011 - 12:00 AM EST / 2011.12.29 0500 UTC","Wind":"from the SW (220 degrees) at 8 MPH (7 KT) (direction variable):0","Visibility":"greater than 7 mile(s):0","Sky conditions":"mostly cloudy","Temperature":"41 F (5 C)","Dew Point":"39 F (4 C)","Relative Humidity":"93%","Pressure (altimeter)":"29.77 in. Hg (1008 hPa)","ob":"EPGD 290500Z 22007KT 180V310 9999 BKN007 05/04 Q1008","cycle":"5"},
{"_id":"4495a8a111ec85eb6d2389a681f2d1b9","_rev":"1-6afe73740e6eb6cd1699b77444a852ee","Location":"Gdansk-Rebiechowo, Poland (EPGD) 54-23N 018-28E 138M","Date":"Jan 17, 2012 - 08:00 PM EST / 2012.01.18 0100 UTC","Wind":"from the WSW (240 degrees) at 5 MPH (4 KT) (direction variable):0","Visibility":"3 mile(s):0","Sky conditions":"mostly cloudy","Temperature":"32 F (0 C)","Windchill":"26 F (-3 C):1","Dew Point":"30 F (-1 C)","Relative Humidity":"92%","Pressure (altimeter)":"30.21 in. Hg (1023 hPa)","ob":"EPGD 180100Z 24004KT 210V270 6000 BKN008 M00/M01 Q1023 R11/290095","cycle":"1"},
{"_id":"4495a8a111ec85eb6d2389a681f2d329","_rev":"1-b7d0f09e17c59c06f53efd3a8c30dc53","Location":"Gdansk-Rebiechowo, Poland (EPGD) 54-23N 018-28E 138M","Date":"Jan 02, 2012 - 01:00 PM EST / 2012.01.02 1800 UTC","Wind":"from the W (260 degrees) at 5 MPH (4 KT):0","Visibility":"greater than 7 mile(s):0","Sky conditions":"partly cloudy","Temperature":"44 F (7 C)","Dew Point":"41 F (5 C)","Relative Humidity":"87%","Pressure (altimeter)":"29.65 in. Hg (1004 hPa)","ob":"EPGD 021800Z 26004KT 9999 FEW013 SCT036 07/05 Q1004","cycle":"18"},
{"_id":"4495a8a111ec85eb6d2389a681f2ddbc","_rev":"1-4c0f8693e01e821b3eb7091e261eeb34","Location":"Gdansk-Rebiechowo, Poland (EPGD) 54-23N 018-28E 138M","Date":"Dec 26, 2011 - 11:00 PM EST / 2011.12.27 0400 UTC","Wind":"from the W (260 degrees) at 24 MPH (21 KT) gusting to 37 MPH (32 KT):0","Visibility":"greater than 7 mile(s):0","Sky conditions":"mostly cloudy","Temperature":"50 F (10 C)","Dew Point":"44 F (7 C)","Relative Humidity":"81%","Pressure (altimeter)":"30.18 in. Hg (1022 hPa)","ob":"EPGD 270400Z 26021G32KT 9999 BKN017 10/07 Q1022","cycle":"4"},
{"_id":"4495a8a111ec85eb6d2389a681f2ec3d","_rev":"1-e4a354a84f70631b50c04f3b1d7826ba","Location":"Gdansk-Rebiechowo, Poland (EPGD) 54-23N 018-28E 138M","Date":"Jan 17, 2012 - 06:00 PM EST / 2012.01.17 2300 UTC","Wind":"from the WSW (240 degrees) at 5 MPH (4 KT) (direction variable):0","Visibility":"3 mile(s):0","Sky conditions":"mostly cloudy","Weather":"light snow","Temperature":"30 F (-1 C)","Windchill":"24 F (-4 C):1","Dew Point":"28 F (-2 C)","Relative Humidity":"92%","Pressure (altimeter)":"30.21 in. Hg (1023 hPa)","ob":"EPGD 172300Z 24004KT 210V270 6000 -SN FEW005 BKN008 M01/M02 Q1023 R11/290095","cycle":"23"},
{"_id":"4495a8a111ec85eb6d2389a681f2f2f4","_rev":"1-d88d1da95191f0b714e08acd5d778d1f","Location":"Gdansk-Rebiechowo, Poland (EPGD) 54-23N 018-28E 138M","Date":"Jan 30, 2012 - 02:00 AM EST / 2012.01.30 0700 UTC","Wind":"from the E (100 degrees) at 9 MPH (8 KT):0","Visibility":"greater than 7 mile(s):0","Temperature":"5 F (-15 C)","Windchill":"-9 F (-23 C):2","Dew Point":"-2 F (-19 C)","Relative Humidity":"71%","Pressure (altimeter)":"30.77 in. Hg (1042 hPa)","ob":"EPGD 300700Z 10008KT CAVOK M15/M19 Q1042 R11/190095","cycle":"7"},
{"_id":"4495a8a111ec85eb6d2389a681f2fbef","_rev":"1-6f7687d8059e995a84c8c98de20f0e73","Location":"Gdansk-Rebiechowo, Poland (EPGD) 54-23N 018-28E 138M","Date":"Feb 07, 2012 - 07:00 PM EST / 2012.02.08 0000 UTC","Wind":"from the E (080 degrees) at 1 MPH (1 KT):0","Visibility":"greater than 7 mile(s):0","Sky conditions":"mostly cloudy","Temperature":"15 F (-9 C)","Dew Point":"12 F (-11 C)","Relative Humidity":"85%","Pressure (altimeter)":"30.80 in. Hg (1043 hPa)","ob":"EPGD 080000Z 08001KT 9999 SCT013 BKN027 M09/M11 Q1043 R11/490143","cycle":"0"},
{"_id":"4495a8a111ec85eb6d2389a681f30026","_rev":"1-9bd3973551549fd4a91265e89d394064","Location":"Gdansk-Rebiechowo, Poland (EPGD) 54-23N 018-28E 138M","Date":"Feb 12, 2012 - 06:00 AM EST / 2012.02.12 1100 UTC","Wind":"from the SW (220 degrees) at 10 MPH (9 KT) (direction variable):0","Visibility":"greater than 7 mile(s):0","Sky conditions":"mostly cloudy","Temperature":"19 F (-7 C)","Windchill":"6 F (-14 C):1","Dew Point":"12 F (-11 C)","Relative Humidity":"73%","Pressure (altimeter)":"30.24 in. Hg (1024 hPa)","ob":"EPGD 121100Z 22009KT 170V250 9999 FEW030 BKN043 M07/M11 Q1024 R11/450195","cycle":"11"},
{"_id":"4495a8a111ec85eb6d2389a681f304d3","_rev":"1-526279c4db242bf1d3c8f947fe1b5ef6","Location":"Gdansk-Rebiechowo, Poland (EPGD) 54-23N 018-28E 138M","Date":"Dec 27, 2011 - 06:00 PM EST / 2011.12.27 2300 UTC","Wind":"from the W (270 degrees) at 10 MPH (9 KT):0","Visibility":"greater than 7 mile(s):0","Sky conditions":"partly cloudy","Temperature":"37 F (3 C)","Dew Point":"35 F (2 C)","Relative Humidity":"93%","Pressure (altimeter)":"30.39 in. Hg (1029 hPa)","ob":"EPGD 272300Z 27009KT 9999 SCT007 03/02 Q1029","cycle":"23"},
{"_id":"4495a8a111ec85eb6d2389a681f313a9","_rev":"1-c7ce01ad8ea61b04fbfc0d1d576b96bd","Location":"Gdansk-Rebiechowo, Poland (EPGD) 54-23N 018-28E 138M","Date":"Feb 17, 2012 - 04:00 PM EST / 2012.02.17 2100 UTC","Wind":"from the WNW (290 degrees) at 14 MPH (12 KT):0","Visibility":"greater than 7 mile(s):0","Sky conditions":"mostly cloudy","Temperature":"33 F (1 C)","Windchill":"23 F (-5 C):1","Dew Point":"32 F (0 C)","Relative Humidity":"93%","Pressure (altimeter)":"29.83 in. Hg (1010 hPa)","ob":"EPGD 172100Z 29012KT 9999 BKN006 01/M00 Q1010 R11/290095","cycle":"21"},
{"_id":"4495a8a111ec85eb6d2389a681f31637","_rev":"1-3d46eee5e7c116cfd9556b48cfeaa5e4","Location":"Gdansk-Rebiechowo, Poland (EPGD) 54-23N 018-28E 138M","Date":"Feb 05, 2012 - 02:00 PM EST / 2012.02.05 1900 UTC","Wind":"from the NNW (330 degrees) at 2 MPH (2 KT):0","Visibility":"greater than 7 mile(s):0","Temperature":"-5 F (-21 C)","Dew Point":"-11 F (-24 C)","Relative Humidity":"76%","Pressure (altimeter)":"30.71 in. Hg (1040 hPa)","ob":"EPGD 051900Z 33002KT CAVOK M21/M24 Q1040 R11/190095","cycle":"19"},
{"_id":"4495a8a111ec85eb6d2389a681f31799","_rev":"1-ec6f2c6dc35c9984460fd91387d97757","Location":"Gdansk-Rebiechowo, Poland (EPGD) 54-23N 018-28E 138M","Date":"Dec 25, 2011 - 01:00 PM EST / 2011.12.25 1800 UTC","Wind":"from the WSW (240 degrees) at 12 MPH (10 KT) (direction variable):0","Visibility":"4 mile(s):0","Sky conditions":"mostly cloudy","Weather":"light drizzle","Temperature":"39 F (4 C)","Dew Point":"39 F (4 C)","Relative Humidity":"100%","Pressure (altimeter)":"30.18 in. Hg (1022 hPa)","ob":"EPGD 251800Z 24010KT 210V270 7000 -DZ BKN005 04/04 Q1022","cycle":"18"},
{"_id":"4495a8a111ec85eb6d2389a681f324b8","_rev":"1-c7c02dc5102fac0e0a35b18e3192f3ca","Location":"Gdansk-Rebiechowo, Poland (EPGD) 54-23N 018-28E 138M","Date":"Jan 13, 2012 - 04:00 AM EST / 2012.01.13 0900 UTC","Wind":"from the W (270 degrees) at 16 MPH (14 KT):0","Visibility":"greater than 7 mile(s):0","Sky conditions":"mostly clear","Temperature":"35 F (2 C)","Windchill":"24 F (-4 C):1","Dew Point":"28 F (-2 C)","Relative Humidity":"74%","Pressure (altimeter)":"29.50 in. Hg (0999 hPa)","ob":"EPGD 130900Z 27014KT 9999 FEW021 02/M02 Q0999","cycle":"9"},
{"_id":"4495a8a111ec85eb6d2389a681f324cf","_rev":"1-9d46b774cfc462c3bb43124501bcd87a","Location":"Gdansk-Rebiechowo, Poland (EPGD) 54-23N 018-28E 138M","Date":"Jan 11, 2012 - 08:00 AM EST / 2012.01.11 1300 UTC","Wind":"from the W (260 degrees) at 16 MPH (14 KT):0","Visibility":"2 mile(s):0","Sky conditions":"mostly cloudy","Weather":"light rain; mist","Temperature":"42 F (6 C)","Dew Point":"39 F (4 C)","Relative Humidity":"86%","Pressure (altimeter)":"29.97 in. Hg (1015 hPa)","ob":"EPGD 111300Z 26014KT 3500 -RA BR BKN009 06/04 Q1015 R11/290095","cycle":"13"},
{"_id":"4495a8a111ec85eb6d2389a681f32b19","_rev":"1-0cfa8855703abf7c2d20e4091b6f2f33","Location":"Gdansk-Rebiechowo, Poland (EPGD) 54-23N 018-28E 138M","Date":"Dec 16, 2011 - 02:00 PM EST / 2011.12.16 1900 UTC","Wind":"from the ESE (110 degrees) at 21 MPH (18 KT):0","Visibility":"1 mile(s):0","Sky conditions":"mostly cloudy","Weather":"snow, rain","Temperature":"33 F (1 C)","Windchill":"21 F (-6 C):1","Dew Point":"32 F (0 C)","Relative Humidity":"93%","Pressure (altimeter)":"28.82 in. Hg (0976 hPa)","ob":"EPGD 161900Z 11018KT 2500 SNRA FEW004 BKN005 01/M00 Q0976","cycle":"19"},
{"_id":"4495a8a111ec85eb6d2389a681f33889","_rev":"1-fa2ae086b4575855011b0d8b9cc12924","Location":"Gdansk-Rebiechowo, Poland (EPGD) 54-23N 018-28E 138M","Date":"Jan 08, 2012 - 05:00 AM EST / 2012.01.08 1000 UTC","Wind":"from the WSW (240 degrees) at 6 MPH (5 KT) (direction variable):0","Visibility":"greater than 7 mile(s):0","Sky conditions":"mostly cloudy","Weather":"light rain","Temperature":"39 F (4 C)","Dew Point":"37 F (3 C)","Relative Humidity":"93%","Pressure (altimeter)":"29.68 in. Hg (1005 hPa)","ob":"EPGD 081000Z 24005KT 210V290 9999 -RA BKN013 04/03 Q1005","cycle":"10"},
{"_id":"4495a8a111ec85eb6d2389a681f34562","_rev":"1-4d40cf6688da5205e353110a19692cc0","Location":"Gdansk-Rebiechowo, Poland (EPGD) 54-23N 018-28E 138M","Date":"Dec 18, 2011 - 04:00 AM EST / 2011.12.18 0900 UTC","Wind":"from the WSW (240 degrees) at 12 MPH (10 KT) (direction variable):0","Visibility":"greater than 7 mile(s):0","Sky conditions":"mostly cloudy","Weather":"Towering cumulus clouds observed","Temperature":"33 F (1 C)","Windchill":"24 F (-4 C):1","Dew Point":"32 F (0 C)","Relative Humidity":"93%","Pressure (altimeter)":"29.26 in. Hg (0991 hPa)","ob":"EPGD 180900Z 24010KT 210V290 9999 BKN005TCU 01/M00 Q0991","cycle":"9"},
{"_id":"4495a8a111ec85eb6d2389a681f35532","_rev":"1-ebfbd5b291951d0558a3c346c86661d6","Location":"Gdansk-Rebiechowo, Poland (EPGD) 54-23N 018-28E 138M","Date":"Jan 01, 2012 - 03:00 PM EST / 2012.01.01 2000 UTC","Wind":"from the WSW (240 degrees) at 5 MPH (4 KT) (direction variable):0","Visibility":"1 mile(s):0","Sky conditions":"mostly cloudy","Weather":"light drizzle; mist","Temperature":"35 F (2 C)","Windchill":"30 F (-1 C):1","Dew Point":"35 F (2 C)","Relative Humidity":"100%","Pressure (altimeter)":"29.74 in. Hg (1007 hPa)","ob":"EPGD 012000Z 24004KT 190V270 3000 -DZ BR BKN003 02/02 Q1007","cycle":"20"},
{"_id":"4495a8a111ec85eb6d2389a681f35d5b","_rev":"1-d89571e5f803d5610d85c23632192f29","Location":"Gdansk-Rebiechowo, Poland (EPGD) 54-23N 018-28E 138M","Date":"Dec 14, 2011 - 08:00 PM EST / 2011.12.15 0100 UTC","Wind":"from the WSW (250 degrees) at 15 MPH (13 KT):0","Visibility":"greater than 7 mile(s):0","Sky conditions":"mostly cloudy","Temperature":"41 F (5 C)","Dew Point":"35 F (2 C)","Relative Humidity":"80%","Pressure (altimeter)":"29.53 in. Hg (1000 hPa)","ob":"EPGD 150100Z 25013KT 9999 BKN011 05/02 Q1000","cycle":"1"},
{"_id":"4495a8a111ec85eb6d2389a681f36cbb","_rev":"1-906ac2fb2fdf52d6e7704687328b377f","Location":"Gdansk-Rebiechowo, Poland (EPGD) 54-23N 018-28E 138M","Date":"Dec 26, 2011 - 02:00 PM EST / 2011.12.26 1900 UTC","Wind":"from the W (260 degrees) at 15 MPH (13 KT):0","Visibility":"greater than 7 mile(s):0","Sky conditions":"mostly cloudy","Temperature":"50 F (10 C)","Dew Point":"46 F (8 C)","Relative Humidity":"87%","Pressure (altimeter)":"30.24 in. Hg (1024 hPa)","ob":"EPGD 261900Z 26013KT 9999 BKN011 BKN026 10/08 Q1024","cycle":"19"},
{"_id":"4495a8a111ec85eb6d2389a681f370c0","_rev":"1-96da85cf2e4016db6f1364ef4d4dc96f","Location":"Gdansk-Rebiechowo, Poland (EPGD) 54-23N 018-28E 138M","Date":"Dec 27, 2011 - 10:00 PM EST / 2011.12.28 0300 UTC","Wind":"from the W (260 degrees) at 8 MPH (7 KT):0","Visibility":"greater than 7 mile(s):0","Sky conditions":"mostly clear","Temperature":"35 F (2 C)","Windchill":"28 F (-2 C):1","Dew Point":"33 F (1 C)","Relative Humidity":"93%","Pressure (altimeter)":"30.36 in. Hg (1028 hPa)","ob":"EPGD 280300Z 26007KT 9999 FEW009 02/01 Q1028","cycle":"3"},
{"_id":"4495a8a111ec85eb6d2389a681f3753a","_rev":"1-04c58febc0ce5133e8ec08d1dbb898c8","Location":"Gdansk-Rebiechowo, Poland (EPGD) 54-23N 018-28E 138M","Date":"Jan 15, 2012 - 02:00 AM EST / 2012.01.15 0700 UTC","Wind":"from the N (350 degrees) at 14 MPH (12 KT):0","Visibility":"less than 1 mile:0","Sky conditions":"mostly cloudy","Weather":"snow showers; Cumulonimbus clouds observed","Temperature":"30 F (-1 C)","Windchill":"19 F (-7 C):1","Dew Point":"28 F (-2 C)","Relative Humidity":"92%","Pressure (altimeter)":"30.00 in. Hg (1016 hPa)","ob":"EPGD 150700Z 35012KT 1200 SHSN SCT003 BKN008CB M01/M02 Q1016 R11/590526","cycle":"7"},
{"_id":"4495a8a111ec85eb6d2389a681f384cd","_rev":"1-cda02613cd07182988f37a7b33f9676f","Location":"Gdansk-Rebiechowo, Poland (EPGD) 54-23N 018-28E 138M","Date":"Dec 20, 2011 - 02:00 AM EST / 2011.12.20 0700 UTC","Wind":"from the SW (220 degrees) at 5 MPH (4 KT) (direction variable):0","Visibility":"4 mile(s):0","Sky conditions":"mostly cloudy","Temperature":"33 F (1 C)","Windchill":"28 F (-2 C):1","Dew Point":"30 F (-1 C)","Relative Humidity":"86%","Pressure (altimeter)":"29.88 in. Hg (1012 hPa)","ob":"EPGD 200700Z 22004KT 180V260 8000 BKN008 01/M01 Q1012 R11/190095","cycle":"7"},
{"_id":"4495a8a111ec85eb6d2389a681f38d38","_rev":"1-8cc32e6bfb532b8ac73a25415d958b88","Location":"Gdansk-Rebiechowo, Poland (EPGD) 54-23N 018-28E 138M","Date":"Feb 16, 2012 - 09:00 AM EST / 2012.02.16 1400 UTC","Wind":"from the WSW (250 degrees) at 2 MPH (2 KT):0","Visibility":"greater than 7 mile(s):0","Sky conditions":"partly cloudy","Temperature":"32 F (0 C)","Dew Point":"17 F (-8 C)","Relative Humidity":"54%","Pressure (altimeter)":"30.00 in. Hg (1016 hPa)","ob":"EPGD 161400Z 25002KT 9999 SCT036 M00/M08 Q1016 R11/190095","cycle":"14"},
{"_id":"4495a8a111ec85eb6d2389a681f396af","_rev":"1-5889f67582b81eb1ef1e923d863cdc04","Location":"Gdansk-Rebiechowo, Poland (EPGD) 54-23N 018-28E 138M","Date":"Dec 25, 2011 - 03:00 AM EST / 2011.12.25 0800 UTC","Wind":"from the WSW (250 degrees) at 12 MPH (10 KT):0","Visibility":"greater than 7 mile(s):0","Sky conditions":"mostly clear","Temperature":"37 F (3 C)","Dew Point":"32 F (0 C)","Relative Humidity":"80%","Pressure (altimeter)":"30.15 in. Hg (1021 hPa)","ob":"EPGD 250800Z 25010KT 9999 FEW015 03/00 Q1021","cycle":"8"},
{"_id":"4495a8a111ec85eb6d2389a681f39c08","_rev":"1-46be091e2f0b95233e21d6608d2fe2c2","Location":"Gdansk-Rebiechowo, Poland (EPGD) 54-23N 018-28E 138M","Date":"Jan 23, 2012 - 07:00 AM EST / 2012.01.23 1200 UTC","Wind":"from the NW (310 degrees) at 13 MPH (11 KT):0","Visibility":"greater than 7 mile(s):0","Sky conditions":"partly cloudy","Temperature":"35 F (2 C)","Windchill":"26 F (-3 C):1","Dew Point":"32 F (0 C)","Relative Humidity":"86%","Pressure (altimeter)":"29.59 in. Hg (1002 hPa)","ob":"EPGD 231200Z 31011KT 9999 SCT009 SCT034 02/00 Q1002","cycle":"12"},
{"_id":"4495a8a111ec85eb6d2389a681f3abc9","_rev":"1-7bd2cf4c1a36b56245d7d654b348c9a7","Location":"Gdansk-Rebiechowo, Poland (EPGD) 54-23N 018-28E 138M","Date":"Jan 21, 2012 - 08:00 AM EST / 2012.01.21 1300 UTC","Wind":"from the S (170 degrees) at 8 MPH (7 KT) (direction variable):0","Visibility":"greater than 7 mile(s):0","Sky conditions":"mostly cloudy","Temperature":"33 F (1 C)","Windchill":"26 F (-3 C):1","Dew Point":"28 F (-2 C)","Relative Humidity":"80%","Pressure (altimeter)":"29.59 in. Hg (1002 hPa)","ob":"EPGD 211300Z 17007KT 130V200 9999 BKN011 01/M02 Q1002 R11/290095","cycle":"13"},
{"_id":"4495a8a111ec85eb6d2389a681f3b404","_rev":"1-170d2a2134d8aa17b3a6e023cd74d940","Location":"Gdansk-Rebiechowo, Poland (EPGD) 54-23N 018-28E 138M","Date":"Feb 03, 2012 - 05:00 PM EST / 2012.02.03 2200 UTC","Wind":"from the SSW (210 degrees) at 3 MPH (3 KT) (direction variable):0","Visibility":"2 mile(s):0","Sky conditions":"partly cloudy","Weather":"mist","Temperature":"6 F (-14 C)","Dew Point":"3 F (-16 C)","Relative Humidity":"84%","Pressure (altimeter)":"30.56 in. Hg (1035 hPa)","ob":"EPGD 032200Z 21003KT 170V270 4000 BR SCT030 M14/M16 Q1035 R11/490148","cycle":"22"},
{"_id":"4495a8a111ec85eb6d2389a681f3b446","_rev":"1-2252bafe5e27e558d011c2e9e2a6f733","Location":"Gdansk-Rebiechowo, Poland (EPGD) 54-23N 018-28E 138M","Date":"Dec 18, 2011 - 08:00 AM EST / 2011.12.18 1300 UTC","Wind":"from the WSW (240 degrees) at 15 MPH (13 KT) gusting to 26 MPH (23 KT):0","Visibility":"greater than 7 mile(s):0","Sky conditions":"mostly cloudy","Temperature":"35 F (2 C)","Windchill":"24 F (-4 C):1","Dew Point":"30 F (-1 C)","Relative Humidity":"80%","Pressure (altimeter)":"29.29 in. Hg (0992 hPa)","ob":"EPGD 181300Z 24013G23KT 9999 FEW007 BKN013 02/M01 Q0992","cycle":"13"},
{"_id":"4495a8a111ec85eb6d2389a681f3b635","_rev":"1-ff83a7c69f94d3647181e4bfe649f20f","Location":"Gdansk-Rebiechowo, Poland (EPGD) 54-23N 018-28E 138M","Date":"Dec 31, 2011 - 05:00 PM EST / 2011.12.31 2200 UTC","Wind":"from the W (260 degrees) at 2 MPH (2 KT):0","Visibility":"4 mile(s):0","Temperature":"28 F (-2 C)","Dew Point":"26 F (-3 C)","Relative Humidity":"92%","Pressure (altimeter)":"29.91 in. Hg (1013 hPa)","ob":"EPGD 312200Z 26002KT 7000 NSC M02/M03 Q1013","cycle":"22"},
{"_id":"4495a8a111ec85eb6d2389a681f3b764","_rev":"1-73be17849fce4aa7d32e3f6136dc448e","Location":"Gdansk-Rebiechowo, Poland (EPGD) 54-23N 018-28E 138M","Date":"Jan 06, 2012 - 01:00 AM EST / 2012.01.06 0600 UTC","Wind":"from the NNW (340 degrees) at 10 MPH (9 KT):0","Visibility":"greater than 7 mile(s):0","Sky conditions":"mostly cloudy","Temperature":"39 F (4 C)","Dew Point":"35 F (2 C)","Relative Humidity":"86%","Pressure (altimeter)":"29.09 in. Hg (0985 hPa)","ob":"EPGD 060600Z 34009KT 9999 SCT004 BKN009 04/02 Q0985","cycle":"6"},
{"_id":"4495a8a111ec85eb6d2389a681f3b999","_rev":"1-c12cc16b8c0d83c2afc5f023121265cc","Location":"Gdansk-Rebiechowo, Poland (EPGD) 54-23N 018-28E 138M","Date":"Feb 02, 2012 - 12:00 PM EST / 2012.02.02 1700 UTC","Wind":"from the SE (130 degrees) at 3 MPH (3 KT):0","Visibility":"4 mile(s):0","Temperature":"0 F (-18 C)","Dew Point":"-5 F (-21 C)","Relative Humidity":"77%","Pressure (altimeter)":"30.53 in. Hg (1034 hPa)","ob":"EPGD 021700Z 13003KT 8000 NSC M18/M21 Q1034 R11/190095","cycle":"17"},
{"_id":"4495a8a111ec85eb6d2389a681f3c89d","_rev":"1-19b8743d636bb069198cab32d56287b0","Location":"Gdansk-Rebiechowo, Poland (EPGD) 54-23N 018-28E 138M","Date":"Dec 23, 2011 - 06:00 AM EST / 2011.12.23 1100 UTC","Wind":"from the SSW (200 degrees) at 6 MPH (5 KT) (direction variable):0","Visibility":"1 mile(s):0","Sky conditions":"overcast","Weather":"mist; light rain","Temperature":"33 F (1 C)","Windchill":"26 F (-3 C):1","Dew Point":"32 F (0 C)","Relative Humidity":"93%","Pressure (altimeter)":"30.00 in. Hg (1016 hPa)","ob":"EPGD 231100Z 20005KT 150V240 2500 BR -RA OVC004 01/M00 Q1016","cycle":"11"},
{"_id":"4495a8a111ec85eb6d2389a681f3d028","_rev":"1-3d6b01a3349775d7e19c2d27d7fc1b8c","Location":"Gdansk-Rebiechowo, Poland (EPGD) 54-23N 018-28E 138M","Date":"Feb 15, 2012 - 12:00 PM EST / 2012.02.15 1700 UTC","Wind":"from the NNE (020 degrees) at 10 MPH (9 KT):0","Visibility":"1 mile(s):0","Sky conditions":"mostly cloudy","Weather":"snow; mist","Temperature":"26 F (-3 C)","Windchill":"15 F (-9 C):1","Dew Point":"23 F (-5 C)","Relative Humidity":"86%","Pressure (altimeter)":"29.35 in. Hg (0994 hPa)","ob":"EPGD 151700Z 02009KT 2200 SN BR SCT005 BKN009 M03/M05 Q0994 R11/490237","cycle":"17"},
{"_id":"4495a8a111ec85eb6d2389a681f3d5ed","_rev":"1-475749e029d7ca19816bb83ed670a5a5","Location":"Gdansk-Rebiechowo, Poland (EPGD) 54-23N 018-28E 138M","Date":"Jan 06, 2012 - 03:00 AM EST / 2012.01.06 0800 UTC","Wind":"from the N (350 degrees) at 17 MPH (15 KT) (direction variable):0","Visibility":"4 mile(s):0","Sky conditions":"mostly cloudy","Weather":"light rain showers","Temperature":"39 F (4 C)","Dew Point":"35 F (2 C)","Relative Humidity":"86%","Pressure (altimeter)":"29.23 in. Hg (0990 hPa)","ob":"EPGD 060800Z 35015KT 320V020 8000 -SHRA BKN008 04/02 Q0990","cycle":"8"},
{"_id":"4495a8a111ec85eb6d2389a681f3da2d","_rev":"1-80b8ba350fac1645901f12787ad4b1a6","Location":"Gdansk-Rebiechowo, Poland (EPGD) 54-23N 018-28E 138M","Date":"Dec 25, 2011 - 12:00 AM EST / 2011.12.25 0500 UTC","Wind":"from the W (270 degrees) at 9 MPH (8 KT):0","Visibility":"greater than 7 mile(s):0","Sky conditions":"mostly clear","Temperature":"35 F (2 C)","Windchill":"28 F (-2 C):1","Dew Point":"32 F (0 C)","Relative Humidity":"86%","Pressure (altimeter)":"30.12 in. Hg (1020 hPa)","ob":"EPGD 250500Z 27008KT 9999 FEW017 02/00 Q1020","cycle":"5"},
{"_id":"4495a8a111ec85eb6d2389a681f3da33","_rev":"1-e552474606eae92088a17d7d53bd3e78","Location":"Gdansk-Rebiechowo, Poland (EPGD) 54-23N 018-28E 138M","Date":"Jan 19, 2012 - 08:00 AM EST / 2012.01.19 1300 UTC","Wind":"from the SW (220 degrees) at 7 MPH (6 KT) (direction variable):0","Visibility":"greater than 7 mile(s):0","Sky conditions":"mostly cloudy","Temperature":"37 F (3 C)","Dew Point":"32 F (0 C)","Relative Humidity":"80%","Pressure (altimeter)":"29.68 in. Hg (1005 hPa)","ob":"EPGD 191300Z 22006KT 180V280 9999 BKN013 03/00 Q1005 R11/290095","cycle":"13"},
{"_id":"4495a8a111ec85eb6d2389a681f3e75d","_rev":"1-e6b6392cb91b8da2efcbaf248f92bccf","Location":"Gdansk-Rebiechowo, Poland (EPGD) 54-23N 018-28E 138M","Date":"Feb 07, 2012 - 06:00 AM EST / 2012.02.07 1100 UTC","Wind":"from the NE (050 degrees) at 12 MPH (10 KT) (direction variable):0","Visibility":"greater than 7 mile(s):0","Sky conditions":"mostly cloudy","Temperature":"17 F (-8 C)","Windchill":"3 F (-16 C):1","Dew Point":"12 F (-11 C)","Relative Humidity":"78%","Pressure (altimeter)":"30.71 in. Hg (1040 hPa)","ob":"EPGD 071100Z 05010KT 020V080 9999 FEW006 BKN012 M08/M11 Q1040 R11/490238","cycle":"11"},
{"_id":"4495a8a111ec85eb6d2389a681f3ecd7","_rev":"1-edc1c5c21480b1e471e12b757b6327db","Location":"Gdansk-Rebiechowo, Poland (EPGD) 54-23N 018-28E 138M","Date":"Feb 15, 2012 - 12:00 AM EST / 2012.02.15 0500 UTC","Wind":"from the SE (140 degrees) at 10 MPH (9 KT) (direction variable):0","Visibility":"less than 1 mile:0","Sky conditions":"mostly cloudy","Weather":"light snow; low drifting snow; mist","Temperature":"24 F (-4 C)","Windchill":"14 F (-10 C):1","Dew Point":"23 F (-5 C)","Relative Humidity":"92%","Pressure (altimeter)":"28.91 in. Hg (0979 hPa)","ob":"EPGD 150500Z 14009KT 110V170 1500 -SN DRSN BR BKN006 M04/M05 Q0979 R11/490332","cycle":"5"},
{"_id":"4495a8a111ec85eb6d2389a681f3f42f","_rev":"1-fe717a43950c3174f703f9b6d6d249bb","Location":"Gdansk-Rebiechowo, Poland (EPGD) 54-23N 018-28E 138M","Date":"Jan 20, 2012 - 12:00 PM EST / 2012.01.20 1700 UTC","Wind":"from the SSW (200 degrees) at 3 MPH (3 KT) (direction variable):0","Visibility":"4 mile(s):0","Sky conditions":"mostly cloudy","Temperature":"33 F (1 C)","Dew Point":"30 F (-1 C)","Relative Humidity":"86%","Pressure (altimeter)":"29.53 in. Hg (1000 hPa)","ob":"EPGD 201700Z 20003KT 160V230 8000 FEW007 BKN011 01/M01 Q1000 R11/190095","cycle":"17"},
{"_id":"4495a8a111ec85eb6d2389a681f3f5ba","_rev":"1-55b36b7ed508b4114d62b14aa4520319","Location":"Gdansk-Rebiechowo, Poland (EPGD) 54-23N 018-28E 138M","Date":"Jan 23, 2012 - 02:00 PM EST / 2012.01.23 1900 UTC","Wind":"from the W (280 degrees) at 9 MPH (8 KT):0","Visibility":"greater than 7 mile(s):0","Sky conditions":"mostly cloudy","Temperature":"33 F (1 C)","Windchill":"24 F (-4 C):1","Dew Point":"32 F (0 C)","Relative Humidity":"93%","Pressure (altimeter)":"29.68 in. Hg (1005 hPa)","ob":"EPGD 231900Z 28008KT 9999 FEW005 BKN007 01/M00 Q1005","cycle":"19"},
{"_id":"4495a8a111ec85eb6d2389a681f3fffa","_rev":"1-d8b8b46654e60dd4cf10c356bfd97827","Location":"Gdansk-Rebiechowo, Poland (EPGD) 54-23N 018-28E 138M","Date":"Jan 16, 2012 - 10:00 PM EST / 2012.01.17 0300 UTC","Wind":"Calm:0","Visibility":"1 mile(s):0","Sky conditions":"mostly cloudy","Weather":"mist","Temperature":"28 F (-2 C)","Dew Point":"26 F (-3 C)","Relative Humidity":"92%","Pressure (altimeter)":"30.12 in. Hg (1020 hPa)","ob":"EPGD 170300Z 00000KT 2600 BR SCT007 BKN015 M02/M03 Q1020 R11/290053","cycle":"3"},
{"_id":"4495a8a111ec85eb6d2389a681f40538","_rev":"1-4d047e11f7c6e468c8098d3b774ef92d","Location":"Gdansk-Rebiechowo, Poland (EPGD) 54-23N 018-28E 138M","Date":"Feb 02, 2012 - 09:00 PM EST / 2012.02.03 0200 UTC","Wind":"from the S (190 degrees) at 6 MPH (5 KT):0","Visibility":"1 mile(s):0","Weather":"mist","Temperature":"-13 F (-25 C)","Windchill":"-27 F (-33 C):2","Dew Point":"-18 F (-28 C)","Relative Humidity":"76%","Pressure (altimeter)":"30.50 in. Hg (1033 hPa)","ob":"EPGD 030200Z 19005KT 3000 BR NSC M25/M28 Q1033 R11/190095","cycle":"2"},
{"_id":"4495a8a111ec85eb6d2389a681f407d1","_rev":"1-6f9428cccaa61d48a5f22fafcaee166f","Location":"Gdansk-Rebiechowo, Poland (EPGD) 54-23N 018-28E 138M","Date":"Jan 31, 2012 - 10:00 PM EST / 2012.02.01 0300 UTC","Wind":"Calm:0","Visibility":"greater than 7 mile(s):0","Temperature":"0 F (-18 C)","Dew Point":"-5 F (-21 C)","Relative Humidity":"77%","Pressure (altimeter)":"30.68 in. Hg (1039 hPa)","ob":"EPGD 010300Z 00000KT CAVOK M18/M21 Q1039 R11/190095","cycle":"3"},
{"_id":"4495a8a111ec85eb6d2389a681f40b73","_rev":"1-20c661d32e00622948985a3850dd2ef0","Location":"Gdansk-Rebiechowo, Poland (EPGD) 54-23N 018-28E 138M","Date":"Dec 30, 2011 - 09:00 AM EST / 2011.12.30 1400 UTC","Wind":"from the W (280 degrees) at 6 MPH (5 KT):0","Visibility":"4 mile(s):0","Sky conditions":"mostly cloudy","Temperature":"37 F (3 C)","Dew Point":"33 F (1 C)","Relative Humidity":"86%","Pressure (altimeter)":"29.50 in. Hg (0999 hPa)","ob":"EPGD 301400Z 28005KT 8000 SCT006 BKN015 03/01 Q0999","cycle":"14"},
{"_id":"4495a8a111ec85eb6d2389a681f41abe","_rev":"1-ce5d02201df3f9745714babbf97c6d20","Location":"Gdansk-Rebiechowo, Poland (EPGD) 54-23N 018-28E 138M","Date":"Dec 31, 2011 - 05:00 AM EST / 2011.12.31 1000 UTC","Wind":"from the WNW (290 degrees) at 5 MPH (4 KT):0","Visibility":"greater than 7 mile(s):0","Temperature":"35 F (2 C)","Windchill":"30 F (-1 C):1","Dew Point":"30 F (-1 C)","Relative Humidity":"80%","Pressure (altimeter)":"29.80 in. Hg (1009 hPa)","ob":"EPGD 311000Z 29004KT CAVOK 02/M01 Q1009","cycle":"10"},
{"_id":"4495a8a111ec85eb6d2389a681f421b1","_rev":"1-755e753fd38b94f7b563abc527f3d5ae","Location":"Gdansk-Rebiechowo, Poland (EPGD) 54-23N 018-28E 138M","Date":"Feb 05, 2012 - 11:00 PM EST / 2012.02.06 0400 UTC","Wind":"from the NW (320 degrees) at 2 MPH (2 KT):0","Visibility":"1 mile(s):0","Sky conditions":"mostly cloudy","Weather":"light snow; mist","Temperature":"-11 F (-24 C)","Dew Point":"-16 F (-27 C)","Relative Humidity":"76%","Pressure (altimeter)":"30.68 in. Hg (1039 hPa)","ob":"EPGD 060400Z 32002KT 2500 -SN BR BKN005 M24/M27 Q1039 R11/190095","cycle":"4"},
{"_id":"4495a8a111ec85eb6d2389a681f422e5","_rev":"1-5ff882acb9c1eea68f19133d1cc29a0f","Location":"Gdansk-Rebiechowo, Poland (EPGD) 54-23N 018-28E 138M","Date":"Jan 04, 2012 - 03:00 AM EST / 2012.01.04 0800 UTC","Wind":"from the WSW (240 degrees) at 18 MPH (16 KT) gusting to 32 MPH (28 KT) (direction variable):0","Visibility":"greater than 7 mile(s):0","Sky conditions":"mostly clear","Temperature":"39 F (4 C)","Dew Point":"30 F (-1 C)","Relative Humidity":"69%","Pressure (altimeter)":"29.41 in. Hg (0996 hPa)","ob":"EPGD 040800Z 24016G28KT 200V260 9999 FEW040 04/M01 Q0996","cycle":"8"},
{"_id":"4495a8a111ec85eb6d2389a681f4327a","_rev":"1-73a544a3a6318e75d1bc36c2a7a38f1d","Location":"Gdansk-Rebiechowo, Poland (EPGD) 54-23N 018-28E 138M","Date":"Feb 07, 2012 - 04:00 AM EST / 2012.02.07 0900 UTC","Wind":"from the E (100 degrees) at 6 MPH (5 KT) (direction variable):0","Visibility":"1 mile(s):0","Sky conditions":"mostly cloudy","Weather":"light snow; mist","Temperature":"14 F (-10 C)","Windchill":"5 F (-15 C):1","Dew Point":"10 F (-12 C)","Relative Humidity":"85%","Pressure (altimeter)":"30.71 in. Hg (1040 hPa)","ob":"EPGD 070900Z 10005KT 050V120 2500 -SN BR FEW005 BKN007 M10/M12 Q1040 R11/490238","cycle":"9"},
{"_id":"4495a8a111ec85eb6d2389a681f441c1","_rev":"1-c6b57195c2a48b6b60b92606d3c8f2ee","Location":"Gdansk-Rebiechowo, Poland (EPGD) 54-23N 018-28E 138M","Date":"Jan 03, 2012 - 06:00 AM EST / 2012.01.03 1100 UTC","Wind":"from the SW (230 degrees) at 13 MPH (11 KT) (direction variable):0","Visibility":"greater than 7 mile(s):0","Sky conditions":"partly cloudy","Temperature":"39 F (4 C)","Dew Point":"32 F (0 C)","Relative Humidity":"75%","Pressure (altimeter)":"29.88 in. Hg (1012 hPa)","ob":"EPGD 031100Z 23011KT 200V270 9999 FEW013 SCT015 04/00 Q1012","cycle":"11"},
{"_id":"4495a8a111ec85eb6d2389a681f44ce9","_rev":"1-da893834e2f8e1473e78b34b48cc4766","Location":"Gdansk-Rebiechowo, Poland (EPGD) 54-23N 018-28E 138M","Date":"Feb 10, 2012 - 01:00 AM EST / 2012.02.10 0600 UTC","Wind":"from the WSW (240 degrees) at 2 MPH (2 KT):0","Visibility":"3 mile(s):0","Sky conditions":"mostly cloudy","Temperature":"3 F (-16 C)","Dew Point":"0 F (-18 C)","Relative Humidity":"84%","Pressure (altimeter)":"30.71 in. Hg (1040 hPa)","ob":"EPGD 100600Z 24002KT 6000 BKN011 M16/M18 Q1040 R11/090095","cycle":"6"},
{"_id":"4495a8a111ec85eb6d2389a681f44ea5","_rev":"1-d261c874bc5fef64e7544eab4bd850a7","Location":"Gdansk-Rebiechowo, Poland (EPGD) 54-23N 018-28E 138M","Date":"Dec 30, 2011 - 08:00 PM EST / 2011.12.31 0100 UTC","Wind":"from the W (270 degrees) at 3 MPH (3 KT):0","Visibility":"greater than 7 mile(s):0","Sky conditions":"overcast","Temperature":"33 F (1 C)","Dew Point":"32 F (0 C)","Relative Humidity":"93%","Pressure (altimeter)":"29.68 in. Hg (1005 hPa)","ob":"EPGD 310100Z 27003KT 9999 OVC005 01/00 Q1005","cycle":"1"},
{"_id":"4495a8a111ec85eb6d2389a681f45d3a","_rev":"1-d68a5bc4d2a043c9010406da64335580","Location":"Gdansk-Rebiechowo, Poland (EPGD) 54-23N 018-28E 138M","Date":"Feb 08, 2012 - 11:00 AM EST / 2012.02.08 1600 UTC","Wind":"from the W (280 degrees) at 9 MPH (8 KT):0","Visibility":"3 mile(s):0","Sky conditions":"mostly cloudy","Weather":"light snow","Temperature":"24 F (-4 C)","Windchill":"14 F (-10 C):1","Dew Point":"21 F (-6 C)","Relative Humidity":"85%","Pressure (altimeter)":"30.56 in. Hg (1035 hPa)","ob":"EPGD 081600Z 28008KT 6000 -SN SCT010 BKN030 M04/M06 Q1035 R11/190095","cycle":"16"},
{"_id":"4495a8a111ec85eb6d2389a681f46c37","_rev":"1-49e7f9ceea8538942b9038a2ebd9a429","Location":"Gdansk-Rebiechowo, Poland (EPGD) 54-23N 018-28E 138M","Date":"Feb 04, 2012 - 02:00 AM EST / 2012.02.04 0700 UTC","Wind":"Variable at 2 MPH (2 KT):0","Visibility":"2 mile(s):0","Sky conditions":"partly cloudy","Weather":"mist","Temperature":"6 F (-14 C)","Dew Point":"3 F (-16 C)","Relative Humidity":"84%","Pressure (altimeter)":"30.53 in. Hg (1034 hPa)","ob":"EPGD 040700Z VRB02KT 4000 BR FEW011 SCT020 M14/M16 Q1034 R11/490136","cycle":"7"},
{"_id":"4495a8a111ec85eb6d2389a681f47654","_rev":"1-5e3d6a2a27338823fb1f09bd9c95ed6a","Location":"Gdansk-Rebiechowo, Poland (EPGD) 54-23N 018-28E 138M","Date":"Jan 05, 2012 - 01:00 PM EST / 2012.01.05 1800 UTC","Wind":"from the SSW (200 degrees) at 12 MPH (10 KT) (direction variable):0","Visibility":"greater than 7 mile(s):0","Sky conditions":"mostly cloudy","Temperature":"37 F (3 C)","Dew Point":"33 F (1 C)","Relative Humidity":"86%","Pressure (altimeter)":"28.67 in. Hg (0971 hPa)","ob":"EPGD 051800Z 20010KT 160V230 9999 BKN016 03/01 Q0971","cycle":"18"},
{"_id":"4495a8a111ec85eb6d2389a681f47d8d","_rev":"1-89e933825bfa75193bc8c65bb421391f","Location":"Gdansk-Rebiechowo, Poland (EPGD) 54-23N 018-28E 138M","Date":"Dec 19, 2011 - 08:00 PM EST / 2011.12.20 0100 UTC","Wind":"from the SSW (210 degrees) at 8 MPH (7 KT) (direction variable):0","Visibility":"greater than 7 mile(s):0","Sky conditions":"mostly cloudy","Temperature":"35 F (2 C)","Windchill":"28 F (-2 C):1","Dew Point":"30 F (-1 C)","Relative Humidity":"80%","Pressure (altimeter)":"29.91 in. Hg (1013 hPa)","ob":"EPGD 200100Z 21007KT 180V240 9999 FEW011 BKN015 02/M01 Q1013 R11/290095","cycle":"1"},
{"_id":"4495a8a111ec85eb6d2389a681f4820d","_rev":"1-f693ebc24df93f9be0649546f04c4fb5","Location":"Gdansk-Rebiechowo, Poland (EPGD) 54-23N 018-28E 138M","Date":"Jan 29, 2012 - 06:00 PM EST / 2012.01.29 2300 UTC","Wind":"Calm:0","Visibility":"greater than 7 mile(s):0","Temperature":"3 F (-16 C)","Dew Point":"-2 F (-19 C)","Relative Humidity":"77%","Pressure (altimeter)":"30.80 in. Hg (1043 hPa)","ob":"EPGD 292300Z 00000KT CAVOK M16/M19 Q1043 R11/190095","cycle":"23"},
{"_id":"4495a8a111ec85eb6d2389a681f48886","_rev":"1-3e609b67e005e4c4539418530d70658e","Location":"Gdansk-Rebiechowo, Poland (EPGD) 54-23N 018-28E 138M","Date":"Jan 15, 2012 - 08:00 AM EST / 2012.01.15 1300 UTC","Wind":"from the N (350 degrees) at 10 MPH (9 KT) (direction variable):0","Visibility":"greater than 7 mile(s):0","Sky conditions":"mostly cloudy","Temperature":"32 F (0 C)","Windchill":"23 F (-5 C):1","Dew Point":"26 F (-3 C)","Relative Humidity":"80%","Pressure (altimeter)":"30.06 in. Hg (1018 hPa)","ob":"EPGD 151300Z 35009KT 320V020 9999 FEW013 BKN017 00/M03 Q1018 R11/590142","cycle":"13"},
{"_id":"4495a8a111ec85eb6d2389a681f48dfe","_rev":"1-e87e7e081ad634b0f456cd8e94d4133c","Location":"Gdansk-Rebiechowo, Poland (EPGD) 54-23N 018-28E 138M","Date":"Jan 25, 2012 - 03:00 AM EST / 2012.01.25 0800 UTC","Wind":"from the W (270 degrees) at 3 MPH (3 KT):0","Visibility":"less than 1 mile:0","Sky conditions":"partly cloudy","Weather":"freezing fog","Temperature":"23 F (-5 C)","Dew Point":"21 F (-6 C)","Relative Humidity":"92%","Pressure (altimeter)":"30.18 in. Hg (1022 hPa)","ob":"EPGD 250800Z 27003KT 0900 R29/0225 FZFG SCT030 M05/M06 Q1022 R11/590052","cycle":"8"},
{"_id":"4495a8a111ec85eb6d2389a681f495fe","_rev":"1-f1e00bd0a126eac7c655f9c1f103b6a7","Location":"Gdansk-Rebiechowo, Poland (EPGD) 54-23N 018-28E 138M","Date":"Jan 16, 2012 - 12:00 AM EST / 2012.01.16 0500 UTC","Wind":"from the W (280 degrees) at 5 MPH (4 KT):0","Visibility":"4 mile(s):0","Sky conditions":"mostly cloudy","Weather":"light snow showers; Towering cumulus clouds observed","Temperature":"28 F (-2 C)","Windchill":"23 F (-5 C):1","Dew Point":"24 F (-4 C)","Relative Humidity":"86%","Pressure (altimeter)":"30.15 in. Hg (1021 hPa)","ob":"EPGD 160500Z 28004KT 8000 -SHSN FEW009 FEW020TCU BKN030 M02/M04 Q1021 R11/590345","cycle":"5"},
{"_id":"4495a8a111ec85eb6d2389a681f4a22d","_rev":"1-aaa6faf1b0b70a008f5a87309d620e9c","Location":"Gdansk-Rebiechowo, Poland (EPGD) 54-23N 018-28E 138M","Date":"Jan 09, 2012 - 02:00 AM EST / 2012.01.09 0700 UTC","Wind":"from the WNW (300 degrees) at 12 MPH (10 KT):0","Visibility":"greater than 7 mile(s):0","Sky conditions":"mostly cloudy","Temperature":"33 F (1 C)","Windchill":"24 F (-4 C):1","Dew Point":"30 F (-1 C)","Relative Humidity":"86%","Pressure (altimeter)":"30.03 in. Hg (1017 hPa)","ob":"EPGD 090700Z 30010KT 9999 FEW011 BKN031 01/M01 Q1017 R11/290095","cycle":"7"},
{"_id":"4495a8a111ec85eb6d2389a681f4b1f6","_rev":"1-1d18b8c3bca1768685d97e26638d5b54","Location":"Gdansk-Rebiechowo, Poland (EPGD) 54-23N 018-28E 138M","Date":"Feb 04, 2012 - 12:00 AM EST / 2012.02.04 0500 UTC","Wind":"from the S (180 degrees) at 3 MPH (3 KT) (direction variable):0","Visibility":"1 mile(s):0","Sky conditions":"mostly cloudy","Weather":"light snow; mist","Temperature":"8 F (-13 C)","Dew Point":"5 F (-15 C)","Relative Humidity":"84%","Pressure (altimeter)":"30.53 in. Hg (1034 hPa)","ob":"EPGD 040500Z 18003KT 120V220 2000 -SN BR FEW005 SCT011 BKN021 M13/M15 Q1034 R11/490148","cycle":"5"},
{"_id":"4495a8a111ec85eb6d2389a681f4c03c","_rev":"1-0838b51aa0748aca6daa58b91d0083c4","Location":"Gdansk-Rebiechowo, Poland (EPGD) 54-23N 018-28E 138M","Date":"Feb 14, 2012 - 09:00 AM EST / 2012.02.14 1400 UTC","Wind":"from the SW (220 degrees) at 8 MPH (7 KT) (direction variable):0","Visibility":"greater than 7 mile(s):0","Sky conditions":"mostly clear","Temperature":"30 F (-1 C)","Windchill":"23 F (-5 C):1","Dew Point":"21 F (-6 C)","Relative Humidity":"68%","Pressure (altimeter)":"29.80 in. Hg (1009 hPa)","ob":"EPGD 141400Z 22007KT 190V260 9999 FEW021 M01/M06 Q1009","cycle":"14"},
{"_id":"4495a8a111ec85eb6d2389a681f4c69e","_rev":"1-3956d74dfe661063f9c38c25dd1e741d","Location":"Gdansk-Rebiechowo, Poland (EPGD) 54-23N 018-28E 138M","Date":"Jan 14, 2012 - 05:00 PM EST / 2012.01.14 2200 UTC","Wind":"from the NNW (330 degrees) at 20 MPH (17 KT):0","Visibility":"greater than 7 mile(s):0","Sky conditions":"partly cloudy","Temperature":"32 F (0 C)","Windchill":"19 F (-7 C):1","Dew Point":"21 F (-6 C)","Relative Humidity":"63%","Pressure (altimeter)":"29.91 in. Hg (1013 hPa)","ob":"EPGD 142200Z 33017KT 9999 SCT030 00/M06 Q1013 R11/590255","cycle":"22"},
{"_id":"4495a8a111ec85eb6d2389a681f4d667","_rev":"1-b65f85ff21354bc6b637bb33d3fe207b","Location":"Gdansk-Rebiechowo, Poland (EPGD) 54-23N 018-28E 138M","Date":"Dec 25, 2011 - 10:00 AM EST / 2011.12.25 1500 UTC","Wind":"from the SW (230 degrees) at 10 MPH (9 KT) (direction variable):0","Visibility":"4 mile(s):0","Sky conditions":"mostly cloudy","Temperature":"39 F (4 C)","Dew Point":"35 F (2 C)","Relative Humidity":"86%","Pressure (altimeter)":"30.15 in. Hg (1021 hPa)","ob":"EPGD 251500Z 23009KT 180V260 8000 BKN005 04/02 Q1021","cycle":"15"},
{"_id":"4495a8a111ec85eb6d2389a681f4e52d","_rev":"1-2b1ded848267a2e6e7829f98388126a1","Location":"Gdansk-Rebiechowo, Poland (EPGD) 54-23N 018-28E 138M","Date":"Jan 13, 2012 - 12:00 AM EST / 2012.01.13 0500 UTC","Wind":"from the W (280 degrees) at 18 MPH (16 KT):0","Visibility":"greater than 7 mile(s):0","Sky conditions":"mostly clear","Temperature":"35 F (2 C)","Windchill":"24 F (-4 C):1","Dew Point":"28 F (-2 C)","Relative Humidity":"74%","Pressure (altimeter)":"29.50 in. Hg (0999 hPa)","ob":"EPGD 130500Z 28016KT 9999 FEW023 02/M02 Q0999","cycle":"5"},
{"_id":"4495a8a111ec85eb6d2389a681f4f0a3","_rev":"1-e49c97a2919fbdd0c6f38546c8c43d91","Location":"Gdansk-Rebiechowo, Poland (EPGD) 54-23N 018-28E 138M","Date":"Jan 18, 2012 - 10:00 PM EST / 2012.01.19 0300 UTC","Wind":"from the W (260 degrees) at 13 MPH (11 KT):0","Visibility":"3 mile(s):0","Sky conditions":"overcast","Weather":"light rain; mist","Temperature":"33 F (1 C)","Windchill":"23 F (-5 C):1","Dew Point":"32 F (0 C)","Relative Humidity":"93%","Pressure (altimeter)":"29.74 in. Hg (1007 hPa)","ob":"EPGD 190300Z 26011KT 5000 -RA BR OVC006 01/00 Q1007 R11/290095","cycle":"3"},
{"_id":"4495a8a111ec85eb6d2389a681f4f39b","_rev":"1-2f685537abbb1012eda15b2c1efad4e2","Location":"Gdansk-Rebiechowo, Poland (EPGD) 54-23N 018-28E 138M","Date":"Dec 17, 2011 - 07:00 PM EST / 2011.12.18 0000 UTC","Wind":"from the W (270 degrees) at 17 MPH (15 KT):0","Visibility":"4 mile(s):0","Sky conditions":"mostly cloudy","Weather":"light rain","Temperature":"35 F (2 C)","Windchill":"24 F (-4 C):1","Dew Point":"32 F (0 C)","Relative Humidity":"86%","Pressure (altimeter)":"29.15 in. Hg (0987 hPa)","ob":"EPGD 180000Z 27015KT 7000 -RA SCT005 BKN011 02/00 Q0987 R11/290064","cycle":"0"},
{"_id":"4495a8a111ec85eb6d2389a681f4ff50","_rev":"1-b2453a8a43f8bbdc3a5de30806d82200","Location":"Gdansk-Rebiechowo, Poland (EPGD) 54-23N 018-28E 138M","Date":"Jan 12, 2012 - 07:00 AM EST / 2012.01.12 1200 UTC","Wind":"from the WSW (240 degrees) at 16 MPH (14 KT) gusting to 29 MPH (25 KT) (direction variable):0","Visibility":"greater than 7 mile(s):0","Sky conditions":"mostly cloudy","Weather":"light drizzle","Temperature":"46 F (8 C)","Dew Point":"42 F (6 C)","Relative Humidity":"87%","Pressure (altimeter)":"29.59 in. Hg (1002 hPa)","ob":"EPGD 121200Z 24014G25KT 180V260 9999 -DZ BKN012 08/06 Q1002","cycle":"12"},
{"_id":"4495a8a111ec85eb6d2389a681f50c2f","_rev":"1-fdcc4d5bc991db34d9f5c6ef2c3b95de","Location":"Gdansk-Rebiechowo, Poland (EPGD) 54-23N 018-28E 138M","Date":"Dec 20, 2011 - 05:00 AM EST / 2011.12.20 1000 UTC","Wind":"from the S (180 degrees) at 5 MPH (4 KT) (direction variable):0","Visibility":"greater than 7 mile(s):0","Sky conditions":"mostly clear","Temperature":"33 F (1 C)","Windchill":"28 F (-2 C):1","Dew Point":"30 F (-1 C)","Relative Humidity":"86%","Pressure (altimeter)":"29.88 in. Hg (1012 hPa)","ob":"EPGD 201000Z 18004KT 130V220 9999 FEW008 01/M01 Q1012 R11/190095","cycle":"10"},
{"_id":"4495a8a111ec85eb6d2389a681f5106b","_rev":"1-63c75c211aeb1515bb890faf6afe3d8f","Location":"Gdansk-Rebiechowo, Poland (EPGD) 54-23N 018-28E 138M","Date":"Feb 09, 2012 - 05:00 PM EST / 2012.02.09 2200 UTC","Wind":"from the ESE (120 degrees) at 6 MPH (5 KT):0","Visibility":"greater than 7 mile(s):0","Sky conditions":"mostly cloudy","Temperature":"12 F (-11 C)","Windchill":"3 F (-16 C):1","Dew Point":"6 F (-14 C)","Relative Humidity":"78%","Pressure (altimeter)":"30.71 in. Hg (1040 hPa)","ob":"EPGD 092200Z 12005KT 9999 FEW009 BKN017 M11/M14 Q1040 R11/090095","cycle":"22"},
{"_id":"4495a8a111ec85eb6d2389a681f51acf","_rev":"1-660d5d4aeaf4957c01005afd8110f2cc","Location":"Gdansk-Rebiechowo, Poland (EPGD) 54-23N 018-28E 138M","Date":"Jan 30, 2012 - 12:00 AM EST / 2012.01.30 0500 UTC","Wind":"from the E (100 degrees) at 7 MPH (6 KT):0","Visibility":"greater than 7 mile(s):0","Temperature":"5 F (-15 C)","Windchill":"-7 F (-22 C):2","Dew Point":"-2 F (-19 C)","Relative Humidity":"71%","Pressure (altimeter)":"30.77 in. Hg (1042 hPa)","ob":"EPGD 300500Z 10006KT CAVOK M15/M19 Q1042 R11/190095","cycle":"5"},
{"_id":"4495a8a111ec85eb6d2389a681f51b7d","_rev":"1-2e184f6b53dcbebcdc45c222304d72f6","Location":"Gdansk-Rebiechowo, Poland (EPGD) 54-23N 018-28E 138M","Date":"Dec 27, 2011 - 08:00 PM EST / 2011.12.28 0100 UTC","Wind":"from the W (270 degrees) at 12 MPH (10 KT):0","Visibility":"greater than 7 mile(s):0","Sky conditions":"partly cloudy","Temperature":"37 F (3 C)","Dew Point":"33 F (1 C)","Relative Humidity":"86%","Pressure (altimeter)":"30.39 in. Hg (1029 hPa)","ob":"EPGD 280100Z 27010KT 9999 SCT009 03/01 Q1029","cycle":"1"},
{"_id":"4495a8a111ec85eb6d2389a681f51b9b","_rev":"1-667007390e11d5b4b56dcddc116d775d","Location":"Gdansk-Rebiechowo, Poland (EPGD) 54-23N 018-28E 138M","Date":"Feb 11, 2012 - 12:00 AM EST / 2012.02.11 0500 UTC","Wind":"from the W (270 degrees) at 3 MPH (3 KT):0","Visibility":"greater than 7 mile(s):0","Sky conditions":"mostly cloudy","Weather":"light snow","Temperature":"0 F (-18 C)","Dew Point":"-4 F (-20 C)","Relative Humidity":"84%","Pressure (altimeter)":"30.59 in. Hg (1036 hPa)","ob":"EPGD 110500Z 27003KT 9999 -SN FEW009 BKN030 M18/M20 Q1036 R11/090095","cycle":"5"},
{"_id":"4495a8a111ec85eb6d2389a681f5283e","_rev":"1-a4061e26d25d66baef36b7db0441ce6d","Location":"Gdansk-Rebiechowo, Poland (EPGD) 54-23N 018-28E 138M","Date":"Jan 09, 2012 - 08:00 AM EST / 2012.01.09 1300 UTC","Wind":"from the WNW (290 degrees) at 14 MPH (12 KT):0","Visibility":"greater than 7 mile(s):0","Sky conditions":"mostly cloudy","Temperature":"32 F (0 C)","Windchill":"21 F (-6 C):1","Dew Point":"24 F (-4 C)","Relative Humidity":"74%","Pressure (altimeter)":"30.09 in. Hg (1019 hPa)","ob":"EPGD 091300Z 29012KT 9999 BKN026 00/M04 Q1019 R11/290095","cycle":"13"},
{"_id":"4495a8a111ec85eb6d2389a681f52a7a","_rev":"1-b77341de6a13f3633903d3efb2d5cecf","Location":"Gdansk-Rebiechowo, Poland (EPGD) 54-23N 018-28E 138M","Date":"Jan 24, 2012 - 02:00 PM EST / 2012.01.24 1900 UTC","Wind":"from the WNW (300 degrees) at 3 MPH (3 KT):0","Visibility":"3 mile(s):0","Sky conditions":"mostly cloudy","Weather":"light snow showers; Towering cumulus clouds observed","Temperature":"32 F (0 C)","Dew Point":"30 F (-1 C)","Relative Humidity":"92%","Pressure (altimeter)":"30.06 in. Hg (1018 hPa)","ob":"EPGD 241900Z 30003KT 6000 -SHSN FEW006 BKN025TCU M00/M01 Q1018 R11/290095","cycle":"19"},
{"_id":"4495a8a111ec85eb6d2389a681f52c9b","_rev":"1-400266155ffa5154c5da2743c6d2c6aa","Location":"Gdansk-Rebiechowo, Poland (EPGD) 54-23N 018-28E 138M","Date":"Feb 11, 2012 - 10:00 PM EST / 2012.02.12 0300 UTC","Wind":"from the WSW (250 degrees) at 6 MPH (5 KT):0","Visibility":"greater than 7 mile(s):0","Sky conditions":"mostly cloudy","Weather":"light snow","Temperature":"19 F (-7 C)","Windchill":"10 F (-12 C):1","Dew Point":"14 F (-10 C)","Relative Humidity":"79%","Pressure (altimeter)":"30.39 in. Hg (1029 hPa)","ob":"EPGD 120300Z 25005KT 9999 -SN FEW020 SCT030 BKN040 M07/M10 Q1029 R29/490241","cycle":"3"},
{"_id":"4495a8a111ec85eb6d2389a681f53403","_rev":"1-ee5c1c3b09fd5bcdd4ad3b07e80dbdf3","Location":"Gdansk-Rebiechowo, Poland (EPGD) 54-23N 018-28E 138M","Date":"Jan 03, 2012 - 04:00 AM EST / 2012.01.03 0900 UTC","Wind":"from the SW (230 degrees) at 7 MPH (6 KT) (direction variable):0","Visibility":"greater than 7 mile(s):0","Sky conditions":"partly cloudy","Temperature":"39 F (4 C)","Dew Point":"33 F (1 C)","Relative Humidity":"80%","Pressure (altimeter)":"29.91 in. Hg (1013 hPa)","ob":"EPGD 030900Z 23006KT 190V270 9999 FEW015 SCT019 04/01 Q1013","cycle":"9"},
{"_id":"4495a8a111ec85eb6d2389a681f53bcf","_rev":"1-7b0f819ba0de4b03ea2de2a65d5a2d87","Location":"Gdansk-Rebiechowo, Poland (EPGD) 54-23N 018-28E 138M","Date":"Feb 19, 2012 - 05:00 AM EST / 2012.02.19 1000 UTC","Wind":"from the SSW (200 degrees) at 8 MPH (7 KT) (direction variable):0","Visibility":"4 mile(s):0","Sky conditions":"mostly cloudy","Weather":"light rain","Temperature":"37 F (3 C)","Dew Point":"35 F (2 C)","Relative Humidity":"93%","Pressure (altimeter)":"29.62 in. Hg (1003 hPa)","ob":"EPGD 191000Z 20007KT 170V230 7000 -RA FEW005 BKN006 03/02 Q1003 R11/290095","cycle":"10"},
{"_id":"4495a8a111ec85eb6d2389a681f53c41","_rev":"1-efc71bf7b8cbeeadbca7b769a485a9cd","Location":"Gdansk-Rebiechowo, Poland (EPGD) 54-23N 018-28E 138M","Date":"Jan 04, 2012 - 12:00 PM EST / 2012.01.04 1700 UTC","Wind":"from the W (260 degrees) at 24 MPH (21 KT):0","Visibility":"greater than 7 mile(s):0","Sky conditions":"mostly cloudy","Weather":"light rain showers","Temperature":"39 F (4 C)","Dew Point":"32 F (0 C)","Relative Humidity":"75%","Pressure (altimeter)":"29.44 in. Hg (0997 hPa)","ob":"EPGD 041700Z 26021KT 9999 -SHRA FEW013 BKN030 04/M00 Q0997","cycle":"17"},
{"_id":"4495a8a111ec85eb6d2389a681f54809","_rev":"1-6117183a31168df0c5d8c3af4e79f2ca","Location":"Gdansk-Rebiechowo, Poland (EPGD) 54-23N 018-28E 138M","Date":"Dec 19, 2011 - 06:00 PM EST / 2011.12.19 2300 UTC","Wind":"from the SW (220 degrees) at 9 MPH (8 KT) (direction variable):0","Visibility":"greater than 7 mile(s):0","Sky conditions":"mostly clear","Temperature":"33 F (1 C)","Windchill":"24 F (-4 C):1","Dew Point":"30 F (-1 C)","Relative Humidity":"86%","Pressure (altimeter)":"29.91 in. Hg (1013 hPa)","ob":"EPGD 192300Z 22008KT 180V260 9999 FEW019 01/M01 Q1013 R11/290095","cycle":"23"},
{"_id":"4495a8a111ec85eb6d2389a681f553f4","_rev":"1-6ceae6c4f91c6db8628b73d9c20dcfd5","Location":"Gdansk-Rebiechowo, Poland (EPGD) 54-23N 018-28E 138M","Date":"Feb 14, 2012 - 01:00 AM EST / 2012.02.14 0600 UTC","Wind":"from the SW (230 degrees) at 3 MPH (3 KT) (direction variable):0","Visibility":"greater than 7 mile(s):0","Temperature":"24 F (-4 C)","Dew Point":"21 F (-6 C)","Relative Humidity":"85%","Pressure (altimeter)":"29.94 in. Hg (1014 hPa)","ob":"EPGD 140600Z 23003KT 200V270 CAVOK M04/M06 Q1014 R11/190095","cycle":"6"},
{"_id":"4495a8a111ec85eb6d2389a681f56018","_rev":"1-9767a729c8d48db9474e5345ae882f0a","Location":"Gdansk-Rebiechowo, Poland (EPGD) 54-23N 018-28E 138M","Date":"Dec 30, 2011 - 12:00 AM EST / 2011.12.30 0500 UTC","Wind":"from the SSW (200 degrees) at 6 MPH (5 KT) (direction variable):0","Visibility":"greater than 7 mile(s):0","Sky conditions":"mostly cloudy","Temperature":"37 F (3 C)","Dew Point":"32 F (0 C)","Relative Humidity":"80%","Pressure (altimeter)":"29.44 in. Hg (0997 hPa)","ob":"EPGD 300500Z 20005KT 160V230 9999 BKN013 03/M00 Q0997","cycle":"5"},
{"_id":"4495a8a111ec85eb6d2389a681f56d0b","_rev":"1-37b477d6e097f2ca7d93c94f3ab02886","Location":"Gdansk-Rebiechowo, Poland (EPGD) 54-23N 018-28E 138M","Date":"Dec 24, 2011 - 11:00 PM EST / 2011.12.25 0400 UTC","Wind":"from the W (270 degrees) at 12 MPH (10 KT):0","Visibility":"greater than 7 mile(s):0","Sky conditions":"mostly clear","Temperature":"35 F (2 C)","Windchill":"26 F (-3 C):1","Dew Point":"32 F (0 C)","Relative Humidity":"86%","Pressure (altimeter)":"30.09 in. Hg (1019 hPa)","ob":"EPGD 250400Z 27010KT 9999 FEW017 02/00 Q1019","cycle":"4"},
{"_id":"4495a8a111ec85eb6d2389a681f56e51","_rev":"1-3bf823d65736edb0cbcd194aa194ca83","Location":"Gdansk-Rebiechowo, Poland (EPGD) 54-23N 018-28E 138M","Date":"Jan 20, 2012 - 05:00 PM EST / 2012.01.20 2200 UTC","Wind":"from the NNW (330 degrees) at 7 MPH (6 KT):0","Visibility":"4 mile(s):0","Sky conditions":"mostly cloudy","Weather":"light snow","Temperature":"33 F (1 C)","Windchill":"26 F (-3 C):1","Dew Point":"32 F (0 C)","Relative Humidity":"93%","Pressure (altimeter)":"29.62 in. Hg (1003 hPa)","ob":"EPGD 202200Z 33006KT 8000 -SN BKN003 01/M00 Q1003 R11/190095","cycle":"22"},
{"_id":"4495a8a111ec85eb6d2389a681f57e21","_rev":"1-8921c4817be67c9c678ca9ef6c247c9e","Location":"Gdansk-Rebiechowo, Poland (EPGD) 54-23N 018-28E 138M","Date":"Jan 21, 2012 - 01:00 AM EST / 2012.01.21 0600 UTC","Wind":"from the W (280 degrees) at 6 MPH (5 KT):0","Visibility":"greater than 7 mile(s):0","Sky conditions":"partly cloudy","Temperature":"30 F (-1 C)","Windchill":"23 F (-5 C):1","Dew Point":"24 F (-4 C)","Relative Humidity":"80%","Pressure (altimeter)":"29.71 in. Hg (1006 hPa)","ob":"EPGD 210600Z 28005KT 9999 SCT015 M01/M04 Q1006 R11/290095","cycle":"6"},
{"_id":"4495a8a111ec85eb6d2389a681f581c3","_rev":"1-ea5c174dc7820c42e48c592f34633740","Location":"Gdansk-Rebiechowo, Poland (EPGD) 54-23N 018-28E 138M","Date":"Dec 17, 2011 - 08:00 AM EST / 2011.12.17 1300 UTC","Wind":"from the WSW (250 degrees) at 13 MPH (11 KT):0","Visibility":"greater than 7 mile(s):0","Sky conditions":"mostly cloudy","Weather":"light rain","Temperature":"37 F (3 C)","Dew Point":"33 F (1 C)","Relative Humidity":"86%","Pressure (altimeter)":"28.85 in. Hg (0977 hPa)","ob":"EPGD 171300Z 25011KT 9999 -RA BKN009 03/01 Q0977 R11/290064","cycle":"13"},
{"_id":"4495a8a111ec85eb6d2389a681f59089","_rev":"1-33301932ae75fee21f563f8151baf9b9","Location":"Gdansk-Rebiechowo, Poland (EPGD) 54-23N 018-28E 138M","Date":"Feb 14, 2012 - 08:00 AM EST / 2012.02.14 1300 UTC","Wind":"from the SW (220 degrees) at 7 MPH (6 KT) (direction variable):0","Visibility":"greater than 7 mile(s):0","Sky conditions":"mostly clear","Temperature":"30 F (-1 C)","Windchill":"23 F (-5 C):1","Dew Point":"21 F (-6 C)","Relative Humidity":"68%","Pressure (altimeter)":"29.83 in. Hg (1010 hPa)","ob":"EPGD 141300Z 22006KT 180V250 9999 FEW021 M01/M06 Q1010","cycle":"13"},
{"_id":"4495a8a111ec85eb6d2389a681f5977a","_rev":"1-1ad3b5b0f5e228ef432830538825cb5d","Location":"Gdansk-Rebiechowo, Poland (EPGD) 54-23N 018-28E 138M","Date":"Jan 08, 2012 - 08:00 PM EST / 2012.01.09 0100 UTC","Wind":"from the NW (310 degrees) at 13 MPH (11 KT):0","Visibility":"greater than 7 mile(s):0","Sky conditions":"mostly cloudy","Temperature":"35 F (2 C)","Windchill":"26 F (-3 C):1","Dew Point":"32 F (0 C)","Relative Humidity":"86%","Pressure (altimeter)":"29.94 in. Hg (1014 hPa)","ob":"EPGD 090100Z 31011KT 9999 BKN010 BKN035 02/00 Q1014","cycle":"1"},
{"_id":"4495a8a111ec85eb6d2389a681f59b72","_rev":"1-f1f54c498d8d53ff920a578a8d0bb74f","Location":"Gdansk-Rebiechowo, Poland (EPGD) 54-23N 018-28E 138M","Date":"Dec 25, 2011 - 12:00 PM EST / 2011.12.25 1700 UTC","Wind":"from the WSW (240 degrees) at 9 MPH (8 KT) (direction variable):0","Visibility":"3 mile(s):0","Sky conditions":"mostly cloudy","Weather":"light drizzle; mist","Temperature":"39 F (4 C)","Dew Point":"37 F (3 C)","Relative Humidity":"93%","Pressure (altimeter)":"30.15 in. Hg (1021 hPa)","ob":"EPGD 251700Z 24008KT 200V260 5000 -DZ BR BKN005 04/03 Q1021","cycle":"17"},
{"_id":"4495a8a111ec85eb6d2389a681f5a4aa","_rev":"1-d4744732d959d45fbdda50ee28248894","Location":"Gdansk-Rebiechowo, Poland (EPGD) 54-23N 018-28E 138M","Date":"Jan 22, 2012 - 03:00 AM EST / 2012.01.22 0800 UTC","Wind":"from the SSW (210 degrees) at 8 MPH (7 KT) (direction variable):0","Visibility":"greater than 7 mile(s):0","Sky conditions":"mostly cloudy","Temperature":"33 F (1 C)","Windchill":"26 F (-3 C):1","Dew Point":"33 F (1 C)","Relative Humidity":"100%","Pressure (altimeter)":"29.23 in. Hg (0990 hPa)","ob":"EPGD 220800Z 21007KT 180V240 9999 BKN008 01/01 Q0990 R11/290066","cycle":"8"},
{"_id":"4495a8a111ec85eb6d2389a681f5a8be","_rev":"1-1cbded2abfb3fafaea268f1482921e84","Location":"Gdansk-Rebiechowo, Poland (EPGD) 54-23N 018-28E 138M","Date":"Dec 21, 2011 - 11:00 PM EST / 2011.12.22 0400 UTC","Wind":"Calm:0","Visibility":"1 mile(s):0","Weather":"mist","Temperature":"21 F (-6 C)","Dew Point":"19 F (-7 C)","Relative Humidity":"92%","Pressure (altimeter)":"30.06 in. Hg (1018 hPa)","ob":"EPGD 220400Z 00000KT 2500 BR NSC M06/M07 Q1018","cycle":"4"},
{"_id":"4495a8a111ec85eb6d2389a681f5aa8b","_rev":"1-50605d16223418f3ef736aaf81ff3816","Location":"Gdansk-Rebiechowo, Poland (EPGD) 54-23N 018-28E 138M","Date":"Dec 28, 2011 - 04:00 AM EST / 2011.12.28 0900 UTC","Wind":"from the WSW (250 degrees) at 8 MPH (7 KT):0","Visibility":"2 mile(s):0","Sky conditions":"mostly cloudy","Weather":"mist","Temperature":"35 F (2 C)","Windchill":"28 F (-2 C):1","Dew Point":"33 F (1 C)","Relative Humidity":"93%","Pressure (altimeter)":"30.30 in. Hg (1026 hPa)","ob":"EPGD 280900Z 25007KT 4000 BR BKN003 02/01 Q1026","cycle":"9"},
{"_id":"4495a8a111ec85eb6d2389a681f5adbb","_rev":"1-99046531f75ad8d374493dbd2c8df4b3","Location":"Gdansk-Rebiechowo, Poland (EPGD) 54-23N 018-28E 138M","Date":"Jan 31, 2012 - 11:00 PM EST / 2012.02.01 0400 UTC","Wind":"Calm:0","Visibility":"greater than 7 mile(s):0","Temperature":"-2 F (-19 C)","Dew Point":"-5 F (-21 C)","Relative Humidity":"84%","Pressure (altimeter)":"30.68 in. Hg (1039 hPa)","ob":"EPGD 010400Z 00000KT CAVOK M19/M21 Q1039 R11/190095","cycle":"4"},
{"_id":"4495a8a111ec85eb6d2389a681f5b172","_rev":"1-2d4c2815a7b3a934d05a6bb7bde365f0","Location":"Gdansk-Rebiechowo, Poland (EPGD) 54-23N 018-28E 138M","Date":"Dec 25, 2011 - 07:00 PM EST / 2011.12.26 0000 UTC","Wind":"from the WSW (240 degrees) at 21 MPH (18 KT):0","Visibility":"greater than 7 mile(s):0","Sky conditions":"mostly cloudy","Temperature":"44 F (7 C)","Dew Point":"41 F (5 C)","Relative Humidity":"87%","Pressure (altimeter)":"30.09 in. Hg (1019 hPa)","ob":"EPGD 260000Z 24018KT 9999 BKN007 07/05 Q1019","cycle":"0"},
{"_id":"4495a8a111ec85eb6d2389a681f5bbc5","_rev":"1-d85fa3b348339ca31cd1b1eb05e176ef","Location":"Gdansk-Rebiechowo, Poland (EPGD) 54-23N 018-28E 138M","Date":"Jan 13, 2012 - 07:00 AM EST / 2012.01.13 1200 UTC","Wind":"from the WNW (290 degrees) at 24 MPH (21 KT):0","Visibility":"greater than 7 mile(s):0","Sky conditions":"partly cloudy","Temperature":"37 F (3 C)","Dew Point":"28 F (-2 C)","Relative Humidity":"69%","Pressure (altimeter)":"29.50 in. Hg (0999 hPa)","ob":"EPGD 131200Z 29021KT 9999 SCT040 03/M02 Q0999","cycle":"12"},
{"_id":"4495a8a111ec85eb6d2389a681f5c34f","_rev":"1-740e247d4b5cdca6e4116596b461eeac","Location":"Gdansk-Rebiechowo, Poland (EPGD) 54-23N 018-28E 138M","Date":"Jan 07, 2012 - 08:00 PM EST / 2012.01.08 0100 UTC","Wind":"from the W (260 degrees) at 7 MPH (6 KT):0","Visibility":"greater than 7 mile(s):0","Sky conditions":"mostly cloudy","Temperature":"39 F (4 C)","Dew Point":"37 F (3 C)","Relative Humidity":"93%","Pressure (altimeter)":"29.56 in. Hg (1001 hPa)","ob":"EPGD 080100Z 26006KT 9999 BKN011 04/03 Q1001","cycle":"1"},
{"_id":"4495a8a111ec85eb6d2389a681f5c8c6","_rev":"1-ba32254c249b210dd8eefb3ae0d17395","Location":"Gdansk-Rebiechowo, Poland (EPGD) 54-23N 018-28E 138M","Date":"Dec 21, 2011 - 05:00 AM EST / 2011.12.21 1000 UTC","Wind":"from the ESE (120 degrees) at 3 MPH (3 KT) (direction variable):0","Visibility":"2 mile(s):0","Weather":"mist","Temperature":"26 F (-3 C)","Dew Point":"24 F (-4 C)","Relative Humidity":"92%","Pressure (altimeter)":"29.80 in. Hg (1009 hPa)","ob":"EPGD 211000Z 12003KT 090V170 4000 BR NSC M03/M04 Q1009 R11/190095","cycle":"10"},
{"_id":"4495a8a111ec85eb6d2389a681f5d496","_rev":"1-53a86a348357f215b11fc0a190d453ee","Location":"Gdansk-Rebiechowo, Poland (EPGD) 54-23N 018-28E 138M","Date":"Feb 01, 2012 - 05:00 PM EST / 2012.02.01 2200 UTC","Wind":"Calm:0","Visibility":"3 mile(s):0","Sky conditions":"mostly cloudy","Weather":"light snow","Temperature":"8 F (-13 C)","Dew Point":"3 F (-16 C)","Relative Humidity":"78%","Pressure (altimeter)":"30.65 in. Hg (1038 hPa)","ob":"EPGD 012200Z 00000KT 6000 -SN SCT011 BKN025 M13/M16 Q1038 R11/490150","cycle":"22"},
{"_id":"4495a8a111ec85eb6d2389a681f5d5f1","_rev":"1-c578ddd0737b348acf1f38d4f02b5586","Location":"Gdansk-Rebiechowo, Poland (EPGD) 54-23N 018-28E 138M","Date":"Dec 23, 2011 - 05:00 AM EST / 2011.12.23 1000 UTC","Wind":"from the S (170 degrees) at 6 MPH (5 KT) (direction variable):0","Visibility":"3 mile(s):0","Sky conditions":"overcast","Temperature":"33 F (1 C)","Windchill":"26 F (-3 C):1","Dew Point":"30 F (-1 C)","Relative Humidity":"86%","Pressure (altimeter)":"30.03 in. Hg (1017 hPa)","ob":"EPGD 231000Z 17005KT 120V210 6000 OVC006 01/M01 Q1017","cycle":"10"},
{"_id":"4495a8a111ec85eb6d2389a681f5e391","_rev":"1-ba1237e8f17224eb87fbcad402cc2738","Location":"Gdansk-Rebiechowo, Poland (EPGD) 54-23N 018-28E 138M","Date":"Jan 30, 2012 - 10:00 PM EST / 2012.01.31 0300 UTC","Wind":"from the ESE (120 degrees) at 5 MPH (4 KT):0","Visibility":"greater than 7 mile(s):0","Temperature":"3 F (-16 C)","Windchill":"-7 F (-22 C):2","Dew Point":"0 F (-18 C)","Relative Humidity":"84%","Pressure (altimeter)":"30.74 in. Hg (1041 hPa)","ob":"EPGD 310300Z 12004KT CAVOK M16/M18 Q1041","cycle":"3"},
{"_id":"4495a8a111ec85eb6d2389a681f5f2f3","_rev":"1-fb25e8fb93e7d1f904efddbaf0269899","Location":"Gdansk-Rebiechowo, Poland (EPGD) 54-23N 018-28E 138M","Date":"Feb 16, 2012 - 06:00 AM EST / 2012.02.16 1100 UTC","Wind":"from the ENE (070 degrees) at 3 MPH (3 KT):0","Visibility":"greater than 7 mile(s):0","Sky conditions":"mostly clear","Temperature":"30 F (-1 C)","Dew Point":"21 F (-6 C)","Relative Humidity":"68%","Pressure (altimeter)":"29.97 in. Hg (1015 hPa)","ob":"EPGD 161100Z 07003KT 9999 FEW021 M01/M06 Q1015 R11/490075","cycle":"11"},
{"_id":"4495a8a111ec85eb6d2389a681f60137","_rev":"1-87e149ed6b6663a58dfd45767d6f6390","Location":"Gdansk-Rebiechowo, Poland (EPGD) 54-23N 018-28E 138M","Date":"Feb 13, 2012 - 06:00 PM EST / 2012.02.13 2300 UTC","Wind":"from the WSW (240 degrees) at 3 MPH (3 KT):0","Visibility":"greater than 7 mile(s):0","Temperature":"26 F (-3 C)","Dew Point":"23 F (-5 C)","Relative Humidity":"86%","Pressure (altimeter)":"29.97 in. Hg (1015 hPa)","ob":"EPGD 132300Z 24003KT CAVOK M03/M05 Q1015 R11/190095","cycle":"23"},
{"_id":"4495a8a111ec85eb6d2389a681f60d95","_rev":"1-b4e07ead53e607045700d83582c19089","Location":"Gdansk-Rebiechowo, Poland (EPGD) 54-23N 018-28E 138M","Date":"Jan 13, 2012 - 08:00 PM EST / 2012.01.14 0100 UTC","Wind":"from the NW (310 degrees) at 16 MPH (14 KT):0","Visibility":"4 mile(s):0","Sky conditions":"mostly cloudy","Weather":"light snow; low drifting snow","Temperature":"30 F (-1 C)","Windchill":"19 F (-7 C):1","Dew Point":"28 F (-2 C)","Relative Humidity":"92%","Pressure (altimeter)":"29.62 in. Hg (1003 hPa)","ob":"EPGD 140100Z 31014KT 8000 -SN DRSN FEW009 BKN028 M01/M02 Q1003 RESN R11/590195","cycle":"1"},
{"_id":"4495a8a111ec85eb6d2389a681f611fc","_rev":"1-dd7d886e28d762baffb5f7a1ec66cd5b","Location":"Gdansk-Rebiechowo, Poland (EPGD) 54-23N 018-28E 138M","Date":"Jan 23, 2012 - 03:00 AM EST / 2012.01.23 0800 UTC","Wind":"from the WNW (290 degrees) at 10 MPH (9 KT):0","Visibility":"greater than 7 mile(s):0","Sky conditions":"mostly cloudy","Weather":"light rain showers","Temperature":"35 F (2 C)","Windchill":"26 F (-3 C):1","Dew Point":"32 F (0 C)","Relative Humidity":"86%","Pressure (altimeter)":"29.50 in. Hg (0999 hPa)","ob":"EPGD 230800Z 29009KT 9999 -SHRA SCT008 BKN030 02/00 Q0999","cycle":"8"},
{"_id":"4495a8a111ec85eb6d2389a681f61f2d","_rev":"1-01774dfd7590464d181ac83414b53414","Location":"Gdansk-Rebiechowo, Poland (EPGD) 54-23N 018-28E 138M","Date":"Dec 24, 2011 - 11:00 AM EST / 2011.12.24 1600 UTC","Wind":"from the WSW (240 degrees) at 6 MPH (5 KT) (direction variable):0","Visibility":"1 mile(s):0","Sky conditions":"mostly cloudy","Weather":"light rain; mist","Temperature":"41 F (5 C)","Dew Point":"39 F (4 C)","Relative Humidity":"93%","Pressure (altimeter)":"29.80 in. Hg (1009 hPa)","ob":"EPGD 241600Z 24005KT 200V280 2500 -RA BR BKN003 05/04 Q1009","cycle":"16"},
{"_id":"4495a8a111ec85eb6d2389a681f62be2","_rev":"1-e5038c3666e56cffd4f1fe60a30e6528","Location":"Gdansk-Rebiechowo, Poland (EPGD) 54-23N 018-28E 138M","Date":"Jan 24, 2012 - 08:00 PM EST / 2012.01.25 0100 UTC","Wind":"from the WNW (290 degrees) at 5 MPH (4 KT):0","Visibility":"greater than 7 mile(s):0","Sky conditions":"mostly cloudy","Temperature":"28 F (-2 C)","Windchill":"23 F (-5 C):1","Dew Point":"24 F (-4 C)","Relative Humidity":"86%","Pressure (altimeter)":"30.12 in. Hg (1020 hPa)","ob":"EPGD 250100Z 29004KT 9999 FEW015 BKN027 M02/M04 Q1020 R11/590249","cycle":"1"},
{"_id":"4495a8a111ec85eb6d2389a681f63988","_rev":"1-44e9b320112dd3a7fe1d3c1462b65b7f","Location":"Gdansk-Rebiechowo, Poland (EPGD) 54-23N 018-28E 138M","Date":"Feb 02, 2012 - 06:00 PM EST / 2012.02.02 2300 UTC","Wind":"Variable at 1 MPH (1 KT):0","Visibility":"1 mile(s):0","Weather":"mist","Temperature":"-11 F (-24 C)","Dew Point":"-16 F (-27 C)","Relative Humidity":"76%","Pressure (altimeter)":"30.53 in. Hg (1034 hPa)","ob":"EPGD 022300Z VRB01KT 1800 BR NSC M24/M27 Q1034 R11/190095","cycle":"23"},
{"_id":"4495a8a111ec85eb6d2389a681f63a39","_rev":"1-b603e7b5fe4d8496f45e17ad409968f4","Location":"Gdansk-Rebiechowo, Poland (EPGD) 54-23N 018-28E 138M","Date":"Dec 25, 2011 - 07:00 AM EST / 2011.12.25 1200 UTC","Wind":"from the WSW (240 degrees) at 14 MPH (12 KT):0","Visibility":"greater than 7 mile(s):0","Sky conditions":"mostly cloudy","Temperature":"39 F (4 C)","Dew Point":"35 F (2 C)","Relative Humidity":"86%","Pressure (altimeter)":"30.12 in. Hg (1020 hPa)","ob":"EPGD 251200Z 24012KT 9999 BKN009 04/02 Q1020","cycle":"12"},
{"_id":"4495a8a111ec85eb6d2389a681f64408","_rev":"1-7e64702e8d8c340fa390e1474d39b995","Location":"Gdansk-Rebiechowo, Poland (EPGD) 54-23N 018-28E 138M","Date":"Jan 13, 2012 - 10:00 AM EST / 2012.01.13 1500 UTC","Wind":"from the W (280 degrees) at 20 MPH (17 KT):0","Visibility":"greater than 7 mile(s):0","Sky conditions":"mostly clear","Temperature":"33 F (1 C)","Windchill":"21 F (-6 C):1","Dew Point":"26 F (-3 C)","Relative Humidity":"74%","Pressure (altimeter)":"29.53 in. Hg (1000 hPa)","ob":"EPGD 131500Z 28017KT 9999 FEW026 01/M03 Q1000","cycle":"15"},
{"_id":"4495a8a111ec85eb6d2389a681f64707","_rev":"1-309483eb78fd023afe4b0ea7e08d67c3","Location":"Gdansk-Rebiechowo, Poland (EPGD) 54-23N 018-28E 138M","Date":"Feb 15, 2012 - 07:00 AM EST / 2012.02.15 1200 UTC","Wind":"from the NNE (020 degrees) at 7 MPH (6 KT) (direction variable):0","Visibility":"1 mile(s):0","Sky conditions":"mostly cloudy","Weather":"light snow; mist","Temperature":"26 F (-3 C)","Windchill":"17 F (-8 C):1","Dew Point":"24 F (-4 C)","Relative Humidity":"92%","Pressure (altimeter)":"29.09 in. Hg (0985 hPa)","ob":"EPGD 151200Z 02006KT 1800 R29/1200V1300 -SN BR SCT005 BKN007 M03/M04 Q0985 R11/490157","cycle":"12"},
{"_id":"4495a8a111ec85eb6d2389a681f64f16","_rev":"1-2d01908de47116be4e31535803a52ba5","Location":"Gdansk-Rebiechowo, Poland (EPGD) 54-23N 018-28E 138M","Date":"Jan 14, 2012 - 02:00 AM EST / 2012.01.14 0700 UTC","Wind":"from the NW (320 degrees) at 23 MPH (20 KT):0","Visibility":"less than 1 mile:0","Sky conditions":"mostly cloudy","Weather":"heavy snow showers; low drifting snow; Cumulonimbus clouds observed","Temperature":"30 F (-1 C)","Windchill":"15 F (-9 C):1","Dew Point":"24 F (-4 C)","Relative Humidity":"80%","Pressure (altimeter)":"29.71 in. Hg (1006 hPa)","ob":"EPGD 140700Z 32020KT 1200 +SHSN DRSN FEW011 BKN018CB M01/M04 Q1006 R11/590195","cycle":"7"},
{"_id":"4495a8a111ec85eb6d2389a681f65ab0","_rev":"1-d30063e81d66319394f7362ee899fe9d","Location":"Gdansk-Rebiechowo, Poland (EPGD) 54-23N 018-28E 138M","Date":"Jan 02, 2012 - 12:00 AM EST / 2012.01.02 0500 UTC","Wind":"from the S (170 degrees) at 9 MPH (8 KT) (direction variable):0","Visibility":"1 mile(s):0","Sky conditions":"mostly cloudy","Weather":"light rain; mist","Temperature":"42 F (6 C)","Dew Point":"42 F (6 C)","Relative Humidity":"100%","Pressure (altimeter)":"29.56 in. Hg (1001 hPa)","ob":"EPGD 020500Z 17008KT 140V200 2500 -RA BR SCT003 BKN009 06/06 Q1001","cycle":"5"},
{"_id":"4495a8a111ec85eb6d2389a681f66387","_rev":"1-63bdb2489642157cc9b2083f7c206620","Location":"Gdansk-Rebiechowo, Poland (EPGD) 54-23N 018-28E 138M","Date":"Feb 04, 2012 - 12:00 PM EST / 2012.02.04 1700 UTC","Wind":"from the ESE (110 degrees) at 8 MPH (7 KT):0","Visibility":"1 mile(s):0","Sky conditions":"mostly cloudy","Weather":"light snow; mist","Temperature":"5 F (-15 C)","Windchill":"-7 F (-22 C):2","Dew Point":"1 F (-17 C)","Relative Humidity":"84%","Pressure (altimeter)":"30.59 in. Hg (1036 hPa)","ob":"EPGD 041700Z 11007KT 2000 -SN BR FEW009 BKN012 M15/M17 Q1036 R11/490136","cycle":"17"},
{"_id":"4495a8a111ec85eb6d2389a681f67292","_rev":"1-e5882eeee0587568ce8dec470f45ee07","Location":"Gdansk-Rebiechowo, Poland (EPGD) 54-23N 018-28E 138M","Date":"Jan 09, 2012 - 03:00 PM EST / 2012.01.09 2000 UTC","Wind":"from the S (190 degrees) at 3 MPH (3 KT) (direction variable):0","Visibility":"greater than 7 mile(s):0","Sky conditions":"mostly cloudy","Temperature":"30 F (-1 C)","Dew Point":"24 F (-4 C)","Relative Humidity":"80%","Pressure (altimeter)":"30.06 in. Hg (1018 hPa)","ob":"EPGD 092000Z 19003KT 160V220 9999 BKN027 M01/M04 Q1018 R11/290095","cycle":"20"},
{"_id":"4495a8a111ec85eb6d2389a681f676bf","_rev":"1-c91ffb416bd0a7001822e27a2d00319b","Location":"Gdansk-Rebiechowo, Poland (EPGD) 54-23N 018-28E 138M","Date":"Jan 12, 2012 - 11:00 AM EST / 2012.01.12 1600 UTC","Wind":"from the WSW (240 degrees) at 22 MPH (19 KT) gusting to 36 MPH (31 KT) (direction variable):0","Visibility":"2 mile(s):0","Sky conditions":"mostly cloudy","Weather":"light rain showers; Cumulonimbus clouds observed","Temperature":"44 F (7 C)","Dew Point":"41 F (5 C)","Relative Humidity":"87%","Pressure (altimeter)":"29.35 in. Hg (0994 hPa)","ob":"EPGD 121600Z 24019G31KT 200V260 4000 -SHRA SCT014 BKN017CB 07/05 Q0994","cycle":"16"},
{"_id":"4495a8a111ec85eb6d2389a681f68172","_rev":"1-57322db4472f4fd3a85c2db8cf753e45","Location":"Gdansk-Rebiechowo, Poland (EPGD) 54-23N 018-28E 138M","Date":"Jan 05, 2012 - 04:00 PM EST / 2012.01.05 2100 UTC","Wind":"from the SSW (200 degrees) at 9 MPH (8 KT) (direction variable):0","Visibility":"greater than 7 mile(s):0","Sky conditions":"mostly cloudy","Weather":"light rain showers","Temperature":"37 F (3 C)","Dew Point":"33 F (1 C)","Relative Humidity":"86%","Pressure (altimeter)":"28.70 in. Hg (0972 hPa)","ob":"EPGD 052100Z 20008KT 170V250 9999 -SHRA BKN011 03/01 Q0972","cycle":"21"},
{"_id":"4495a8a111ec85eb6d2389a681f68cb3","_rev":"1-1271ae114d4cf3f5910ce5cd7d87a1c8","Location":"Gdansk-Rebiechowo, Poland (EPGD) 54-23N 018-28E 138M","Date":"Jan 27, 2012 - 01:00 AM EST / 2012.01.27 0600 UTC","Wind":"from the SE (130 degrees) at 6 MPH (5 KT):0","Visibility":"2 mile(s):0","Weather":"mist","Temperature":"10 F (-12 C)","Windchill":"0 F (-18 C):1","Dew Point":"6 F (-14 C)","Relative Humidity":"85%","Pressure (altimeter)":"30.47 in. Hg (1032 hPa)","ob":"EPGD 270600Z 13005KT 4000 BR NSC M12/M14 Q1032 R11/190095","cycle":"6"},
{"_id":"4495a8a111ec85eb6d2389a681f68ed2","_rev":"1-3d04d838211e6d4cf990188a8ad72029","Location":"Gdansk-Rebiechowo, Poland (EPGD) 54-23N 018-28E 138M","Date":"Dec 29, 2011 - 03:00 PM EST / 2011.12.29 2000 UTC","Wind":"from the SW (230 degrees) at 15 MPH (13 KT) gusting to 26 MPH (23 KT) (direction variable):0","Visibility":"greater than 7 mile(s):0","Sky conditions":"mostly cloudy","Temperature":"39 F (4 C)","Dew Point":"32 F (0 C)","Relative Humidity":"75%","Pressure (altimeter)":"29.62 in. Hg (1003 hPa)","ob":"EPGD 292000Z 23013G23KT 200V270 9999 FEW021 BKN030 04/M00 Q1003","cycle":"20"},
{"_id":"4495a8a111ec85eb6d2389a681f69cbf","_rev":"1-98a96eca1001574d5765fb47047402dd","Location":"Gdansk-Rebiechowo, Poland (EPGD) 54-23N 018-28E 138M","Date":"Jan 30, 2012 - 11:00 PM EST / 2012.01.31 0400 UTC","Wind":"from the ESE (120 degrees) at 6 MPH (5 KT):0","Visibility":"greater than 7 mile(s):0","Temperature":"3 F (-16 C)","Windchill":"-7 F (-22 C):2","Dew Point":"0 F (-18 C)","Relative Humidity":"84%","Pressure (altimeter)":"30.74 in. Hg (1041 hPa)","ob":"EPGD 310400Z 12005KT CAVOK M16/M18 Q1041","cycle":"4"},
{"_id":"4495a8a111ec85eb6d2389a681f6a482","_rev":"1-9bfe4b66c0ae48ae876b3c63deb7d541","Location":"Gdansk-Rebiechowo, Poland (EPGD) 54-23N 018-28E 138M","Date":"Feb 05, 2012 - 12:00 PM EST / 2012.02.05 1700 UTC","Wind":"Calm:0","Visibility":"greater than 7 mile(s):0","Temperature":"-2 F (-19 C)","Dew Point":"-11 F (-24 C)","Relative Humidity":"64%","Pressure (altimeter)":"30.71 in. Hg (1040 hPa)","ob":"EPGD 051700Z 00000KT CAVOK M19/M24 Q1040 R11/190095","cycle":"17"},
{"_id":"4495a8a111ec85eb6d2389a681f6b273","_rev":"1-5c97996b4191b3de76d48de5c15c4400","Location":"Gdansk-Rebiechowo, Poland (EPGD) 54-23N 018-28E 138M","Date":"Jan 28, 2012 - 10:00 PM EST / 2012.01.29 0300 UTC","Wind":"from the ESE (120 degrees) at 7 MPH (6 KT):0","Visibility":"greater than 7 mile(s):0","Temperature":"8 F (-13 C)","Windchill":"-4 F (-20 C):1","Dew Point":"3 F (-16 C)","Relative Humidity":"78%","Pressure (altimeter)":"30.68 in. Hg (1039 hPa)","ob":"EPGD 290300Z 12006KT CAVOK M13/M16 Q1039","cycle":"3"},
{"_id":"4495a8a111ec85eb6d2389a681f6b88e","_rev":"1-34e47b42f759c86cbe8886520e3b7419","Location":"Gdansk-Rebiechowo, Poland (EPGD) 54-23N 018-28E 138M","Date":"Dec 27, 2011 - 07:00 PM EST / 2011.12.28 0000 UTC","Wind":"from the W (270 degrees) at 13 MPH (11 KT):0","Visibility":"greater than 7 mile(s):0","Sky conditions":"partly cloudy","Temperature":"39 F (4 C)","Dew Point":"35 F (2 C)","Relative Humidity":"86%","Pressure (altimeter)":"30.39 in. Hg (1029 hPa)","ob":"EPGD 280000Z 27011KT 9999 SCT009 04/02 Q1029","cycle":"0"},
{"_id":"4495a8a111ec85eb6d2389a681f6c6f0","_rev":"1-e1a1318234ad2caf90fc4f421d6b040f","Location":"Gdansk-Rebiechowo, Poland (EPGD) 54-23N 018-28E 138M","Date":"Jan 08, 2012 - 04:00 AM EST / 2012.01.08 0900 UTC","Wind":"from the WSW (240 degrees) at 5 MPH (4 KT) (direction variable):0","Visibility":"greater than 7 mile(s):0","Sky conditions":"mostly cloudy","Temperature":"39 F (4 C)","Dew Point":"35 F (2 C)","Relative Humidity":"86%","Pressure (altimeter)":"29.68 in. Hg (1005 hPa)","ob":"EPGD 080900Z 24004KT 200V270 9999 BKN011 04/02 Q1005","cycle":"9"},
{"_id":"4495a8a111ec85eb6d2389a681f6c8ed","_rev":"1-48d839425bb21571e7753b1e66bd609d","Location":"Gdansk-Rebiechowo, Poland (EPGD) 54-23N 018-28E 138M","Date":"Feb 12, 2012 - 12:00 AM EST / 2012.02.12 0500 UTC","Wind":"from the W (260 degrees) at 5 MPH (4 KT):0","Visibility":"greater than 7 mile(s):0","Sky conditions":"mostly cloudy","Temperature":"15 F (-9 C)","Windchill":"6 F (-14 C):1","Dew Point":"10 F (-12 C)","Relative Humidity":"78%","Pressure (altimeter)":"30.36 in. Hg (1028 hPa)","ob":"EPGD 120500Z 26004KT 9999 BKN038 M09/M12 Q1028 R29/490241","cycle":"5"},
{"_id":"4495a8a111ec85eb6d2389a681f6d83e","_rev":"1-d27f6a7ed8f63a27e92f5305b46b0fa6","Location":"Gdansk-Rebiechowo, Poland (EPGD) 54-23N 018-28E 138M","Date":"Feb 14, 2012 - 12:00 AM EST / 2012.02.14 0500 UTC","Wind":"Variable at 1 MPH (1 KT):0","Visibility":"greater than 7 mile(s):0","Temperature":"24 F (-4 C)","Dew Point":"21 F (-6 C)","Relative Humidity":"85%","Pressure (altimeter)":"29.94 in. Hg (1014 hPa)","ob":"EPGD 140500Z VRB01KT CAVOK M04/M06 Q1014 R11/190095","cycle":"5"},
{"_id":"4495a8a111ec85eb6d2389a681f6e60d","_rev":"1-1aaea6130135c8027042e4f67ff02a06","Location":"Gdansk-Rebiechowo, Poland (EPGD) 54-23N 018-28E 138M","Date":"Dec 19, 2011 - 05:00 PM EST / 2011.12.19 2200 UTC","Wind":"from the SW (220 degrees) at 8 MPH (7 KT) (direction variable):0","Visibility":"greater than 7 mile(s):0","Sky conditions":"partly cloudy","Temperature":"33 F (1 C)","Windchill":"26 F (-3 C):1","Dew Point":"30 F (-1 C)","Relative Humidity":"86%","Pressure (altimeter)":"29.91 in. Hg (1013 hPa)","ob":"EPGD 192200Z 22007KT 180V270 9999 SCT015 01/M01 Q1013 R11/290095","cycle":"22"},
{"_id":"4495a8a111ec85eb6d2389a681f6ef21","_rev":"1-e0ae0f2bf9930a0b8e597c095abfc5c6","Location":"Gdansk-Rebiechowo, Poland (EPGD) 54-23N 018-28E 138M","Date":"Jan 02, 2012 - 07:00 AM EST / 2012.01.02 1200 UTC","Wind":"from the W (280 degrees) at 9 MPH (8 KT):0","Visibility":"4 mile(s):0","Sky conditions":"mostly cloudy","Weather":"light rain","Temperature":"48 F (9 C)","Dew Point":"46 F (8 C)","Relative Humidity":"93%","Pressure (altimeter)":"29.59 in. Hg (1002 hPa)","ob":"EPGD 021200Z 28008KT 8000 -RA FEW007 BKN009 09/08 Q1002","cycle":"12"},
{"_id":"4495a8a111ec85eb6d2389a681f6fdc1","_rev":"1-f6879c50aa1a004e9bf37b3741ee98f7","Location":"Gdansk-Rebiechowo, Poland (EPGD) 54-23N 018-28E 138M","Date":"Jan 11, 2012 - 07:00 AM EST / 2012.01.11 1200 UTC","Wind":"from the W (260 degrees) at 14 MPH (12 KT):0","Visibility":"1 mile(s):0","Sky conditions":"mostly cloudy","Weather":"light rain; mist","Temperature":"41 F (5 C)","Dew Point":"39 F (4 C)","Relative Humidity":"93%","Pressure (altimeter)":"30.00 in. Hg (1016 hPa)","ob":"EPGD 111200Z 26012KT 3000 -RA BR BKN007 05/04 Q1016 R11/290095","cycle":"12"},
{"_id":"4495a8a111ec85eb6d2389a681f70490","_rev":"1-6dc1c29306bf94c8e5b1e6b33d1e4e91","Location":"Gdansk-Rebiechowo, Poland (EPGD) 54-23N 018-28E 138M","Date":"Jan 14, 2012 - 10:00 AM EST / 2012.01.14 1500 UTC","Wind":"from the NW (320 degrees) at 20 MPH (17 KT):0","Visibility":"less than 1 mile:0","Sky conditions":"partly cloudy","Weather":"snow showers; Towering cumulus clouds observed","Temperature":"30 F (-1 C)","Windchill":"17 F (-8 C):1","Dew Point":"26 F (-3 C)","Relative Humidity":"86%","Pressure (altimeter)":"29.83 in. Hg (1010 hPa)","ob":"EPGD 141500Z 32017KT 1000 SHSN SCT006 SCT009TCU SCT017 M01/M03 Q1010 R11/590237","cycle":"15"},
{"_id":"4495a8a111ec85eb6d2389a681f70590","_rev":"1-a7c0ca4e249d65febdf93f8ab823d46b","Location":"Gdansk-Rebiechowo, Poland (EPGD) 54-23N 018-28E 138M","Date":"Jan 23, 2012 - 04:00 AM EST / 2012.01.23 0900 UTC","Wind":"from the W (280 degrees) at 10 MPH (9 KT):0","Visibility":"greater than 7 mile(s):0","Sky conditions":"mostly cloudy","Temperature":"35 F (2 C)","Windchill":"26 F (-3 C):1","Dew Point":"32 F (0 C)","Relative Humidity":"86%","Pressure (altimeter)":"29.53 in. Hg (1000 hPa)","ob":"EPGD 230900Z 28009KT 9999 SCT008 BKN045 02/00 Q1000","cycle":"9"},
{"_id":"4495a8a111ec85eb6d2389a681f712e2","_rev":"1-7fa3fd3cc2166b09bb49b2a1cc318bd1","Location":"Gdansk-Rebiechowo, Poland (EPGD) 54-23N 018-28E 138M","Date":"Feb 05, 2012 - 07:00 PM EST / 2012.02.06 0000 UTC","Wind":"Variable at 2 MPH (2 KT):0","Visibility":"1 mile(s):0","Sky conditions":"mostly clear","Weather":"mist","Temperature":"-14 F (-26 C)","Dew Point":"-20 F (-29 C)","Relative Humidity":"75%","Pressure (altimeter)":"30.71 in. Hg (1040 hPa)","ob":"EPGD 060000Z VRB02KT 2500 BR FEW007 M26/M29 Q1040 R11/190095","cycle":"0"},
{"_id":"4495a8a111ec85eb6d2389a681f7182d","_rev":"1-9449849c3334f484e8931873d2b0ad0b","Location":"Gdansk-Rebiechowo, Poland (EPGD) 54-23N 018-28E 138M","Date":"Jan 13, 2012 - 03:00 AM EST / 2012.01.13 0800 UTC","Wind":"from the W (270 degrees) at 15 MPH (13 KT):0","Visibility":"greater than 7 mile(s):0","Sky conditions":"mostly clear","Temperature":"35 F (2 C)","Windchill":"24 F (-4 C):1","Dew Point":"28 F (-2 C)","Relative Humidity":"74%","Pressure (altimeter)":"29.53 in. Hg (1000 hPa)","ob":"EPGD 130800Z 27013KT 9999 FEW030 02/M02 Q1000","cycle":"8"},
{"_id":"4495a8a111ec85eb6d2389a681f72200","_rev":"1-a5cc3f183f58dcb1e66ea8c32164ed12","Location":"Gdansk-Rebiechowo, Poland (EPGD) 54-23N 018-28E 138M","Date":"Dec 19, 2011 - 10:00 AM EST / 2011.12.19 1500 UTC","Wind":"from the SW (220 degrees) at 15 MPH (13 KT) (direction variable):0","Visibility":"greater than 7 mile(s):0","Sky conditions":"mostly cloudy","Temperature":"37 F (3 C)","Dew Point":"30 F (-1 C)","Relative Humidity":"74%","Pressure (altimeter)":"29.80 in. Hg (1009 hPa)","ob":"EPGD 191500Z 22013KT 190V250 9999 BKN019 03/M01 Q1009 R11/290095","cycle":"15"},
{"_id":"4495a8a111ec85eb6d2389a681f72b7f","_rev":"1-3cae613397e9df7fb84336608299a8bd","Location":"Gdansk-Rebiechowo, Poland (EPGD) 54-23N 018-28E 138M","Date":"Jan 27, 2012 - 10:00 PM EST / 2012.01.28 0300 UTC","Wind":"from the ESE (110 degrees) at 8 MPH (7 KT):0","Visibility":"greater than 7 mile(s):0","Temperature":"6 F (-14 C)","Windchill":"-7 F (-22 C):2","Dew Point":"3 F (-16 C)","Relative Humidity":"84%","Pressure (altimeter)":"30.53 in. Hg (1034 hPa)","ob":"EPGD 280300Z 11007KT CAVOK M14/M16 Q1034 R11/190095","cycle":"3"},
{"_id":"4495a8a111ec85eb6d2389a681f73599","_rev":"1-cddfd0d623cd438e5ce5a43bdcd897e4","Location":"Gdansk-Rebiechowo, Poland (EPGD) 54-23N 018-28E 138M","Date":"Jan 27, 2012 - 04:00 PM EST / 2012.01.27 2100 UTC","Wind":"from the ESE (120 degrees) at 8 MPH (7 KT):0","Visibility":"greater than 7 mile(s):0","Temperature":"10 F (-12 C)","Windchill":"-2 F (-19 C):1","Dew Point":"5 F (-15 C)","Relative Humidity":"78%","Pressure (altimeter)":"30.53 in. Hg (1034 hPa)","ob":"EPGD 272100Z 12007KT CAVOK M12/M15 Q1034 R11/190095","cycle":"21"},
{"_id":"4495a8a111ec85eb6d2389a681f73b4f","_rev":"1-e936c4cef7a424a315fb0117834d9026","Location":"Gdansk-Rebiechowo, Poland (EPGD) 54-23N 018-28E 138M","Date":"Dec 25, 2011 - 11:00 AM EST / 2011.12.25 1600 UTC","Wind":"from the WSW (240 degrees) at 12 MPH (10 KT) (direction variable):0","Visibility":"1 mile(s):0","Sky conditions":"mostly cloudy","Weather":"light drizzle; mist","Temperature":"39 F (4 C)","Dew Point":"37 F (3 C)","Relative Humidity":"93%","Pressure (altimeter)":"30.15 in. Hg (1021 hPa)","ob":"EPGD 251600Z 24010KT 200V270 3000 -DZ BR BKN004 04/03 Q1021","cycle":"16"},
{"_id":"4495a8a111ec85eb6d2389a681f7472e","_rev":"1-95adc3df2b71bcc6517ef3d06e29f084","Location":"Gdansk-Rebiechowo, Poland (EPGD) 54-23N 018-28E 138M","Date":"Jan 14, 2012 - 01:00 PM EST / 2012.01.14 1800 UTC","Wind":"from the NNW (330 degrees) at 16 MPH (14 KT):0","Visibility":"greater than 7 mile(s):0","Sky conditions":"mostly clear","Temperature":"32 F (0 C)","Windchill":"21 F (-6 C):1","Dew Point":"23 F (-5 C)","Relative Humidity":"69%","Pressure (altimeter)":"29.85 in. Hg (1011 hPa)","ob":"EPGD 141800Z 33014KT 9999 FEW030 M00/M05 Q1011 R11/590234","cycle":"18"},
{"_id":"4495a8a111ec85eb6d2389a681f749bd","_rev":"1-ee94c541bca7b62c07d76dfb21d3ec60","Location":"Gdansk-Rebiechowo, Poland (EPGD) 54-23N 018-28E 138M","Date":"Jan 31, 2012 - 09:00 AM EST / 2012.01.31 1400 UTC","Wind":"from the ENE (070 degrees) at 6 MPH (5 KT) (direction variable):0","Visibility":"greater than 7 mile(s):0","Temperature":"21 F (-6 C)","Windchill":"14 F (-10 C):1","Dew Point":"5 F (-15 C)","Relative Humidity":"48%","Pressure (altimeter)":"30.71 in. Hg (1040 hPa)","ob":"EPGD 311400Z 07005KT 030V100 CAVOK M06/M15 Q1040 R11/190095","cycle":"14"},
{"_id":"4495a8a111ec85eb6d2389a681f75436","_rev":"1-1048935a3e15a591cc02de3091568ccc","Location":"Gdansk-Rebiechowo, Poland (EPGD) 54-23N 018-28E 138M","Date":"Jan 19, 2012 - 03:00 PM EST / 2012.01.19 2000 UTC","Wind":"from the S (190 degrees) at 6 MPH (5 KT) (direction variable):0","Visibility":"3 mile(s):0","Sky conditions":"mostly cloudy","Weather":"light snow, rain","Temperature":"33 F (1 C)","Windchill":"26 F (-3 C):1","Dew Point":"32 F (0 C)","Relative Humidity":"93%","Pressure (altimeter)":"29.47 in. Hg (0998 hPa)","ob":"EPGD 192000Z 19005KT 140V220 6000 -SNRA FEW003 BKN007 01/M00 Q0998","cycle":"20"},
{"_id":"4495a8a111ec85eb6d2389a681f75459","_rev":"1-4df865cb250d5832fb197537b28ba02f","Location":"Gdansk-Rebiechowo, Poland (EPGD) 54-23N 018-28E 138M","Date":"Feb 14, 2012 - 11:00 PM EST / 2012.02.15 0400 UTC","Wind":"from the SSE (150 degrees) at 9 MPH (8 KT) (direction variable):0","Visibility":"less than 1 mile:0","Sky conditions":"mostly cloudy","Weather":"light snow; low drifting snow; mist","Temperature":"24 F (-4 C)","Windchill":"14 F (-10 C):1","Dew Point":"23 F (-5 C)","Relative Humidity":"92%","Pressure (altimeter)":"28.94 in. Hg (0980 hPa)","ob":"EPGD 150400Z 15008KT 110V190 1400 R29/P2000 -SN DRSN BR BKN006 M04/M05 Q0980 R11/590243","cycle":"4"},
{"_id":"4495a8a111ec85eb6d2389a681f75f86","_rev":"1-7aaf315a5d17cccd325d5085bd997111","Location":"Gdansk-Rebiechowo, Poland (EPGD) 54-23N 018-28E 138M","Date":"Jan 31, 2012 - 12:00 PM EST / 2012.01.31 1700 UTC","Wind":"Calm:0","Visibility":"greater than 7 mile(s):0","Temperature":"14 F (-10 C)","Dew Point":"5 F (-15 C)","Relative Humidity":"66%","Pressure (altimeter)":"30.68 in. Hg (1039 hPa)","ob":"EPGD 311700Z 00000KT CAVOK M10/M15 Q1039 R11/190095","cycle":"17"},
{"_id":"4495a8a111ec85eb6d2389a681f76578","_rev":"1-4dc8a0f75e6eac3fc4706dfd0604f4c5","Location":"Gdansk-Rebiechowo, Poland (EPGD) 54-23N 018-28E 138M","Date":"Feb 15, 2012 - 04:00 PM EST / 2012.02.15 2100 UTC","Wind":"from the NNE (020 degrees) at 8 MPH (7 KT):0","Visibility":"2 mile(s):0","Sky conditions":"mostly cloudy","Weather":"mist","Temperature":"28 F (-2 C)","Windchill":"19 F (-7 C):1","Dew Point":"21 F (-6 C)","Relative Humidity":"74%","Pressure (altimeter)":"29.56 in. Hg (1001 hPa)","ob":"EPGD 152100Z 02007KT 4000 BR BKN015 M02/M06 Q1001 R11/490339","cycle":"21"},
{"_id":"4495a8a111ec85eb6d2389a681f76e18","_rev":"1-f2688d7b846f30896c0c23caad34a041","Location":"Gdansk-Rebiechowo, Poland (EPGD) 54-23N 018-28E 138M","Date":"Jan 10, 2012 - 09:00 AM EST / 2012.01.10 1400 UTC","Wind":"from the NW (310 degrees) at 5 MPH (4 KT):0","Visibility":"less than 1 mile:0","Sky conditions":"mostly cloudy","Weather":"fog","Temperature":"32 F (0 C)","Windchill":"26 F (-3 C):1","Dew Point":"32 F (0 C)","Relative Humidity":"100%","Pressure (altimeter)":"30.18 in. Hg (1022 hPa)","ob":"EPGD 101400Z 31004KT 0800 FG BKN002 00/M00 Q1022 R11/290060","cycle":"14"},
{"_id":"4495a8a111ec85eb6d2389a681f77855","_rev":"1-1b993c25f08c57bd802b3e7332098206","Location":"Gdansk-Rebiechowo, Poland (EPGD) 54-23N 018-28E 138M","Date":"Feb 11, 2012 - 05:00 AM EST / 2012.02.11 1000 UTC","Wind":"from the W (280 degrees) at 5 MPH (4 KT):0","Visibility":"less than 1 mile:0","Sky conditions":"mostly cloudy","Weather":"light snow; mist","Temperature":"15 F (-9 C)","Windchill":"6 F (-14 C):1","Dew Point":"10 F (-12 C)","Relative Humidity":"78%","Pressure (altimeter)":"30.59 in. Hg (1036 hPa)","ob":"EPGD 111000Z 28004KT 1400 R29/1800 -SN BR BKN006 M09/M12 Q1036 R29/090095","cycle":"10"},
{"_id":"4495a8a111ec85eb6d2389a681f783a4","_rev":"1-5753497c6c92cc66d3c0b7a88dbdb813","Location":"Gdansk-Rebiechowo, Poland (EPGD) 54-23N 018-28E 138M","Date":"Feb 18, 2012 - 03:00 PM EST / 2012.02.18 2000 UTC","Wind":"from the S (190 degrees) at 9 MPH (8 KT):0","Visibility":"greater than 7 mile(s):0","Sky conditions":"mostly cloudy","Temperature":"35 F (2 C)","Windchill":"28 F (-2 C):1","Dew Point":"32 F (0 C)","Relative Humidity":"86%","Pressure (altimeter)":"29.77 in. Hg (1008 hPa)","ob":"EPGD 182000Z 19008KT 9999 BKN006 02/M00 Q1008 R11/190095","cycle":"20"},
{"_id":"4495a8a111ec85eb6d2389a681f78d9f","_rev":"1-afe5accd9089347a8163bec39cb0010b","Location":"Gdansk-Rebiechowo, Poland (EPGD) 54-23N 018-28E 138M","Date":"Jan 04, 2012 - 04:00 AM EST / 2012.01.04 0900 UTC","Wind":"from the SW (230 degrees) at 20 MPH (17 KT) gusting to 32 MPH (28 KT) (direction variable):0","Visibility":"greater than 7 mile(s):0","Sky conditions":"partly cloudy","Temperature":"41 F (5 C)","Dew Point":"32 F (0 C)","Relative Humidity":"70%","Pressure (altimeter)":"29.41 in. Hg (0996 hPa)","ob":"EPGD 040900Z 23017G28KT 200V260 9999 SCT030 05/M00 Q0996","cycle":"9"},
{"_id":"4495a8a111ec85eb6d2389a681f79a28","_rev":"1-d0231d03e8fa51770dc1f6e5713e7b91","Location":"Gdansk-Rebiechowo, Poland (EPGD) 54-23N 018-28E 138M","Date":"Jan 15, 2012 - 08:00 PM EST / 2012.01.16 0100 UTC","Wind":"from the WNW (300 degrees) at 6 MPH (5 KT):0","Visibility":"greater than 7 mile(s):0","Sky conditions":"partly cloudy","Weather":"light snow showers; Towering cumulus clouds observed","Temperature":"28 F (-2 C)","Windchill":"21 F (-6 C):1","Dew Point":"26 F (-3 C)","Relative Humidity":"92%","Pressure (altimeter)":"30.15 in. Hg (1021 hPa)","ob":"EPGD 160100Z 30005KT 9999 -SHSN FEW009 FEW016TCU SCT040 M02/M03 Q1021 R11/590142","cycle":"1"},
{"_id":"4495a8a111ec85eb6d2389a681f79d96","_rev":"1-3f04bbecb87da5792eb1ca2dd5fa6a9d","Location":"Gdansk-Rebiechowo, Poland (EPGD) 54-23N 018-28E 138M","Date":"Jan 15, 2012 - 05:00 PM EST / 2012.01.15 2200 UTC","Wind":"from the NW (320 degrees) at 6 MPH (5 KT):0","Visibility":"4 mile(s):0","Sky conditions":"partly cloudy","Weather":"light snow showers; Towering cumulus clouds observed","Temperature":"28 F (-2 C)","Windchill":"21 F (-6 C):1","Dew Point":"26 F (-3 C)","Relative Humidity":"92%","Pressure (altimeter)":"30.15 in. Hg (1021 hPa)","ob":"EPGD 152200Z 32005KT 8000 -SHSN FEW005 SCT011TCU SCT025 M02/M03 Q1021 RESHSN R11/590142","cycle":"22"},
{"_id":"4495a8a111ec85eb6d2389a681f7aac5","_rev":"1-22e0aa70a8c03bfa9eca74e2216df6d3","Location":"Gdansk-Rebiechowo, Poland (EPGD) 54-23N 018-28E 138M","Date":"Feb 14, 2012 - 02:00 AM EST / 2012.02.14 0700 UTC","Wind":"from the SW (220 degrees) at 3 MPH (3 KT) (direction variable):0","Visibility":"4 mile(s):0","Sky conditions":"mostly cloudy","Temperature":"26 F (-3 C)","Dew Point":"23 F (-5 C)","Relative Humidity":"86%","Pressure (altimeter)":"29.94 in. Hg (1014 hPa)","ob":"EPGD 140700Z 22003KT 170V290 8000 BKN046 M03/M05 Q1014 R11/190095","cycle":"7"},
{"_id":"4495a8a111ec85eb6d2389a681f7ba2b","_rev":"1-b44e23b4207b9c0a369df6a2ab2408d1","Location":"Gdansk-Rebiechowo, Poland (EPGD) 54-23N 018-28E 138M","Date":"Jan 26, 2012 - 09:00 PM EST / 2012.01.27 0200 UTC","Wind":"from the ESE (120 degrees) at 5 MPH (4 KT):0","Visibility":"1 mile(s):0","Weather":"mist","Temperature":"12 F (-11 C)","Windchill":"3 F (-16 C):1","Dew Point":"8 F (-13 C)","Relative Humidity":"85%","Pressure (altimeter)":"30.45 in. Hg (1031 hPa)","ob":"EPGD 270200Z 12004KT 3000 BR NSC M11/M13 Q1031","cycle":"2"},
{"_id":"4495a8a111ec85eb6d2389a681f7c068","_rev":"1-4e573ba8d5df8fee968d3e6d4e4260da","Location":"Gdansk-Rebiechowo, Poland (EPGD) 54-23N 018-28E 138M","Date":"Feb 16, 2012 - 12:00 AM EST / 2012.02.16 0500 UTC","Wind":"from the N (350 degrees) at 3 MPH (3 KT):0","Visibility":"greater than 7 mile(s):0","Sky conditions":"mostly cloudy","Temperature":"26 F (-3 C)","Dew Point":"21 F (-6 C)","Relative Humidity":"79%","Pressure (altimeter)":"29.83 in. Hg (1010 hPa)","ob":"EPGD 160500Z 35003KT 9999 BKN019 M03/M06 Q1010 R11/490075","cycle":"5"},
{"_id":"4495a8a111ec85eb6d2389a681f7cf62","_rev":"1-8a22d07f009154c122913618c0346ec1","Location":"Gdansk-Rebiechowo, Poland (EPGD) 54-23N 018-28E 138M","Date":"Jan 11, 2012 - 09:00 AM EST / 2012.01.11 1400 UTC","Wind":"from the W (280 degrees) at 20 MPH (17 KT):0","Visibility":"5 mile(s):0","Sky conditions":"mostly cloudy","Weather":"light rain","Temperature":"42 F (6 C)","Dew Point":"41 F (5 C)","Relative Humidity":"93%","Pressure (altimeter)":"29.97 in. Hg (1015 hPa)","ob":"EPGD 111400Z 28017KT 9000 -RA BKN009 06/05 Q1015 R11/290095","cycle":"14"},
{"_id":"4495a8a111ec85eb6d2389a681f7d530","_rev":"1-6a7e745aa08168f926f2c2457086382f","Location":"Gdansk-Rebiechowo, Poland (EPGD) 54-23N 018-28E 138M","Date":"Feb 19, 2012 - 12:00 AM EST / 2012.02.19 0500 UTC","Wind":"from the SSW (200 degrees) at 12 MPH (10 KT) (direction variable):0","Visibility":"4 mile(s):0","Sky conditions":"mostly cloudy","Weather":"light rain","Temperature":"37 F (3 C)","Dew Point":"35 F (2 C)","Relative Humidity":"93%","Pressure (altimeter)":"29.62 in. Hg (1003 hPa)","ob":"EPGD 190500Z 20010KT 170V230 7000 -RA BKN005 03/02 Q1003 R11/290095","cycle":"5"},
{"_id":"4495a8a111ec85eb6d2389a681f7e2ed","_rev":"1-5ac44da4620185bf736d2dd7cb70248c","Location":"Gdansk-Rebiechowo, Poland (EPGD) 54-23N 018-28E 138M","Date":"Dec 16, 2011 - 07:00 AM EST / 2011.12.16 1200 UTC","Wind":"from the SE (130 degrees) at 12 MPH (10 KT) (direction variable):0","Visibility":"4 mile(s):0","Sky conditions":"mostly clear","Temperature":"35 F (2 C)","Windchill":"26 F (-3 C):1","Dew Point":"32 F (0 C)","Relative Humidity":"86%","Pressure (altimeter)":"29.23 in. Hg (0990 hPa)","ob":"EPGD 161200Z 13010KT 110V170 8000 FEW008 02/M00 Q0990","cycle":"12"},
{"_id":"4495a8a111ec85eb6d2389a681f7e891","_rev":"1-8a8fe7d3aa0ce7601b850cb9695c2e6c","Location":"Gdansk-Rebiechowo, Poland (EPGD) 54-23N 018-28E 138M","Date":"Feb 08, 2012 - 07:00 AM EST / 2012.02.08 1200 UTC","Wind":"from the SSW (200 degrees) at 3 MPH (3 KT) (direction variable):0","Visibility":"4 mile(s):0","Sky conditions":"mostly clear","Temperature":"26 F (-3 C)","Dew Point":"17 F (-8 C)","Relative Humidity":"68%","Pressure (altimeter)":"30.65 in. Hg (1038 hPa)","ob":"EPGD 081200Z 20003KT 170V250 8000 FEW033 M03/M08 Q1038 R11/490159","cycle":"12"},
{"_id":"4495a8a111ec85eb6d2389a681f7ea9a","_rev":"1-342f8ea2eab6cf1fc06ef3927484b86d","Location":"Gdansk-Rebiechowo, Poland (EPGD) 54-23N 018-28E 138M","Date":"Jan 08, 2012 - 11:00 PM EST / 2012.01.09 0400 UTC","Wind":"from the NW (320 degrees) at 10 MPH (9 KT):0","Visibility":"2 mile(s):0","Sky conditions":"mostly cloudy","Weather":"rain, snow","Temperature":"33 F (1 C)","Windchill":"24 F (-4 C):1","Dew Point":"32 F (0 C)","Relative Humidity":"93%","Pressure (altimeter)":"29.97 in. Hg (1015 hPa)","ob":"EPGD 090400Z 32009KT 4000 RASN BKN004 01/M00 Q1015","cycle":"4"},
{"_id":"4495a8a111ec85eb6d2389a681f7ee51","_rev":"1-a18f7fd9d82f129f75d55458d2453551","Location":"Gdansk-Rebiechowo, Poland (EPGD) 54-23N 018-28E 138M","Date":"Jan 30, 2012 - 01:00 AM EST / 2012.01.30 0600 UTC","Wind":"from the ESE (110 degrees) at 8 MPH (7 KT):0","Visibility":"greater than 7 mile(s):0","Temperature":"3 F (-16 C)","Windchill":"-11 F (-24 C):2","Dew Point":"-2 F (-19 C)","Relative Humidity":"77%","Pressure (altimeter)":"30.77 in. Hg (1042 hPa)","ob":"EPGD 300600Z 11007KT CAVOK M16/M19 Q1042 R11/190095","cycle":"6"},
{"_id":"4495a8a111ec85eb6d2389a681f7f66d","_rev":"1-b5b0c02ed0c615a9caa3f97efde439a5","Location":"Gdansk-Rebiechowo, Poland (EPGD) 54-23N 018-28E 138M","Date":"Feb 01, 2012 - 06:00 AM EST / 2012.02.01 1100 UTC","Wind":"from the ESE (110 degrees) at 5 MPH (4 KT):0","Visibility":"4 mile(s):0","Sky conditions":"mostly clear","Weather":"light snow showers","Temperature":"10 F (-12 C)","Windchill":"1 F (-17 C):1","Dew Point":"5 F (-15 C)","Relative Humidity":"78%","Pressure (altimeter)":"30.74 in. Hg (1041 hPa)","ob":"EPGD 011100Z 11004KT 8000 -SHSN FEW005 M12/M15 Q1041 R11/490142","cycle":"11"},
{"_id":"4495a8a111ec85eb6d2389a681f7f8b6","_rev":"1-e565131e1b232eb4a68abdbfae342a3f","Location":"Gdansk-Rebiechowo, Poland (EPGD) 54-23N 018-28E 138M","Date":"Jan 10, 2012 - 12:00 AM EST / 2012.01.10 0500 UTC","Wind":"from the SE (140 degrees) at 5 MPH (4 KT) (direction variable):0","Visibility":"3 mile(s):0","Sky conditions":"mostly cloudy","Temperature":"30 F (-1 C)","Windchill":"24 F (-4 C):1","Dew Point":"30 F (-1 C)","Relative Humidity":"100%","Pressure (altimeter)":"30.00 in. Hg (1016 hPa)","ob":"EPGD 100500Z 14004KT 110V180 6000 BKN003 M01/M01 Q1016 R11/490241","cycle":"5"},
{"_id":"4495a8a111ec85eb6d2389a681f7fa36","_rev":"1-c64fd0f7e3be93fe06982ed4cbd114ea","Location":"Gdansk-Rebiechowo, Poland (EPGD) 54-23N 018-28E 138M","Date":"Dec 14, 2011 - 12:00 AM EST / 2011.12.14 0500 UTC","Wind":"from the SSW (210 degrees) at 9 MPH (8 KT) (direction variable):0","Visibility":"greater than 7 mile(s):0","Sky conditions":"partly cloudy","Temperature":"41 F (5 C)","Dew Point":"37 F (3 C)","Relative Humidity":"86%","Pressure (altimeter)":"29.56 in. Hg (1001 hPa)","ob":"EPGD 140500Z 21008KT 160V240 9999 SCT013 05/03 Q1001","cycle":"5"},
{"_id":"4495a8a111ec85eb6d2389a681f808b8","_rev":"1-63d2920515c23d22f93fd1c5031f815a","Location":"Gdansk-Rebiechowo, Poland (EPGD) 54-23N 018-28E 138M","Date":"Jan 11, 2012 - 11:00 PM EST / 2012.01.12 0400 UTC","Wind":"from the WSW (240 degrees) at 10 MPH (9 KT) (direction variable):0","Visibility":"greater than 7 mile(s):0","Sky conditions":"mostly cloudy","Temperature":"39 F (4 C)","Dew Point":"35 F (2 C)","Relative Humidity":"86%","Pressure (altimeter)":"29.94 in. Hg (1014 hPa)","ob":"EPGD 120400Z 24009KT 210V280 9999 SCT015 BKN045 04/02 Q1014 R11/290095","cycle":"4"},
{"_id":"4495a8a111ec85eb6d2389a681f815d1","_rev":"1-a8e5466163e389ab0c987f4cb6e7d0f9","Location":"Gdansk-Rebiechowo, Poland (EPGD) 54-23N 018-28E 138M","Date":"Jan 17, 2012 - 01:00 AM EST / 2012.01.17 0600 UTC","Wind":"Calm:0","Visibility":"1 mile(s):0","Sky conditions":"mostly cloudy","Weather":"mist","Temperature":"28 F (-2 C)","Dew Point":"26 F (-3 C)","Relative Humidity":"92%","Pressure (altimeter)":"30.12 in. Hg (1020 hPa)","ob":"EPGD 170600Z 00000KT 1800 BR BKN004 M02/M03 Q1020 R11/290053","cycle":"6"},
{"_id":"4495a8a111ec85eb6d2389a681f81a7c","_rev":"1-7fa58fc4c51bedbde5414213d4e88974","Location":"Gdansk-Rebiechowo, Poland (EPGD) 54-23N 018-28E 138M","Date":"Jan 13, 2012 - 11:00 AM EST / 2012.01.13 1600 UTC","Wind":"from the W (280 degrees) at 16 MPH (14 KT):0","Visibility":"greater than 7 mile(s):0","Sky conditions":"mostly clear","Temperature":"33 F (1 C)","Windchill":"23 F (-5 C):1","Dew Point":"26 F (-3 C)","Relative Humidity":"74%","Pressure (altimeter)":"29.53 in. Hg (1000 hPa)","ob":"EPGD 131600Z 28014KT 9999 FEW026 01/M03 Q1000","cycle":"16"},
{"_id":"4495a8a111ec85eb6d2389a681f81f01","_rev":"1-eddf6ac25688e7e705651c21222b389b","Location":"Gdansk-Rebiechowo, Poland (EPGD) 54-23N 018-28E 138M","Date":"Dec 30, 2011 - 06:00 AM EST / 2011.12.30 1100 UTC","Wind":"from the SW (220 degrees) at 3 MPH (3 KT) (direction variable):0","Visibility":"greater than 7 mile(s):0","Sky conditions":"mostly cloudy","Temperature":"35 F (2 C)","Dew Point":"33 F (1 C)","Relative Humidity":"93%","Pressure (altimeter)":"29.47 in. Hg (0998 hPa)","ob":"EPGD 301100Z 22003KT 160V270 9999 BKN007 02/01 Q0998","cycle":"11"},
{"_id":"4495a8a111ec85eb6d2389a681f824c8","_rev":"1-8910e38687acda6c016b35f9f0bb8a59","Location":"Gdansk-Rebiechowo, Poland (EPGD) 54-23N 018-28E 138M","Date":"Dec 19, 2011 - 10:00 PM EST / 2011.12.20 0300 UTC","Wind":"from the SW (220 degrees) at 7 MPH (6 KT) (direction variable):0","Visibility":"greater than 7 mile(s):0","Sky conditions":"mostly cloudy","Temperature":"33 F (1 C)","Windchill":"26 F (-3 C):1","Dew Point":"30 F (-1 C)","Relative Humidity":"86%","Pressure (altimeter)":"29.88 in. Hg (1012 hPa)","ob":"EPGD 200300Z 22006KT 190V270 9999 BKN011 01/M01 Q1012 R11/290095","cycle":"3"},
{"_id":"4495a8a111ec85eb6d2389a681f830da","_rev":"1-14cbf176e023cbe831317083315aa23a","Location":"Gdansk-Rebiechowo, Poland (EPGD) 54-23N 018-28E 138M","Date":"Jan 23, 2012 - 10:00 AM EST / 2012.01.23 1500 UTC","Wind":"from the WNW (290 degrees) at 10 MPH (9 KT):0","Visibility":"greater than 7 mile(s):0","Sky conditions":"mostly cloudy","Temperature":"33 F (1 C)","Windchill":"24 F (-4 C):1","Dew Point":"32 F (0 C)","Relative Humidity":"93%","Pressure (altimeter)":"29.65 in. Hg (1004 hPa)","ob":"EPGD 231500Z 29009KT 9999 FEW011 BKN033 01/M00 Q1004","cycle":"15"},
{"_id":"4495a8a111ec85eb6d2389a681f83e80","_rev":"1-c9715197a0a14af92d55b54e0ff880c2","Location":"Gdansk-Rebiechowo, Poland (EPGD) 54-23N 018-28E 138M","Date":"Jan 20, 2012 - 10:00 AM EST / 2012.01.20 1500 UTC","Wind":"from the SW (230 degrees) at 6 MPH (5 KT) (direction variable):0","Visibility":"greater than 7 mile(s):0","Sky conditions":"mostly clear","Temperature":"33 F (1 C)","Windchill":"26 F (-3 C):1","Dew Point":"30 F (-1 C)","Relative Humidity":"86%","Pressure (altimeter)":"29.53 in. Hg (1000 hPa)","ob":"EPGD 201500Z 23005KT 200V260 9999 FEW015 01/M01 Q1000 R11/290095","cycle":"15"},
{"_id":"4495a8a111ec85eb6d2389a681f840a8","_rev":"1-c20cc212930f0393f4b67d7625d124d0","Location":"Gdansk-Rebiechowo, Poland (EPGD) 54-23N 018-28E 138M","Date":"Dec 19, 2011 - 04:00 PM EST / 2011.12.19 2100 UTC","Wind":"from the SW (230 degrees) at 9 MPH (8 KT) (direction variable):0","Visibility":"greater than 7 mile(s):0","Sky conditions":"mostly cloudy","Temperature":"35 F (2 C)","Windchill":"28 F (-2 C):1","Dew Point":"30 F (-1 C)","Relative Humidity":"80%","Pressure (altimeter)":"29.91 in. Hg (1013 hPa)","ob":"EPGD 192100Z 23008KT 190V260 9999 SCT015 BKN043 02/M01 Q1013 R11/290095","cycle":"21"},
{"_id":"4495a8a111ec85eb6d2389a681f846e7","_rev":"1-be97d15dbd96bdd5823749daae0a513a","Location":"Gdansk-Rebiechowo, Poland (EPGD) 54-23N 018-28E 138M","Date":"Feb 07, 2012 - 02:00 PM EST / 2012.02.07 1900 UTC","Wind":"from the E (080 degrees) at 10 MPH (9 KT):0","Visibility":"greater than 7 mile(s):0","Sky conditions":"mostly cloudy","Temperature":"19 F (-7 C)","Windchill":"6 F (-14 C):1","Dew Point":"15 F (-9 C)","Relative Humidity":"85%","Pressure (altimeter)":"30.77 in. Hg (1042 hPa)","ob":"EPGD 071900Z 08009KT 9999 BKN010 M07/M09 Q1042 R11/490143","cycle":"19"},
{"_id":"4495a8a111ec85eb6d2389a681f851c8","_rev":"1-9506473faf4cc4a95b7d1f98bf1312aa","Location":"Gdansk-Rebiechowo, Poland (EPGD) 54-23N 018-28E 138M","Date":"Dec 29, 2011 - 05:00 AM EST / 2011.12.29 1000 UTC","Wind":"from the SW (230 degrees) at 15 MPH (13 KT) gusting to 28 MPH (24 KT) (direction variable):0","Visibility":"greater than 7 mile(s):0","Sky conditions":"partly cloudy","Weather":"light rain","Temperature":"41 F (5 C)","Dew Point":"33 F (1 C)","Relative Humidity":"75%","Pressure (altimeter)":"29.71 in. Hg (1006 hPa)","ob":"EPGD 291000Z 23013G24KT 190V260 9999 -RA FEW015 SCT025 05/01 Q1006","cycle":"10"},
{"_id":"4495a8a111ec85eb6d2389a681f85a4b","_rev":"1-e1c3a179781daa6030013e9b38c6000d","Location":"Gdansk-Rebiechowo, Poland (EPGD) 54-23N 018-28E 138M","Date":"Jan 29, 2012 - 03:00 AM EST / 2012.01.29 0800 UTC","Wind":"from the ESE (120 degrees) at 9 MPH (8 KT):0","Visibility":"greater than 7 mile(s):0","Temperature":"8 F (-13 C)","Windchill":"-5 F (-21 C):2","Dew Point":"1 F (-17 C)","Relative Humidity":"71%","Pressure (altimeter)":"30.74 in. Hg (1041 hPa)","ob":"EPGD 290800Z 12008KT CAVOK M13/M17 Q1041 R11/190095","cycle":"8"},
{"_id":"4495a8a111ec85eb6d2389a681f85e7e","_rev":"1-6c466f86af193e70c1110b76b75ef1af","Location":"Gdansk-Rebiechowo, Poland (EPGD) 54-23N 018-28E 138M","Date":"Feb 03, 2012 - 12:00 AM EST / 2012.02.03 0500 UTC","Wind":"from the SW (230 degrees) at 3 MPH (3 KT):0","Visibility":"1 mile(s):0","Weather":"mist","Temperature":"-9 F (-23 C)","Dew Point":"-14 F (-26 C)","Relative Humidity":"76%","Pressure (altimeter)":"30.47 in. Hg (1032 hPa)","ob":"EPGD 030500Z 23003KT 2500 BR NSC M23/M26 Q1032 R11/190095","cycle":"5"},
{"_id":"4495a8a111ec85eb6d2389a681f86605","_rev":"1-207f36a25790bc3044cde972f08d7059","Location":"Gdansk-Rebiechowo, Poland (EPGD) 54-23N 018-28E 138M","Date":"Feb 12, 2012 - 04:00 AM EST / 2012.02.12 0900 UTC","Wind":"from the WSW (240 degrees) at 8 MPH (7 KT):0","Visibility":"greater than 7 mile(s):0","Temperature":"19 F (-7 C)","Windchill":"8 F (-13 C):1","Dew Point":"12 F (-11 C)","Relative Humidity":"73%","Pressure (altimeter)":"30.30 in. Hg (1026 hPa)","ob":"EPGD 120900Z 24007KT CAVOK M07/M11 Q1026 R11/450195","cycle":"9"},
{"_id":"4495a8a111ec85eb6d2389a681f87547","_rev":"1-5ace044fdf08e4519c18f2fca3c533f3","Location":"Gdansk-Rebiechowo, Poland (EPGD) 54-23N 018-28E 138M","Date":"Feb 07, 2012 - 10:00 AM EST / 2012.02.07 1500 UTC","Wind":"from the NE (050 degrees) at 9 MPH (8 KT) (direction variable):0","Visibility":"greater than 7 mile(s):0","Sky conditions":"mostly cloudy","Temperature":"19 F (-7 C)","Windchill":"8 F (-13 C):1","Dew Point":"14 F (-10 C)","Relative Humidity":"79%","Pressure (altimeter)":"30.74 in. Hg (1041 hPa)","ob":"EPGD 071500Z 05008KT 010V080 9999 BKN014 M07/M10 Q1041 R/490238","cycle":"15"},
{"_id":"4495a8a111ec85eb6d2389a681f87770","_rev":"1-002ea60e88913babebe3f965e026c936","Location":"Gdansk-Rebiechowo, Poland (EPGD) 54-23N 018-28E 138M","Date":"Jan 08, 2012 - 10:00 PM EST / 2012.01.09 0300 UTC","Wind":"from the NW (310 degrees) at 13 MPH (11 KT):0","Visibility":"greater than 7 mile(s):0","Sky conditions":"mostly cloudy","Weather":"light rain","Temperature":"35 F (2 C)","Windchill":"26 F (-3 C):1","Dew Point":"32 F (0 C)","Relative Humidity":"86%","Pressure (altimeter)":"29.97 in. Hg (1015 hPa)","ob":"EPGD 090300Z 31011KT 9999 -RA BKN008 BKN031 02/M00 Q1015","cycle":"3"},
{"_id":"4495a8a111ec85eb6d2389a681f88703","_rev":"1-ead972c15edfa9c008f2fec3ad0cd2c0","Location":"Gdansk-Rebiechowo, Poland (EPGD) 54-23N 018-28E 138M","Date":"Jan 11, 2012 - 03:00 PM EST / 2012.01.11 2000 UTC","Wind":"from the WNW (290 degrees) at 18 MPH (16 KT):0","Visibility":"greater than 7 mile(s):0","Sky conditions":"partly cloudy","Temperature":"41 F (5 C)","Dew Point":"33 F (1 C)","Relative Humidity":"75%","Pressure (altimeter)":"30.09 in. Hg (1019 hPa)","ob":"EPGD 112000Z 29016KT 9999 SCT017 05/01 Q1019 R11/290095","cycle":"20"},
{"_id":"4495a8a111ec85eb6d2389a681f89589","_rev":"1-fb5757ae244b4690a279483d5160f780","Location":"Gdansk-Rebiechowo, Poland (EPGD) 54-23N 018-28E 138M","Date":"Feb 10, 2012 - 12:00 PM EST / 2012.02.10 1700 UTC","Wind":"from the N (010 degrees) at 3 MPH (3 KT) (direction variable):0","Visibility":"greater than 7 mile(s):0","Sky conditions":"mostly cloudy","Temperature":"15 F (-9 C)","Dew Point":"12 F (-11 C)","Relative Humidity":"85%","Pressure (altimeter)":"30.68 in. Hg (1039 hPa)","ob":"EPGD 101700Z 01003KT 330V040 9999 BKN013 M09/M11 Q1039 R11/090095","cycle":"17"},
{"_id":"4495a8a111ec85eb6d2389a681f89ccb","_rev":"1-2949e61de791114729f3395a5dab7e26","Location":"Gdansk-Rebiechowo, Poland (EPGD) 54-23N 018-28E 138M","Date":"Jan 01, 2012 - 07:00 PM EST / 2012.01.02 0000 UTC","Wind":"Variable at 2 MPH (2 KT):0","Visibility":"2 mile(s):0","Sky conditions":"mostly cloudy","Weather":"mist","Temperature":"39 F (4 C)","Dew Point":"37 F (3 C)","Relative Humidity":"93%","Pressure (altimeter)":"29.71 in. Hg (1006 hPa)","ob":"EPGD 020000Z VRB02KT 4000 BR BKN002 04/03 Q1006","cycle":"0"},
{"_id":"4495a8a111ec85eb6d2389a681f8a495","_rev":"1-6e81d44fa292dd0b416fb8cdbebaee3e","Location":"Gdansk-Rebiechowo, Poland (EPGD) 54-23N 018-28E 138M","Date":"Dec 23, 2011 - 08:00 PM EST / 2011.12.24 0100 UTC","Wind":"from the WSW (240 degrees) at 3 MPH (3 KT) (direction variable):0","Visibility":"2 mile(s):0","Sky conditions":"mostly cloudy","Weather":"mist","Temperature":"37 F (3 C)","Dew Point":"35 F (2 C)","Relative Humidity":"93%","Pressure (altimeter)":"29.80 in. Hg (1009 hPa)","ob":"EPGD 240100Z 24003KT 200V270 4000 BR BKN003 03/02 Q1009","cycle":"1"},
{"_id":"4495a8a111ec85eb6d2389a681f8ad9b","_rev":"1-911048045c4126a924abd4223e5816c0","Location":"Gdansk-Rebiechowo, Poland (EPGD) 54-23N 018-28E 138M","Date":"Jan 23, 2012 - 11:00 PM EST / 2012.01.24 0400 UTC","Wind":"from the NNW (330 degrees) at 5 MPH (4 KT):0","Visibility":"greater than 7 mile(s):0","Sky conditions":"mostly cloudy","Weather":"light snow","Temperature":"32 F (0 C)","Windchill":"26 F (-3 C):1","Dew Point":"32 F (0 C)","Relative Humidity":"100%","Pressure (altimeter)":"29.83 in. Hg (1010 hPa)","ob":"EPGD 240400Z 33004KT 9999 -SN FEW013 BKN033 00/M00 Q1010","cycle":"4"},
{"_id":"4495a8a111ec85eb6d2389a681f8bcca","_rev":"1-cc7d51884d7ae9aebc5270f4c33f7290","Location":"Gdansk-Rebiechowo, Poland (EPGD) 54-23N 018-28E 138M","Date":"Jan 05, 2012 - 05:00 AM EST / 2012.01.05 1000 UTC","Wind":"from the S (190 degrees) at 13 MPH (11 KT) (direction variable):0","Visibility":"1 mile(s):0","Sky conditions":"mostly cloudy","Weather":"light snow, rain","Temperature":"33 F (1 C)","Windchill":"23 F (-5 C):1","Dew Point":"32 F (0 C)","Relative Humidity":"93%","Pressure (altimeter)":"28.73 in. Hg (0973 hPa)","ob":"EPGD 051000Z 19011KT 150V220 2500 -SNRA BKN006 01/00 Q0973","cycle":"10"},
{"_id":"4495a8a111ec85eb6d2389a681f8c65d","_rev":"1-b93435925b17d5d40438c182eddc2476","Location":"Gdansk-Rebiechowo, Poland (EPGD) 54-23N 018-28E 138M","Date":"Dec 30, 2011 - 05:00 PM EST / 2011.12.30 2200 UTC","Wind":"from the W (280 degrees) at 5 MPH (4 KT):0","Visibility":"greater than 7 mile(s):0","Sky conditions":"overcast","Temperature":"33 F (1 C)","Windchill":"28 F (-2 C):1","Dew Point":"32 F (0 C)","Relative Humidity":"93%","Pressure (altimeter)":"29.62 in. Hg (1003 hPa)","ob":"EPGD 302200Z 28004KT 9999 OVC004 01/M00 Q1003","cycle":"22"},
{"_id":"4495a8a111ec85eb6d2389a681f8c8e7","_rev":"1-ef9555204974d163f01c3fef4285604c","Location":"Gdansk-Rebiechowo, Poland (EPGD) 54-23N 018-28E 138M","Date":"Dec 28, 2011 - 08:00 PM EST / 2011.12.29 0100 UTC","Wind":"from the SW (220 degrees) at 8 MPH (7 KT) (direction variable):0","Visibility":"greater than 7 mile(s):0","Sky conditions":"mostly cloudy","Temperature":"41 F (5 C)","Dew Point":"37 F (3 C)","Relative Humidity":"86%","Pressure (altimeter)":"29.83 in. Hg (1010 hPa)","ob":"EPGD 290100Z 22007KT 180V260 9999 BKN009 05/03 Q1010","cycle":"1"},
{"_id":"4495a8a111ec85eb6d2389a681f8cc1b","_rev":"1-b726ee990a06977bdf7e4457a0d3092f","Location":"Gdansk-Rebiechowo, Poland (EPGD) 54-23N 018-28E 138M","Date":"Feb 05, 2012 - 06:00 PM EST / 2012.02.05 2300 UTC","Wind":"Calm:0","Visibility":"1 mile(s):0","Sky conditions":"mostly clear","Weather":"mist","Temperature":"-14 F (-26 C)","Dew Point":"-18 F (-28 C)","Relative Humidity":"83%","Pressure (altimeter)":"30.74 in. Hg (1041 hPa)","ob":"EPGD 052300Z 00000KT 2500 BR FEW008 M26/M28 Q1041 R11/190095","cycle":"23"},
{"_id":"4495a8a111ec85eb6d2389a681f8d7be","_rev":"1-2c7dcff795b9982ae7fad9d71a1179a0","Location":"Gdansk-Rebiechowo, Poland (EPGD) 54-23N 018-28E 138M","Date":"Feb 09, 2012 - 08:00 PM EST / 2012.02.10 0100 UTC","Wind":"from the NNW (330 degrees) at 2 MPH (2 KT):0","Visibility":"greater than 7 mile(s):0","Sky conditions":"mostly clear","Temperature":"6 F (-14 C)","Dew Point":"1 F (-17 C)","Relative Humidity":"77%","Pressure (altimeter)":"30.71 in. Hg (1040 hPa)","ob":"EPGD 100100Z 33002KT 9999 FEW007 M14/M17 Q1040 R11/090095","cycle":"1"},
{"_id":"4495a8a111ec85eb6d2389a681f8da43","_rev":"1-5407646835254d48075c9ce9d9eea0d1","Location":"Gdansk-Rebiechowo, Poland (EPGD) 54-23N 018-28E 138M","Date":"Feb 19, 2012 - 12:00 PM EST / 2012.02.19 1700 UTC","Wind":"from the SW (230 degrees) at 9 MPH (8 KT) (direction variable):0","Visibility":"greater than 7 mile(s):0","Sky conditions":"mostly cloudy","Temperature":"35 F (2 C)","Windchill":"28 F (-2 C):1","Dew Point":"30 F (-1 C)","Relative Humidity":"80%","Pressure (altimeter)":"29.77 in. Hg (1008 hPa)","ob":"EPGD 191700Z 23008KT 200V270 9999 FEW023 BKN030 02/M01 Q1008 R11/290095","cycle":"17"},
{"_id":"4495a8a111ec85eb6d2389a681f8e633","_rev":"1-10d25ee98137ab6a39077276cadaf2bf","Location":"Gdansk-Rebiechowo, Poland (EPGD) 54-23N 018-28E 138M","Date":"Jan 01, 2012 - 04:00 AM EST / 2012.01.01 0900 UTC","Wind":"from the SSE (160 degrees) at 8 MPH (7 KT) (direction variable):0","Visibility":"greater than 7 mile(s):0","Temperature":"32 F (0 C)","Windchill":"24 F (-4 C):1","Dew Point":"28 F (-2 C)","Relative Humidity":"86%","Pressure (altimeter)":"29.85 in. Hg (1011 hPa)","ob":"EPGD 010900Z 16007KT 120V220 CAVOK M00/M02 Q1011","cycle":"9"},
{"_id":"4495a8a111ec85eb6d2389a681f8e801","_rev":"1-ed20e310cbc0417cd1e54a0569632ce8","Location":"Gdansk-Rebiechowo, Poland (EPGD) 54-23N 018-28E 138M","Date":"Jan 20, 2012 - 12:00 AM EST / 2012.01.20 0500 UTC","Wind":"from the W (280 degrees) at 8 MPH (7 KT):0","Visibility":"1 mile(s):0","Sky conditions":"mostly cloudy","Weather":"snow","Temperature":"33 F (1 C)","Windchill":"26 F (-3 C):1","Dew Point":"32 F (0 C)","Relative Humidity":"93%","Pressure (altimeter)":"29.44 in. Hg (0997 hPa)","ob":"EPGD 200500Z 28007KT 3000 SN SCT006 BKN005 01/00 Q0997 R29/69 R11/690252","cycle":"5"},
{"_id":"4495a8a111ec85eb6d2389a681f8f61e","_rev":"1-55317853118afc4371af3f94b5e8052b","Location":"Gdansk-Rebiechowo, Poland (EPGD) 54-23N 018-28E 138M","Date":"Dec 21, 2011 - 06:00 AM EST / 2011.12.21 1100 UTC","Wind":"Variable at 2 MPH (2 KT):0","Visibility":"3 mile(s):0","Weather":"mist","Temperature":"28 F (-2 C)","Dew Point":"24 F (-4 C)","Relative Humidity":"86%","Pressure (altimeter)":"29.80 in. Hg (1009 hPa)","ob":"EPGD 211100Z VRB02KT 5000 BR NSC M02/M04 Q1009 R11/190095","cycle":"11"},
{"_id":"4495a8a111ec85eb6d2389a681f901d6","_rev":"1-02aba53c982e3a4919263e16f5dfca34","Location":"Gdansk-Rebiechowo, Poland (EPGD) 54-23N 018-28E 138M","Date":"Dec 22, 2011 - 05:00 PM EST / 2011.12.22 2200 UTC","Wind":"from the WSW (240 degrees) at 7 MPH (6 KT) (direction variable):0","Visibility":"1 mile(s):0","Sky conditions":"overcast","Weather":"mist","Temperature":"26 F (-3 C)","Windchill":"17 F (-8 C):1","Dew Point":"24 F (-4 C)","Relative Humidity":"92%","Pressure (altimeter)":"30.12 in. Hg (1020 hPa)","ob":"EPGD 222200Z 24006KT 200V260 2800 BR OVC003 M03/M04 Q1020","cycle":"22"},
{"_id":"4495a8a111ec85eb6d2389a681f9032f","_rev":"1-b75987bf330739fe125671b61087f3c3","Location":"Gdansk-Rebiechowo, Poland (EPGD) 54-23N 018-28E 138M","Date":"Feb 11, 2012 - 03:00 AM EST / 2012.02.11 0800 UTC","Wind":"Variable at 2 MPH (2 KT):0","Visibility":"greater than 7 mile(s):0","Sky conditions":"mostly cloudy","Weather":"light snow","Temperature":"8 F (-13 C)","Dew Point":"3 F (-16 C)","Relative Humidity":"78%","Pressure (altimeter)":"30.59 in. Hg (1036 hPa)","ob":"EPGD 110800Z VRB02KT 9999 -SN FEW009 BKN012 M13/M16 Q1036 R29/090095","cycle":"8"},
{"_id":"4495a8a111ec85eb6d2389a681f905f8","_rev":"1-6d3bc4271d6bf090a7443fbb2a0a8d9d","Location":"Gdansk-Rebiechowo, Poland (EPGD) 54-23N 018-28E 138M","Date":"Dec 18, 2011 - 09:00 AM EST / 2011.12.18 1400 UTC","Wind":"from the WSW (250 degrees) at 17 MPH (15 KT):0","Visibility":"greater than 7 mile(s):0","Sky conditions":"mostly cloudy","Weather":"light snow showers; Towering cumulus clouds observed","Temperature":"33 F (1 C)","Windchill":"23 F (-5 C):1","Dew Point":"32 F (0 C)","Relative Humidity":"93%","Pressure (altimeter)":"29.32 in. Hg (0993 hPa)","ob":"EPGD 181400Z 25015KT 9999 -SHSN FEW007 BKN011TCU 01/M00 Q0993","cycle":"14"},
{"_id":"4495a8a111ec85eb6d2389a681f90c6c","_rev":"1-d92d4f8115aecae18b366b63982264dc","Location":"Gdansk-Rebiechowo, Poland (EPGD) 54-23N 018-28E 138M","Date":"Dec 27, 2011 - 01:00 PM EST / 2011.12.27 1800 UTC","Wind":"from the W (280 degrees) at 17 MPH (15 KT):0","Visibility":"greater than 7 mile(s):0","Sky conditions":"mostly cloudy","Temperature":"41 F (5 C)","Dew Point":"37 F (3 C)","Relative Humidity":"86%","Pressure (altimeter)":"30.33 in. Hg (1027 hPa)","ob":"EPGD 271800Z 28015KT 9999 BKN017 05/03 Q1027","cycle":"18"},
{"_id":"4495a8a111ec85eb6d2389a681f911f5","_rev":"1-18ff8c6439aa9cddef3844b4feebec5d","Location":"Gdansk-Rebiechowo, Poland (EPGD) 54-23N 018-28E 138M","Date":"Feb 01, 2012 - 12:00 AM EST / 2012.02.01 0500 UTC","Wind":"Calm:0","Visibility":"4 mile(s):0","Sky conditions":"mostly clear","Temperature":"-2 F (-19 C)","Dew Point":"-7 F (-22 C)","Relative Humidity":"77%","Pressure (altimeter)":"30.68 in. Hg (1039 hPa)","ob":"EPGD 010500Z 00000KT 8000 FEW006 M19/M22 Q1039 R11/190095","cycle":"5"},
{"_id":"4495a8a111ec85eb6d2389a681f91c0b","_rev":"1-401ec9a38288ade029f03093016a0503","Location":"Gdansk-Rebiechowo, Poland (EPGD) 54-23N 018-28E 138M","Date":"Feb 17, 2012 - 05:00 AM EST / 2012.02.17 1000 UTC","Wind":"from the W (260 degrees) at 9 MPH (8 KT):0","Visibility":"3 mile(s):0","Sky conditions":"overcast","Weather":"mist","Temperature":"33 F (1 C)","Windchill":"24 F (-4 C):1","Dew Point":"33 F (1 C)","Relative Humidity":"100%","Pressure (altimeter)":"29.68 in. Hg (1005 hPa)","ob":"EPGD 171000Z 26008KT 5000 BR OVC004 01/01 Q1005 R11/290095","cycle":"10"},
{"_id":"4495a8a111ec85eb6d2389a681f928f3","_rev":"1-65e4e97be22effc54ad8407e7cf117b9","Location":"Gdansk-Rebiechowo, Poland (EPGD) 54-23N 018-28E 138M","Date":"Jan 05, 2012 - 07:00 AM EST / 2012.01.05 1200 UTC","Wind":"from the SW (220 degrees) at 13 MPH (11 KT) (direction variable):0","Visibility":"greater than 7 mile(s):0","Sky conditions":"mostly cloudy","Temperature":"37 F (3 C)","Dew Point":"35 F (2 C)","Relative Humidity":"93%","Pressure (altimeter)":"28.67 in. Hg (0971 hPa)","ob":"EPGD 051200Z 22011KT 180V260 9999 FEW009 BKN012 03/02 Q0971","cycle":"12"},
{"_id":"4495a8a111ec85eb6d2389a681f93153","_rev":"1-a93aaa62c79c0f68144346e8bf9f2ae8","Location":"Gdansk-Rebiechowo, Poland (EPGD) 54-23N 018-28E 138M","Date":"Feb 10, 2012 - 09:00 AM EST / 2012.02.10 1400 UTC","Wind":"from the ENE (060 degrees) at 3 MPH (3 KT) (direction variable):0","Visibility":"5 mile(s):0","Sky conditions":"mostly cloudy","Temperature":"17 F (-8 C)","Dew Point":"12 F (-11 C)","Relative Humidity":"78%","Pressure (altimeter)":"30.71 in. Hg (1040 hPa)","ob":"EPGD 101400Z 06003KT 340V100 9000 BKN011 M08/M11 Q1040 R29/090095","cycle":"14"},
{"_id":"4495a8a111ec85eb6d2389a681f9337f","_rev":"1-335ec14a8dede9b8639ee1b57da2bce8","Location":"Gdansk-Rebiechowo, Poland (EPGD) 54-23N 018-28E 138M","Date":"Dec 14, 2011 - 02:00 PM EST / 2011.12.14 1900 UTC","Wind":"from the S (170 degrees) at 9 MPH (8 KT) (direction variable):0","Visibility":"greater than 7 mile(s):0","Temperature":"42 F (6 C)","Dew Point":"37 F (3 C)","Relative Humidity":"81%","Pressure (altimeter)":"29.44 in. Hg (0997 hPa)","ob":"EPGD 141900Z 17008KT 140V220 CAVOK 06/03 Q0997","cycle":"19"},
{"_id":"4495a8a111ec85eb6d2389a681f93f57","_rev":"1-df49bb6d38ba9616a0919d7c4633851e","Location":"Gdansk-Rebiechowo, Poland (EPGD) 54-23N 018-28E 138M","Date":"Jan 26, 2012 - 08:00 PM EST / 2012.01.27 0100 UTC","Wind":"from the SE (130 degrees) at 5 MPH (4 KT):0","Visibility":"2 mile(s):0","Weather":"mist","Temperature":"14 F (-10 C)","Windchill":"6 F (-14 C):1","Dew Point":"10 F (-12 C)","Relative Humidity":"85%","Pressure (altimeter)":"30.45 in. Hg (1031 hPa)","ob":"EPGD 270100Z 13004KT 4000 BR NSC M10/M12 Q1031","cycle":"1"},
{"_id":"4495a8a111ec85eb6d2389a681f93fc5","_rev":"1-dfafa4ee1dcf47d32c20e7c87a379715","Location":"Gdansk-Rebiechowo, Poland (EPGD) 54-23N 018-28E 138M","Date":"Feb 12, 2012 - 05:00 AM EST / 2012.02.12 1000 UTC","Wind":"from the SW (220 degrees) at 8 MPH (7 KT):0","Visibility":"greater than 7 mile(s):0","Sky conditions":"mostly cloudy","Temperature":"19 F (-7 C)","Windchill":"8 F (-13 C):1","Dew Point":"12 F (-11 C)","Relative Humidity":"73%","Pressure (altimeter)":"30.27 in. Hg (1025 hPa)","ob":"EPGD 121000Z 22007KT 9999 BKN046 M07/M11 Q1025 R11/450195","cycle":"10"},
{"_id":"4495a8a111ec85eb6d2389a681f94da3","_rev":"1-9e30205c06cbfbe004bbd65ea4ec4cf6","Location":"Gdansk-Rebiechowo, Poland (EPGD) 54-23N 018-28E 138M","Date":"Jan 19, 2012 - 04:00 PM EST / 2012.01.19 2100 UTC","Wind":"from the SW (220 degrees) at 7 MPH (6 KT) (direction variable):0","Visibility":"greater than 7 mile(s):0","Sky conditions":"mostly cloudy","Weather":"light snow, rain","Temperature":"33 F (1 C)","Windchill":"26 F (-3 C):1","Dew Point":"32 F (0 C)","Relative Humidity":"93%","Pressure (altimeter)":"29.44 in. Hg (0997 hPa)","ob":"EPGD 192100Z 22006KT 180V260 9999 -SNRA FEW003 BKN008 01/00 Q0997","cycle":"21"},
{"_id":"4495a8a111ec85eb6d2389a681f9561b","_rev":"1-ec32467c7db1ca6358b2c725b88045d1","Location":"Gdansk-Rebiechowo, Poland (EPGD) 54-23N 018-28E 138M","Date":"Jan 08, 2012 - 07:00 AM EST / 2012.01.08 1200 UTC","Wind":"from the WSW (250 degrees) at 7 MPH (6 KT) (direction variable):0","Visibility":"greater than 7 mile(s):0","Sky conditions":"mostly cloudy","Temperature":"41 F (5 C)","Dew Point":"37 F (3 C)","Relative Humidity":"86%","Pressure (altimeter)":"29.68 in. Hg (1005 hPa)","ob":"EPGD 081200Z 25006KT 220V280 9999 SCT011 BKN022 05/03 Q1005","cycle":"12"},
{"_id":"4495a8a111ec85eb6d2389a681f963d6","_rev":"1-84446742421389221e742888d39b303f","Location":"Gdansk-Rebiechowo, Poland (EPGD) 54-23N 018-28E 138M","Date":"Dec 19, 2011 - 09:00 PM EST / 2011.12.20 0200 UTC","Wind":"from the SSW (210 degrees) at 7 MPH (6 KT) (direction variable):0","Visibility":"greater than 7 mile(s):0","Sky conditions":"mostly cloudy","Temperature":"35 F (2 C)","Windchill":"28 F (-2 C):1","Dew Point":"30 F (-1 C)","Relative Humidity":"80%","Pressure (altimeter)":"29.91 in. Hg (1013 hPa)","ob":"EPGD 200200Z 21006KT 180V250 9999 BKN011 02/M01 Q1013 R11/290095","cycle":"2"},
{"_id":"4495a8a111ec85eb6d2389a681f96770","_rev":"1-9304563cbc7f085288c06d25bc05016a","Location":"Gdansk-Rebiechowo, Poland (EPGD) 54-23N 018-28E 138M","Date":"Dec 14, 2011 - 12:00 PM EST / 2011.12.14 1700 UTC","Wind":"from the SSE (160 degrees) at 9 MPH (8 KT) (direction variable):0","Visibility":"greater than 7 mile(s):0","Sky conditions":"partly cloudy","Temperature":"42 F (6 C)","Dew Point":"37 F (3 C)","Relative Humidity":"81%","Pressure (altimeter)":"29.47 in. Hg (0998 hPa)","ob":"EPGD 141700Z 16008KT 110V200 9999 FEW013 SCT040 06/03 Q0998","cycle":"17"},
{"_id":"4495a8a111ec85eb6d2389a681f97583","_rev":"1-8b68c3be2a3bbca0c6f907dd6c974cd8","Location":"Gdansk-Rebiechowo, Poland (EPGD) 54-23N 018-28E 138M","Date":"Jan 24, 2012 - 07:00 AM EST / 2012.01.24 1200 UTC","Wind":"from the NNW (330 degrees) at 6 MPH (5 KT):0","Visibility":"4 mile(s):0","Sky conditions":"mostly cloudy","Temperature":"35 F (2 C)","Windchill":"30 F (-1 C):1","Dew Point":"30 F (-1 C)","Relative Humidity":"80%","Pressure (altimeter)":"29.97 in. Hg (1015 hPa)","ob":"EPGD 241200Z 33005KT 8000 FEW011 BKN031 02/M01 Q1015 R11/290095","cycle":"12"},
{"_id":"4495a8a111ec85eb6d2389a681f984c9","_rev":"1-b314abace5000255fa44f9810cae9861","Location":"Gdansk-Rebiechowo, Poland (EPGD) 54-23N 018-28E 138M","Date":"Jan 03, 2012 - 12:00 PM EST / 2012.01.03 1700 UTC","Wind":"from the S (180 degrees) at 12 MPH (10 KT) (direction variable):0","Visibility":"greater than 7 mile(s):0","Sky conditions":"mostly cloudy","Temperature":"39 F (4 C)","Dew Point":"32 F (0 C)","Relative Humidity":"75%","Pressure (altimeter)":"29.65 in. Hg (1004 hPa)","ob":"EPGD 031700Z 18010KT 150V220 9999 BKN021 04/00 Q1004","cycle":"17"},
{"_id":"4495a8a111ec85eb6d2389a681f99120","_rev":"1-0c16bb328f433cdd3da73e77f9f55e5a","Location":"Gdansk-Rebiechowo, Poland (EPGD) 54-23N 018-28E 138M","Date":"Dec 29, 2011 - 08:00 PM EST / 2011.12.30 0100 UTC","Wind":"from the SW (220 degrees) at 13 MPH (11 KT) gusting to 25 MPH (22 KT) (direction variable):0","Visibility":"greater than 7 mile(s):0","Sky conditions":"partly cloudy","Temperature":"37 F (3 C)","Dew Point":"30 F (-1 C)","Relative Humidity":"74%","Pressure (altimeter)":"29.50 in. Hg (0999 hPa)","ob":"EPGD 300100Z 22011G22KT 180V260 9999 SCT048 03/M01 Q0999","cycle":"1"},
{"_id":"4495a8a111ec85eb6d2389a681f99e27","_rev":"1-fc69be1c2c4f942c1b1e4c253828af3f","Location":"Gdansk-Rebiechowo, Poland (EPGD) 54-23N 018-28E 138M","Date":"Dec 24, 2011 - 01:00 AM EST / 2011.12.24 0600 UTC","Wind":"from the SW (220 degrees) at 6 MPH (5 KT) (direction variable):0","Visibility":"2 mile(s):0","Sky conditions":"mostly cloudy","Weather":"light rain; mist","Temperature":"39 F (4 C)","Dew Point":"39 F (4 C)","Relative Humidity":"100%","Pressure (altimeter)":"29.74 in. Hg (1007 hPa)","ob":"EPGD 240600Z 22005KT 180V270 4000 -RA BR BKN004 04/04 Q1007","cycle":"6"},
{"_id":"4495a8a111ec85eb6d2389a681f9a898","_rev":"1-91d6801079e7c76b2de0b59fce0a8f18","Location":"Gdansk-Rebiechowo, Poland (EPGD) 54-23N 018-28E 138M","Date":"Feb 07, 2012 - 01:00 AM EST / 2012.02.07 0600 UTC","Wind":"from the ENE (060 degrees) at 10 MPH (9 KT) (direction variable):0","Visibility":"3 mile(s):0","Sky conditions":"mostly cloudy","Weather":"light snow; mist","Temperature":"15 F (-9 C)","Windchill":"3 F (-16 C):1","Dew Point":"12 F (-11 C)","Relative Humidity":"85%","Pressure (altimeter)":"30.65 in. Hg (1038 hPa)","ob":"EPGD 070600Z 06009KT 020V090 5000 -SN BR BKN009 M09/M11 Q1038 R11/490142","cycle":"6"},
{"_id":"4495a8a111ec85eb6d2389a681f9ac6d","_rev":"1-4a2595eee627e12a275450b076e228c8","Location":"Gdansk-Rebiechowo, Poland (EPGD) 54-23N 018-28E 138M","Date":"Dec 19, 2011 - 07:00 PM EST / 2011.12.20 0000 UTC","Wind":"from the SW (230 degrees) at 7 MPH (6 KT) (direction variable):0","Visibility":"greater than 7 mile(s):0","Sky conditions":"mostly cloudy","Temperature":"33 F (1 C)","Windchill":"26 F (-3 C):1","Dew Point":"30 F (-1 C)","Relative Humidity":"86%","Pressure (altimeter)":"29.91 in. Hg (1013 hPa)","ob":"EPGD 200000Z 23006KT 200V270 9999 BKN015 01/M01 Q1013 R11/290095","cycle":"0"},
{"_id":"4495a8a111ec85eb6d2389a681f9b911","_rev":"1-d7c394e8d507f0da5b3d4c1d23d8ce90","Location":"Gdansk-Rebiechowo, Poland (EPGD) 54-23N 018-28E 138M","Date":"Feb 20, 2012 - 05:00 AM EST / 2012.02.20 1000 UTC","Wind":"from the WNW (290 degrees) at 15 MPH (13 KT):0","Visibility":"greater than 7 mile(s):0","Sky conditions":"mostly clear","Temperature":"33 F (1 C)","Windchill":"23 F (-5 C):1","Dew Point":"28 F (-2 C)","Relative Humidity":"80%","Pressure (altimeter)":"30.21 in. Hg (1023 hPa)","ob":"EPGD 201000Z 29013KT 9999 FEW013 01/M02 Q1023 R11/190095","cycle":"10"},
{"_id":"4495a8a111ec85eb6d2389a681f9c8ac","_rev":"1-d312f4b6dc589d7a19230f9093593224","Location":"Gdansk-Rebiechowo, Poland (EPGD) 54-23N 018-28E 138M","Date":"Feb 13, 2012 - 04:00 AM EST / 2012.02.13 0900 UTC","Wind":"from the WSW (240 degrees) at 5 MPH (4 KT) (direction variable):0","Visibility":"3 mile(s):0","Sky conditions":"mostly cloudy","Weather":"mist","Temperature":"30 F (-1 C)","Windchill":"24 F (-4 C):1","Dew Point":"26 F (-3 C)","Relative Humidity":"86%","Pressure (altimeter)":"30.00 in. Hg (1016 hPa)","ob":"EPGD 130900Z 24004KT 200V260 5000 BR FEW006 BKN040 M01/M03 Q1016 R11/490144","cycle":"9"},
{"_id":"4495a8a111ec85eb6d2389a681f9cee5","_rev":"1-43645ff49c0c92b1356e8732c3ba6b3d","Location":"Gdansk-Rebiechowo, Poland (EPGD) 54-23N 018-28E 138M","Date":"Feb 11, 2012 - 09:00 PM EST / 2012.02.12 0200 UTC","Wind":"from the W (270 degrees) at 5 MPH (4 KT):0","Visibility":"greater than 7 mile(s):0","Sky conditions":"mostly cloudy","Weather":"light snow","Temperature":"19 F (-7 C)","Windchill":"12 F (-11 C):1","Dew Point":"15 F (-9 C)","Relative Humidity":"85%","Pressure (altimeter)":"30.42 in. Hg (1030 hPa)","ob":"EPGD 120200Z 27004KT 9999 -SN FEW021 SCT033 BKN040 M07/M09 Q1030 R29/490241","cycle":"2"},
{"_id":"4495a8a111ec85eb6d2389a681f9d103","_rev":"1-06647854569c38c6ef65a986b9174257","Location":"Gdansk-Rebiechowo, Poland (EPGD) 54-23N 018-28E 138M","Date":"Feb 14, 2012 - 04:00 AM EST / 2012.02.14 0900 UTC","Wind":"from the WSW (240 degrees) at 3 MPH (3 KT) (direction variable):0","Visibility":"greater than 7 mile(s):0","Temperature":"28 F (-2 C)","Dew Point":"23 F (-5 C)","Relative Humidity":"79%","Pressure (altimeter)":"29.91 in. Hg (1013 hPa)","ob":"EPGD 140900Z 24003KT 190V270 CAVOK M02/M05 Q1013 R11/190095","cycle":"9"},
{"_id":"4495a8a111ec85eb6d2389a681f9d65f","_rev":"1-fd40d14a6a9a231bffb2925308fac4b6","Location":"Gdansk-Rebiechowo, Poland (EPGD) 54-23N 018-28E 138M","Date":"Dec 16, 2011 - 12:00 PM EST / 2011.12.16 1700 UTC","Wind":"from the ESE (110 degrees) at 20 MPH (17 KT) gusting to 31 MPH (27 KT):0","Visibility":"3 mile(s):0","Sky conditions":"mostly cloudy","Weather":"light rain","Temperature":"35 F (2 C)","Windchill":"24 F (-4 C):1","Dew Point":"32 F (0 C)","Relative Humidity":"86%","Pressure (altimeter)":"28.94 in. Hg (0980 hPa)","ob":"EPGD 161700Z 11017G27KT 6000 -RA BKN007 02/M00 Q0980","cycle":"17"},
{"_id":"4495a8a111ec85eb6d2389a681f9e2a7","_rev":"1-d8cb9736cda98678cdfffdcb6ce0de42","Location":"Gdansk-Rebiechowo, Poland (EPGD) 54-23N 018-28E 138M","Date":"Jan 30, 2012 - 07:00 AM EST / 2012.01.30 1200 UTC","Wind":"from the ESE (120 degrees) at 8 MPH (7 KT):0","Visibility":"greater than 7 mile(s):0","Temperature":"12 F (-11 C)","Windchill":"0 F (-18 C):1","Dew Point":"3 F (-16 C)","Relative Humidity":"66%","Pressure (altimeter)":"30.77 in. Hg (1042 hPa)","ob":"EPGD 301200Z 12007KT CAVOK M11/M16 Q1042","cycle":"12"},
{"_id":"4495a8a111ec85eb6d2389a681f9f1df","_rev":"1-fdb73f3da59fdabcb5035c9c21063c4c","Location":"Gdansk-Rebiechowo, Poland (EPGD) 54-23N 018-28E 138M","Date":"Feb 07, 2012 - 01:00 PM EST / 2012.02.07 1800 UTC","Wind":"from the ENE (070 degrees) at 9 MPH (8 KT) (direction variable):0","Visibility":"4 mile(s):0","Sky conditions":"mostly cloudy","Weather":"light snow","Temperature":"19 F (-7 C)","Windchill":"8 F (-13 C):1","Dew Point":"15 F (-9 C)","Relative Humidity":"85%","Pressure (altimeter)":"30.77 in. Hg (1042 hPa)","ob":"EPGD 071800Z 07008KT 030V100 8000 -SN BKN010 M07/M09 Q1042 R/490143","cycle":"18"},
{"_id":"4495a8a111ec85eb6d2389a681f9ff90","_rev":"1-784ed3d200051ec8e1e3db6add168f9f","Location":"Gdansk-Rebiechowo, Poland (EPGD) 54-23N 018-28E 138M","Date":"Jan 07, 2012 - 01:00 PM EST / 2012.01.07 1800 UTC","Wind":"from the SSW (200 degrees) at 8 MPH (7 KT) (direction variable):0","Visibility":"greater than 7 mile(s):0","Sky conditions":"mostly cloudy","Temperature":"35 F (2 C)","Windchill":"28 F (-2 C):1","Dew Point":"32 F (0 C)","Relative Humidity":"86%","Pressure (altimeter)":"29.50 in. Hg (0999 hPa)","ob":"EPGD 071800Z 20007KT 170V240 9999 BKN007 02/00 Q0999","cycle":"18"},
{"_id":"4495a8a111ec85eb6d2389a681fa0936","_rev":"1-e5f0bcff6b767169a6cb28f52c7ee99c","Location":"Gdansk-Rebiechowo, Poland (EPGD) 54-23N 018-28E 138M","Date":"Jan 01, 2012 - 02:00 PM EST / 2012.01.01 1900 UTC","Wind":"from the SW (230 degrees) at 6 MPH (5 KT) (direction variable):0","Visibility":"1 mile(s):0","Sky conditions":"overcast","Weather":"light drizzle; mist","Temperature":"35 F (2 C)","Windchill":"30 F (-1 C):1","Dew Point":"33 F (1 C)","Relative Humidity":"93%","Pressure (altimeter)":"29.74 in. Hg (1007 hPa)","ob":"EPGD 011900Z 23005KT 180V270 3000 -DZ BR OVC003 02/01 Q1007","cycle":"19"},
{"_id":"4495a8a111ec85eb6d2389a681fa17c3","_rev":"1-1e04440e4e69b3609ba5ba2c305bffe6","Location":"Gdansk-Rebiechowo, Poland (EPGD) 54-23N 018-28E 138M","Date":"Feb 09, 2012 - 07:00 PM EST / 2012.02.10 0000 UTC","Wind":"from the ESE (120 degrees) at 3 MPH (3 KT):0","Visibility":"greater than 7 mile(s):0","Sky conditions":"mostly cloudy","Temperature":"8 F (-13 C)","Dew Point":"3 F (-16 C)","Relative Humidity":"78%","Pressure (altimeter)":"30.71 in. Hg (1040 hPa)","ob":"EPGD 100000Z 12003KT 9999 SCT006 BKN017 M13/M16 Q1040 R/090095","cycle":"0"},
{"_id":"4495a8a111ec85eb6d2389a681fa1f38","_rev":"1-641fdc3abfa75eada628749966e55de8","Location":"Gdansk-Rebiechowo, Poland (EPGD) 54-23N 018-28E 138M","Date":"Jan 01, 2012 - 01:00 PM EST / 2012.01.01 1800 UTC","Wind":"from the SSW (200 degrees) at 5 MPH (4 KT) (direction variable):0","Visibility":"3 mile(s):0","Sky conditions":"overcast","Weather":"mist","Temperature":"35 F (2 C)","Windchill":"30 F (-1 C):1","Dew Point":"33 F (1 C)","Relative Humidity":"93%","Pressure (altimeter)":"29.74 in. Hg (1007 hPa)","ob":"EPGD 011800Z 20004KT 160V240 5000 BR OVC004 02/01 Q1007","cycle":"18"},
{"_id":"4495a8a111ec85eb6d2389a681fa28d7","_rev":"1-564ad5a093dc6ae5aa1f83953dd58774","Location":"Gdansk-Rebiechowo, Poland (EPGD) 54-23N 018-28E 138M","Date":"Dec 26, 2011 - 07:00 AM EST / 2011.12.26 1200 UTC","Wind":"from the W (270 degrees) at 21 MPH (18 KT) gusting to 32 MPH (28 KT):0","Visibility":"greater than 7 mile(s):0","Sky conditions":"mostly cloudy","Temperature":"48 F (9 C)","Dew Point":"44 F (7 C)","Relative Humidity":"87%","Pressure (altimeter)":"30.24 in. Hg (1024 hPa)","ob":"EPGD 261200Z 27018G28KT 9999 BKN011 09/07 Q1024","cycle":"12"},
{"_id":"4495a8a111ec85eb6d2389a681fa34ae","_rev":"1-0ea857a714f6ba5c098e933504c1ccd5","Location":"Gdansk-Rebiechowo, Poland (EPGD) 54-23N 018-28E 138M","Date":"Jan 24, 2012 - 06:00 AM EST / 2012.01.24 1100 UTC","Wind":"from the NW (310 degrees) at 6 MPH (5 KT):0","Visibility":"4 mile(s):0","Sky conditions":"mostly cloudy","Temperature":"33 F (1 C)","Windchill":"26 F (-3 C):1","Dew Point":"32 F (0 C)","Relative Humidity":"93%","Pressure (altimeter)":"29.94 in. Hg (1014 hPa)","ob":"EPGD 241100Z 31005KT 8000 FEW020 BKN038 01/M00 Q1014 R11/290095","cycle":"11"},
{"_id":"4495a8a111ec85eb6d2389a681fa3515","_rev":"1-78b793e1a3d6942467810a87b9df5ac8","Location":"Gdansk-Rebiechowo, Poland (EPGD) 54-23N 018-28E 138M","Date":"Feb 04, 2012 - 05:00 PM EST / 2012.02.04 2200 UTC","Wind":"from the E (100 degrees) at 3 MPH (3 KT):0","Visibility":"2 mile(s):0","Sky conditions":"mostly clear","Weather":"mist","Temperature":"-2 F (-19 C)","Dew Point":"-5 F (-21 C)","Relative Humidity":"84%","Pressure (altimeter)":"30.65 in. Hg (1038 hPa)","ob":"EPGD 042200Z 10003KT 4000 BR FEW019 M19/M21 Q1038 R11/490136","cycle":"22"},
{"_id":"4495a8a111ec85eb6d2389a681fa408c","_rev":"1-e4f13324de4e814a8ce27f09444e211b","Location":"Gdansk-Rebiechowo, Poland (EPGD) 54-23N 018-28E 138M","Date":"Dec 31, 2011 - 11:00 PM EST / 2012.01.01 0400 UTC","Wind":"from the S (170 degrees) at 3 MPH (3 KT) (direction variable):0","Visibility":"greater than 7 mile(s):0","Sky conditions":"mostly cloudy","Temperature":"30 F (-1 C)","Dew Point":"26 F (-3 C)","Relative Humidity":"86%","Pressure (altimeter)":"29.91 in. Hg (1013 hPa)","ob":"EPGD 010400Z 17003KT 130V200 9999 BKN016 M01/M03 Q1013","cycle":"4"},
{"_id":"4495a8a111ec85eb6d2389a681fa4898","_rev":"1-52cef908dfc9686d66d205f9a562bdb0","Location":"Gdansk-Rebiechowo, Poland (EPGD) 54-23N 018-28E 138M","Date":"Feb 09, 2012 - 11:00 AM EST / 2012.02.09 1600 UTC","Wind":"from the ENE (070 degrees) at 10 MPH (9 KT):0","Visibility":"greater than 7 mile(s):0","Sky conditions":"mostly cloudy","Temperature":"17 F (-8 C)","Windchill":"5 F (-15 C):1","Dew Point":"14 F (-10 C)","Relative Humidity":"85%","Pressure (altimeter)":"30.62 in. Hg (1037 hPa)","ob":"EPGD 091600Z 07009KT 9999 FEW009 BKN013 M08/M10 Q1037 R11/490333","cycle":"16"},
{"_id":"4495a8a111ec85eb6d2389a681fa4aa0","_rev":"1-26a208fd4bc905f5a0ab11a787bc5451","Location":"Gdansk-Rebiechowo, Poland (EPGD) 54-23N 018-28E 138M","Date":"Feb 16, 2012 - 11:00 AM EST / 2012.02.16 1600 UTC","Wind":"Variable at 1 MPH (1 KT):0","Visibility":"greater than 7 mile(s):0","Sky conditions":"mostly cloudy","Temperature":"28 F (-2 C)","Dew Point":"19 F (-7 C)","Relative Humidity":"68%","Pressure (altimeter)":"30.00 in. Hg (1016 hPa)","ob":"EPGD 161600Z VRB01KT 9999 FEW020 BKN036 M02/M07 Q1016 R11/190095","cycle":"16"},
{"_id":"4495a8a111ec85eb6d2389a681fa55e2","_rev":"1-6d92dfb21c0f3ad823befe2af7b22602","Location":"Gdansk-Rebiechowo, Poland (EPGD) 54-23N 018-28E 138M","Date":"Jan 08, 2012 - 01:00 PM EST / 2012.01.08 1800 UTC","Wind":"from the W (280 degrees) at 9 MPH (8 KT):0","Visibility":"3 mile(s):0","Sky conditions":"mostly cloudy","Weather":"light rain","Temperature":"35 F (2 C)","Windchill":"28 F (-2 C):1","Dew Point":"33 F (1 C)","Relative Humidity":"93%","Pressure (altimeter)":"29.83 in. Hg (1010 hPa)","ob":"EPGD 081800Z 28008KT 6000 -RA BKN007 02/01 Q1010","cycle":"18"},
{"_id":"4495a8a111ec85eb6d2389a681fa578a","_rev":"1-42cf55bf5db83dd230a79ab5a712b2a7","Location":"Gdansk-Rebiechowo, Poland (EPGD) 54-23N 018-28E 138M","Date":"Dec 14, 2011 - 09:00 PM EST / 2011.12.15 0200 UTC","Wind":"from the WSW (240 degrees) at 12 MPH (10 KT) (direction variable):0","Visibility":"greater than 7 mile(s):0","Sky conditions":"partly cloudy","Weather":"light rain showers","Temperature":"41 F (5 C)","Dew Point":"35 F (2 C)","Relative Humidity":"80%","Pressure (altimeter)":"29.53 in. Hg (1000 hPa)","ob":"EPGD 150200Z 24010KT 200V270 9999 -SHRA SCT013 05/02 Q1000","cycle":"2"},
{"_id":"4495a8a111ec85eb6d2389a681fa5f9b","_rev":"1-f183126fc5454224d334de633f67ba0f","Location":"Gdansk-Rebiechowo, Poland (EPGD) 54-23N 018-28E 138M","Date":"Feb 03, 2012 - 05:00 AM EST / 2012.02.03 1000 UTC","Wind":"from the SW (220 degrees) at 9 MPH (8 KT):0","Visibility":"2 mile(s):0","Weather":"mist","Temperature":"6 F (-14 C)","Windchill":"-7 F (-22 C):2","Dew Point":"0 F (-18 C)","Relative Humidity":"71%","Pressure (altimeter)":"30.47 in. Hg (1032 hPa)","ob":"EPGD 031000Z 22008KT 4000 BR NSC M14/M18 Q1032 R11/190095","cycle":"10"},
{"_id":"4495a8a111ec85eb6d2389a681fa6f0e","_rev":"1-0a9b51db60737c10bd57cbf0245446a7","Location":"Gdansk-Rebiechowo, Poland (EPGD) 54-23N 018-28E 138M","Date":"Feb 09, 2012 - 02:00 PM EST / 2012.02.09 1900 UTC","Wind":"Variable at 2 MPH (2 KT):0","Visibility":"greater than 7 mile(s):0","Sky conditions":"mostly cloudy","Weather":"light snow","Temperature":"15 F (-9 C)","Dew Point":"10 F (-12 C)","Relative Humidity":"78%","Pressure (altimeter)":"30.68 in. Hg (1039 hPa)","ob":"EPGD 091900Z VRB02KT 9999 -SN FEW005 BKN013 M09/M12 Q1039 R11/090095","cycle":"19"},
{"_id":"4495a8a111ec85eb6d2389a681fa7ae9","_rev":"1-ce71dbdb8152109e17f294080276de64","Location":"Gdansk-Rebiechowo, Poland (EPGD) 54-23N 018-28E 138M","Date":"Jan 16, 2012 - 06:00 AM EST / 2012.01.16 1100 UTC","Wind":"from the WNW (290 degrees) at 10 MPH (9 KT):0","Visibility":"greater than 7 mile(s):0","Sky conditions":"partly cloudy","Temperature":"30 F (-1 C)","Windchill":"21 F (-6 C):1","Dew Point":"24 F (-4 C)","Relative Humidity":"80%","Pressure (altimeter)":"30.15 in. Hg (1021 hPa)","ob":"EPGD 161100Z 29009KT 9999 FEW013 SCT036 M01/M04 Q1021 R11/290095","cycle":"11"},
{"_id":"4495a8a111ec85eb6d2389a681fa7c0c","_rev":"1-d8bb881dcc2e8663672a9753c036193d","Location":"Gdansk-Rebiechowo, Poland (EPGD) 54-23N 018-28E 138M","Date":"Jan 20, 2012 - 03:00 AM EST / 2012.01.20 0800 UTC","Wind":"from the W (280 degrees) at 10 MPH (9 KT):0","Visibility":"greater than 7 mile(s):0","Sky conditions":"mostly cloudy","Temperature":"33 F (1 C)","Windchill":"24 F (-4 C):1","Dew Point":"32 F (0 C)","Relative Humidity":"93%","Pressure (altimeter)":"29.47 in. Hg (0998 hPa)","ob":"EPGD 200800Z 28009KT 9999 BKN008 01/00 Q0998 R11/290095","cycle":"8"},
{"_id":"4495a8a111ec85eb6d2389a681fa8ba9","_rev":"1-269f521d8330ebe040e640813d3550f4","Location":"Gdansk-Rebiechowo, Poland (EPGD) 54-23N 018-28E 138M","Date":"Dec 29, 2011 - 06:00 AM EST / 2011.12.29 1100 UTC","Wind":"from the WSW (240 degrees) at 17 MPH (15 KT):0","Visibility":"greater than 7 mile(s):0","Sky conditions":"mostly cloudy","Temperature":"42 F (6 C)","Dew Point":"33 F (1 C)","Relative Humidity":"70%","Pressure (altimeter)":"29.68 in. Hg (1005 hPa)","ob":"EPGD 291100Z 24015KT 9999 BKN023 06/01 Q1005","cycle":"11"},
{"_id":"4495a8a111ec85eb6d2389a681fa9579","_rev":"1-27ff336170242f26d616ecff63998378","Location":"Gdansk-Rebiechowo, Poland (EPGD) 54-23N 018-28E 138M","Date":"Dec 24, 2011 - 04:00 AM EST / 2011.12.24 0900 UTC","Wind":"from the SW (230 degrees) at 6 MPH (5 KT) (direction variable):0","Visibility":"greater than 7 mile(s):0","Sky conditions":"mostly cloudy","Temperature":"39 F (4 C)","Dew Point":"39 F (4 C)","Relative Humidity":"100%","Pressure (altimeter)":"29.74 in. Hg (1007 hPa)","ob":"EPGD 240900Z 23005KT 190V260 9999 BKN004 04/04 Q1007","cycle":"9"},
{"_id":"4495a8a111ec85eb6d2389a681faa20f","_rev":"1-40f4c3b776779cf8105365b5e0866712","Location":"Gdansk-Rebiechowo, Poland (EPGD) 54-23N 018-28E 138M","Date":"Jan 19, 2012 - 07:00 PM EST / 2012.01.20 0000 UTC","Wind":"Calm:0","Visibility":"2 mile(s):0","Sky conditions":"mostly cloudy","Weather":"light snow","Temperature":"33 F (1 C)","Dew Point":"32 F (0 C)","Relative Humidity":"93%","Pressure (altimeter)":"29.38 in. Hg (0995 hPa)","ob":"EPGD 200000Z 00000KT 4000 -SN BKN004 01/M00 Q0995 RESN","cycle":"0"},
{"_id":"4495a8a111ec85eb6d2389a681faa804","_rev":"1-e0452bd489710fa8dfacf78c735977d2","Location":"Gdansk-Rebiechowo, Poland (EPGD) 54-23N 018-28E 138M","Date":"Jan 10, 2012 - 05:00 PM EST / 2012.01.10 2200 UTC","Wind":"from the W (260 degrees) at 5 MPH (4 KT) (direction variable):0","Visibility":"greater than 7 mile(s):0","Sky conditions":"mostly cloudy","Temperature":"33 F (1 C)","Windchill":"28 F (-2 C):1","Dew Point":"30 F (-1 C)","Relative Humidity":"86%","Pressure (altimeter)":"30.27 in. Hg (1025 hPa)","ob":"EPGD 102200Z 26004KT 230V300 9999 BKN013 01/M01 Q1025 R11/290060","cycle":"22"},
{"_id":"4495a8a111ec85eb6d2389a681fab6f6","_rev":"1-9ab6d798c8ec74f3bfa4c019ed52f124","Location":"Gdansk-Rebiechowo, Poland (EPGD) 54-23N 018-28E 138M","Date":"Dec 27, 2011 - 11:00 AM EST / 2011.12.27 1600 UTC","Wind":"from the W (280 degrees) at 18 MPH (16 KT):0","Visibility":"greater than 7 mile(s):0","Sky conditions":"mostly cloudy","Temperature":"42 F (6 C)","Dew Point":"39 F (4 C)","Relative Humidity":"86%","Pressure (altimeter)":"30.30 in. Hg (1026 hPa)","ob":"EPGD 271600Z 28016KT 9999 BKN014 06/04 Q1026","cycle":"16"},
{"_id":"4495a8a111ec85eb6d2389a681fabcac","_rev":"1-b7e141f03550c910019badc118fc05c7","Location":"Gdansk-Rebiechowo, Poland (EPGD) 54-23N 018-28E 138M","Date":"Jan 10, 2012 - 11:00 PM EST / 2012.01.11 0400 UTC","Wind":"from the SW (220 degrees) at 6 MPH (5 KT) (direction variable):0","Visibility":"4 mile(s):0","Sky conditions":"mostly cloudy","Temperature":"37 F (3 C)","Dew Point":"35 F (2 C)","Relative Humidity":"93%","Pressure (altimeter)":"30.18 in. Hg (1022 hPa)","ob":"EPGD 110400Z 22005KT 180V260 7000 BKN005 03/02 Q1022 R11/290060","cycle":"4"},
{"_id":"4495a8a111ec85eb6d2389a681fac1e7","_rev":"1-c9114cf66e75affdaa6fd4dea4e3f1a0","Location":"Gdansk-Rebiechowo, Poland (EPGD) 54-23N 018-28E 138M","Date":"Feb 13, 2012 - 11:00 AM EST / 2012.02.13 1600 UTC","Wind":"from the W (270 degrees) at 3 MPH (3 KT):0","Visibility":"greater than 7 mile(s):0","Sky conditions":"mostly cloudy","Temperature":"30 F (-1 C)","Dew Point":"24 F (-4 C)","Relative Humidity":"80%","Pressure (altimeter)":"29.97 in. Hg (1015 hPa)","ob":"EPGD 131600Z 27003KT 9999 BKN030 M01/M04 Q1015 R11/190095","cycle":"16"},
{"_id":"4495a8a111ec85eb6d2389a681fac531","_rev":"1-0db9beb403cf93eaa47e26817af5ed06","Location":"Gdansk-Rebiechowo, Poland (EPGD) 54-23N 018-28E 138M","Date":"Jan 07, 2012 - 05:00 AM EST / 2012.01.07 1000 UTC","Wind":"from the SW (230 degrees) at 10 MPH (9 KT) (direction variable):0","Visibility":"greater than 7 mile(s):0","Sky conditions":"mostly cloudy","Temperature":"35 F (2 C)","Windchill":"26 F (-3 C):1","Dew Point":"32 F (0 C)","Relative Humidity":"86%","Pressure (altimeter)":"29.65 in. Hg (1004 hPa)","ob":"EPGD 071000Z 23009KT 190V260 9999 BKN007 02/00 Q1004","cycle":"10"},
{"_id":"4495a8a111ec85eb6d2389a681face15","_rev":"1-e1f1cd7a4dd387fa90820b0aea7102ab","Location":"Gdansk-Rebiechowo, Poland (EPGD) 54-23N 018-28E 138M","Date":"Feb 03, 2012 - 01:00 PM EST / 2012.02.03 1800 UTC","Wind":"from the SW (220 degrees) at 5 MPH (4 KT) (direction variable):0","Visibility":"1 mile(s):0","Sky conditions":"mostly cloudy","Weather":"light snow; mist","Temperature":"12 F (-11 C)","Windchill":"3 F (-16 C):1","Dew Point":"8 F (-13 C)","Relative Humidity":"85%","Pressure (altimeter)":"30.53 in. Hg (1034 hPa)","ob":"EPGD 031800Z 22004KT 190V250 3000 -SN BR BKN012 M11/M13 Q1034 R11/490334","cycle":"18"},
{"_id":"4495a8a111ec85eb6d2389a681fad1ba","_rev":"1-8d08e4a8f01f643351a7645146489790","Location":"Gdansk-Rebiechowo, Poland (EPGD) 54-23N 018-28E 138M","Date":"Feb 15, 2012 - 09:00 AM EST / 2012.02.15 1400 UTC","Wind":"from the N (010 degrees) at 12 MPH (10 KT) (direction variable):0","Visibility":"1 mile(s):0","Sky conditions":"mostly cloudy","Weather":"light snow; mist","Temperature":"26 F (-3 C)","Windchill":"15 F (-9 C):1","Dew Point":"24 F (-4 C)","Relative Humidity":"92%","Pressure (altimeter)":"29.18 in. Hg (0988 hPa)","ob":"EPGD 151400Z 01010KT 340V040 2500 -SN BR SCT007 BKN010 M03/M04 Q0988 R11/490157","cycle":"14"},
{"_id":"4495a8a111ec85eb6d2389a681fad936","_rev":"1-09e914537e90bce9e521710f350fa427","Location":"Gdansk-Rebiechowo, Poland (EPGD) 54-23N 018-28E 138M","Date":"Jan 17, 2012 - 08:00 AM EST / 2012.01.17 1300 UTC","Wind":"Variable at 2 MPH (2 KT):0","Visibility":"greater than 7 mile(s):0","Sky conditions":"mostly clear","Temperature":"30 F (-1 C)","Dew Point":"24 F (-4 C)","Relative Humidity":"80%","Pressure (altimeter)":"30.18 in. Hg (1022 hPa)","ob":"EPGD 171300Z VRB02KT 9999 FEW030 M01/M04 Q1022 R11/290095","cycle":"13"},
{"_id":"4495a8a111ec85eb6d2389a681fade63","_rev":"1-9d878951f847f785433b2cb52832d018","Location":"Gdansk-Rebiechowo, Poland (EPGD) 54-23N 018-28E 138M","Date":"Feb 20, 2012 - 06:00 AM EST / 2012.02.20 1100 UTC","Wind":"from the WNW (290 degrees) at 17 MPH (15 KT):0","Visibility":"greater than 7 mile(s):0","Sky conditions":"mostly clear","Temperature":"35 F (2 C)","Windchill":"24 F (-4 C):1","Dew Point":"26 F (-3 C)","Relative Humidity":"69%","Pressure (altimeter)":"30.24 in. Hg (1024 hPa)","ob":"EPGD 201100Z 29015KT 9999 FEW019 02/M03 Q1024 R11/190095","cycle":"11"},
{"_id":"4495a8a111ec85eb6d2389a681fae967","_rev":"1-9a54845d2eb698c33b978d99ae21acc5","Location":"Gdansk-Rebiechowo, Poland (EPGD) 54-23N 018-28E 138M","Date":"Feb 03, 2012 - 06:00 PM EST / 2012.02.03 2300 UTC","Wind":"from the SW (220 degrees) at 6 MPH (5 KT) (direction variable):0","Visibility":"3 mile(s):0","Sky conditions":"mostly cloudy","Weather":"mist","Temperature":"8 F (-13 C)","Windchill":"-2 F (-19 C):1","Dew Point":"3 F (-16 C)","Relative Humidity":"78%","Pressure (altimeter)":"30.56 in. Hg (1035 hPa)","ob":"EPGD 032300Z 22005KT 190V260 5000 BR BKN017 M13/M16 Q1035 R11/490148","cycle":"23"},
{"_id":"4495a8a111ec85eb6d2389a681faf3bf","_rev":"1-7994b1480f80433968f7a0fd140a865f","Location":"Gdansk-Rebiechowo, Poland (EPGD) 54-23N 018-28E 138M","Date":"Feb 01, 2012 - 03:00 PM EST / 2012.02.01 2000 UTC","Wind":"Calm:0","Visibility":"4 mile(s):0","Sky conditions":"mostly cloudy","Weather":"light snow","Temperature":"10 F (-12 C)","Dew Point":"3 F (-16 C)","Relative Humidity":"72%","Pressure (altimeter)":"30.68 in. Hg (1039 hPa)","ob":"EPGD 012000Z 00000KT 7000 -SN SCT011 BKN023 M12/M16 Q1039 R11/190095","cycle":"20"},
{"_id":"4495a8a111ec85eb6d2389a681fafae2","_rev":"1-841059a0c2fc423877d1b48024fa35dd","Location":"Gdansk-Rebiechowo, Poland (EPGD) 54-23N 018-28E 138M","Date":"Jan 21, 2012 - 12:00 AM EST / 2012.01.21 0500 UTC","Wind":"from the WNW (290 degrees) at 8 MPH (7 KT):0","Visibility":"greater than 7 mile(s):0","Sky conditions":"mostly cloudy","Temperature":"30 F (-1 C)","Windchill":"23 F (-5 C):1","Dew Point":"26 F (-3 C)","Relative Humidity":"86%","Pressure (altimeter)":"29.74 in. Hg (1007 hPa)","ob":"EPGD 210500Z 29007KT 9999 BKN015 M01/M03 Q1007 R11/190095","cycle":"5"},
{"_id":"4495a8a111ec85eb6d2389a681fafbb8","_rev":"1-d6b75e81762d3025778657944b64eaa8","Location":"Gdansk-Rebiechowo, Poland (EPGD) 54-23N 018-28E 138M","Date":"Jan 08, 2012 - 08:00 AM EST / 2012.01.08 1300 UTC","Wind":"from the W (280 degrees) at 8 MPH (7 KT):0","Visibility":"greater than 7 mile(s):0","Sky conditions":"mostly cloudy","Weather":"Towering cumulus clouds observed","Temperature":"39 F (4 C)","Dew Point":"35 F (2 C)","Relative Humidity":"86%","Pressure (altimeter)":"29.71 in. Hg (1006 hPa)","ob":"EPGD 081300Z 28007KT 9999 FEW012TCU BKN016 04/02 Q1006","cycle":"13"},
{"_id":"4495a8a111ec85eb6d2389a681fb032d","_rev":"1-e3c1827a89d6de22e56201f87133e2b7","Location":"Gdansk-Rebiechowo, Poland (EPGD) 54-23N 018-28E 138M","Date":"Feb 11, 2012 - 06:00 PM EST / 2012.02.11 2300 UTC","Wind":"from the WSW (250 degrees) at 5 MPH (4 KT):0","Visibility":"greater than 7 mile(s):0","Sky conditions":"mostly cloudy","Weather":"light snow","Temperature":"19 F (-7 C)","Windchill":"12 F (-11 C):1","Dew Point":"15 F (-9 C)","Relative Humidity":"85%","Pressure (altimeter)":"30.45 in. Hg (1031 hPa)","ob":"EPGD 112300Z 25004KT 9999 -SN FEW017 BKN042 M07/M09 Q1031 R29/490241","cycle":"23"},
{"_id":"4495a8a111ec85eb6d2389a681fb0f06","_rev":"1-cd26a606a2da52d5b7ab909e6405eef8","Location":"Gdansk-Rebiechowo, Poland (EPGD) 54-23N 018-28E 138M","Date":"Jan 23, 2012 - 08:00 AM EST / 2012.01.23 1300 UTC","Wind":"from the WNW (300 degrees) at 13 MPH (11 KT):0","Visibility":"greater than 7 mile(s):0","Sky conditions":"partly cloudy","Temperature":"35 F (2 C)","Windchill":"26 F (-3 C):1","Dew Point":"32 F (0 C)","Relative Humidity":"86%","Pressure (altimeter)":"29.59 in. Hg (1002 hPa)","ob":"EPGD 231300Z 30011KT 9999 SCT009 SCT025 02/00 Q1002","cycle":"13"},
{"_id":"4495a8a111ec85eb6d2389a681fb1d5e","_rev":"1-56cea8001dd3392497b5d884394f2063","Location":"Gdansk-Rebiechowo, Poland (EPGD) 54-23N 018-28E 138M","Date":"Feb 14, 2012 - 05:00 AM EST / 2012.02.14 1000 UTC","Wind":"from the WSW (250 degrees) at 7 MPH (6 KT):0","Visibility":"3 mile(s):0","Weather":"mist","Temperature":"30 F (-1 C)","Windchill":"23 F (-5 C):1","Dew Point":"24 F (-4 C)","Relative Humidity":"80%","Pressure (altimeter)":"29.91 in. Hg (1013 hPa)","ob":"EPGD 141000Z 25006KT 5000 BR NSC M01/M04 Q1013 R29/190095","cycle":"10"},
{"_id":"4495a8a111ec85eb6d2389a681fb26c4","_rev":"1-ffa3f3c4c4f9d27ed75737b66ff8f144","Location":"Gdansk-Rebiechowo, Poland (EPGD) 54-23N 018-28E 138M","Date":"Feb 17, 2012 - 06:00 PM EST / 2012.02.17 2300 UTC","Wind":"from the WNW (300 degrees) at 12 MPH (10 KT):0","Visibility":"greater than 7 mile(s):0","Sky conditions":"mostly cloudy","Temperature":"33 F (1 C)","Windchill":"24 F (-4 C):1","Dew Point":"32 F (0 C)","Relative Humidity":"93%","Pressure (altimeter)":"29.85 in. Hg (1011 hPa)","ob":"EPGD 172300Z 30010KT 9999 BKN005 01/M00 Q1011 R11/190095","cycle":"23"},
{"_id":"4495a8a111ec85eb6d2389a681fb2f7e","_rev":"1-acb7cbc90e77928d9c76eba9945738d7","Location":"Gdansk-Rebiechowo, Poland (EPGD) 54-23N 018-28E 138M","Date":"Jan 22, 2012 - 09:00 PM EST / 2012.01.23 0200 UTC","Wind":"from the W (260 degrees) at 7 MPH (6 KT):0","Visibility":"greater than 7 mile(s):0","Sky conditions":"mostly cloudy","Temperature":"33 F (1 C)","Windchill":"26 F (-3 C):1","Dew Point":"30 F (-1 C)","Relative Humidity":"86%","Pressure (altimeter)":"29.38 in. Hg (0995 hPa)","ob":"EPGD 230200Z 26006KT 9999 BKN009 01/M01 Q0995 R11/290066","cycle":"2"},
{"_id":"4495a8a111ec85eb6d2389a681fb37dc","_rev":"1-284c37f734e0a6336d4e753918069ee1","Location":"Gdansk-Rebiechowo, Poland (EPGD) 54-23N 018-28E 138M","Date":"Jan 10, 2012 - 10:00 PM EST / 2012.01.11 0300 UTC","Wind":"from the SW (220 degrees) at 7 MPH (6 KT) (direction variable):0","Visibility":"4 mile(s):0","Sky conditions":"mostly cloudy","Temperature":"35 F (2 C)","Windchill":"28 F (-2 C):1","Dew Point":"35 F (2 C)","Relative Humidity":"100%","Pressure (altimeter)":"30.21 in. Hg (1023 hPa)","ob":"EPGD 110300Z 22006KT 180V260 7000 BKN005 02/02 Q1023 R11/290060","cycle":"3"},
{"_id":"4495a8a111ec85eb6d2389a681fb39d1","_rev":"1-79786b224307055cb7d6e1f7042af8c2","Location":"Gdansk-Rebiechowo, Poland (EPGD) 54-23N 018-28E 138M","Date":"Jan 08, 2012 - 03:00 PM EST / 2012.01.08 2000 UTC","Wind":"from the WNW (300 degrees) at 10 MPH (9 KT):0","Visibility":"greater than 7 mile(s):0","Sky conditions":"mostly cloudy","Temperature":"35 F (2 C)","Windchill":"26 F (-3 C):1","Dew Point":"33 F (1 C)","Relative Humidity":"93%","Pressure (altimeter)":"29.85 in. Hg (1011 hPa)","ob":"EPGD 082000Z 30009KT 9999 BKN003 02/01 Q1011","cycle":"20"},
{"_id":"4495a8a111ec85eb6d2389a681fb3fa5","_rev":"1-74a93916505e759605d71927dbd5f62a","Location":"Gdansk-Rebiechowo, Poland (EPGD) 54-23N 018-28E 138M","Date":"Jan 16, 2012 - 07:00 AM EST / 2012.01.16 1200 UTC","Wind":"from the NW (310 degrees) at 9 MPH (8 KT):0","Visibility":"greater than 7 mile(s):0","Sky conditions":"mostly clear","Temperature":"32 F (0 C)","Windchill":"24 F (-4 C):1","Dew Point":"24 F (-4 C)","Relative Humidity":"74%","Pressure (altimeter)":"30.12 in. Hg (1020 hPa)","ob":"EPGD 161200Z 31008KT 9999 FEW043 00/M04 Q1020 R11/290095","cycle":"12"},
{"_id":"4495a8a111ec85eb6d2389a681fb4056","_rev":"1-901781d0b4907c1c7e944c1afc631cbc","Location":"Gdansk-Rebiechowo, Poland (EPGD) 54-23N 018-28E 138M","Date":"Dec 16, 2011 - 06:00 PM EST / 2011.12.16 2300 UTC","Wind":"from the SE (130 degrees) at 14 MPH (12 KT):0","Visibility":"2 mile(s):0","Sky conditions":"mostly cloudy","Weather":"light rain; mist","Temperature":"35 F (2 C)","Windchill":"26 F (-3 C):1","Dew Point":"33 F (1 C)","Relative Humidity":"93%","Pressure (altimeter)":"28.67 in. Hg (0971 hPa)","ob":"EPGD 162300Z 13012KT 4000 -RA BR BKN002 02/01 Q0971 R11/690095","cycle":"23"},
{"_id":"4495a8a111ec85eb6d2389a681fb4298","_rev":"1-5e5a51167d143b799c9d26419b535dac","Location":"Gdansk-Rebiechowo, Poland (EPGD) 54-23N 018-28E 138M","Date":"Feb 06, 2012 - 02:00 AM EST / 2012.02.06 0700 UTC","Wind":"from the NW (310 degrees) at 2 MPH (2 KT):0","Visibility":"1 mile(s):0","Sky conditions":"partly cloudy","Weather":"mist","Temperature":"-4 F (-20 C)","Dew Point":"-9 F (-23 C)","Relative Humidity":"76%","Pressure (altimeter)":"30.68 in. Hg (1039 hPa)","ob":"EPGD 060700Z 31002KT 3000 BR FEW004 SCT008 M20/M23 Q1039 R/490145","cycle":"7"},
{"_id":"4495a8a111ec85eb6d2389a681fb49f5","_rev":"1-a74b8771092799ea696d26194a19517d","Location":"Gdansk-Rebiechowo, Poland (EPGD) 54-23N 018-28E 138M","Date":"Feb 20, 2012 - 12:00 AM EST / 2012.02.20 0500 UTC","Wind":"from the W (260 degrees) at 14 MPH (12 KT):0","Visibility":"greater than 7 mile(s):0","Sky conditions":"mostly cloudy","Temperature":"32 F (0 C)","Windchill":"21 F (-6 C):1","Dew Point":"26 F (-3 C)","Relative Humidity":"80%","Pressure (altimeter)":"30.06 in. Hg (1018 hPa)","ob":"EPGD 200500Z 26012KT 9999 BKN017 00/M03 Q1018 R11/290095","cycle":"5"},
{"_id":"4495a8a111ec85eb6d2389a681fb4e8e","_rev":"1-cafeb37a0761aa992b309e87faa323e6","Location":"Gdansk-Rebiechowo, Poland (EPGD) 54-23N 018-28E 138M","Date":"Jan 17, 2012 - 05:00 AM EST / 2012.01.17 1000 UTC","Wind":"Calm:0","Visibility":"greater than 7 mile(s):0","Sky conditions":"mostly cloudy","Temperature":"30 F (-1 C)","Dew Point":"28 F (-2 C)","Relative Humidity":"92%","Pressure (altimeter)":"30.18 in. Hg (1022 hPa)","ob":"EPGD 171000Z 00000KT 9999 BKN031 M01/M02 Q1022 R11/290053","cycle":"10"},
{"_id":"4495a8a111ec85eb6d2389a681fb53fb","_rev":"1-9eb9cb28cf62af7e44d3644c25fa1caa","Location":"Gdansk-Rebiechowo, Poland (EPGD) 54-23N 018-28E 138M","Date":"Feb 12, 2012 - 06:00 PM EST / 2012.02.12 2300 UTC","Wind":"from the W (270 degrees) at 7 MPH (6 KT):0","Visibility":"2 mile(s):0","Sky conditions":"overcast","Weather":"light snow; mist","Temperature":"23 F (-5 C)","Windchill":"14 F (-10 C):1","Dew Point":"21 F (-6 C)","Relative Humidity":"92%","Pressure (altimeter)":"30.09 in. Hg (1019 hPa)","ob":"EPGD 122300Z 27006KT 4000 -SN BR OVC005 M05/M06 Q1019 R29/490233","cycle":"23"},
{"_id":"4495a8a111ec85eb6d2389a681fb60c4","_rev":"1-30643a953f248d049f700e2328a62fbb","Location":"Gdansk-Rebiechowo, Poland (EPGD) 54-23N 018-28E 138M","Date":"Dec 23, 2011 - 05:00 PM EST / 2011.12.23 2200 UTC","Wind":"from the WSW (240 degrees) at 6 MPH (5 KT) (direction variable):0","Visibility":"1 mile(s):0","Sky conditions":"mostly cloudy","Weather":"light drizzle; mist","Temperature":"35 F (2 C)","Windchill":"30 F (-1 C):1","Dew Point":"35 F (2 C)","Relative Humidity":"100%","Pressure (altimeter)":"29.83 in. Hg (1010 hPa)","ob":"EPGD 232200Z 24005KT 180V270 2500 -DZ BR BKN003 02/02 Q1010","cycle":"22"},
{"_id":"4495a8a111ec85eb6d2389a681fb6956","_rev":"1-da4405b1e505959f36b7d904d374ba91","Location":"Gdansk-Rebiechowo, Poland (EPGD) 54-23N 018-28E 138M","Date":"Jan 21, 2012 - 04:00 PM EST / 2012.01.21 2100 UTC","Wind":"from the SSE (150 degrees) at 12 MPH (10 KT) (direction variable):0","Visibility":"less than 1 mile:0","Sky conditions":"overcast","Weather":"snow","Temperature":"32 F (0 C)","Windchill":"23 F (-5 C):1","Dew Point":"32 F (0 C)","Relative Humidity":"100%","Pressure (altimeter)":"29.21 in. Hg (0989 hPa)","ob":"EPGD 212100Z 15010KT 110V190 1100 R29/1100V2000 SN OVC003 M00/M00 Q0989 R11/590314","cycle":"21"},
{"_id":"4495a8a111ec85eb6d2389a681fb73cd","_rev":"1-acc32c128a404a79953f6de642213fbe","Location":"Gdansk-Rebiechowo, Poland (EPGD) 54-23N 018-28E 138M","Date":"Dec 31, 2011 - 08:00 AM EST / 2011.12.31 1300 UTC","Wind":"from the W (280 degrees) at 7 MPH (6 KT):0","Visibility":"greater than 7 mile(s):0","Temperature":"37 F (3 C)","Dew Point":"30 F (-1 C)","Relative Humidity":"74%","Pressure (altimeter)":"29.83 in. Hg (1010 hPa)","ob":"EPGD 311300Z 28006KT CAVOK 03/M01 Q1010","cycle":"13"},
{"_id":"4495a8a111ec85eb6d2389a681fb7491","_rev":"1-ab2f5fb0630e33a2fb06165202c8b49b","Location":"Gdansk-Rebiechowo, Poland (EPGD) 54-23N 018-28E 138M","Date":"Feb 01, 2012 - 07:00 PM EST / 2012.02.02 0000 UTC","Wind":"Calm:0","Visibility":"2 mile(s):0","Sky conditions":"mostly cloudy","Weather":"light snow","Temperature":"6 F (-14 C)","Dew Point":"1 F (-17 C)","Relative Humidity":"77%","Pressure (altimeter)":"30.65 in. Hg (1038 hPa)","ob":"EPGD 020000Z 00000KT 4000 -SN SCT006 BKN033 M14/M17 Q1038 R11/490150","cycle":"0"},
{"_id":"4495a8a111ec85eb6d2389a681fb77c9","_rev":"1-6df4f5d357bf87af4f10a57026fa2a6a","Location":"Gdansk-Rebiechowo, Poland (EPGD) 54-23N 018-28E 138M","Date":"Jan 28, 2012 - 08:00 AM EST / 2012.01.28 1300 UTC","Wind":"from the ESE (110 degrees) at 13 MPH (11 KT):0","Visibility":"4 mile(s):0","Sky conditions":"mostly clear","Temperature":"12 F (-11 C)","Windchill":"-2 F (-19 C):1","Dew Point":"6 F (-14 C)","Relative Humidity":"78%","Pressure (altimeter)":"30.56 in. Hg (1035 hPa)","ob":"EPGD 281300Z 11011KT 8000 FEW006 M11/M14 Q1035 R11/190095","cycle":"13"},
{"_id":"4495a8a111ec85eb6d2389a681fb7985","_rev":"1-2ac935a9df497d4be473a37f68548bc8","Location":"Gdansk-Rebiechowo, Poland (EPGD) 54-23N 018-28E 138M","Date":"Dec 14, 2011 - 07:00 AM EST / 2011.12.14 1200 UTC","Wind":"from the S (170 degrees) at 6 MPH (5 KT) (direction variable):0","Visibility":"greater than 7 mile(s):0","Temperature":"44 F (7 C)","Dew Point":"35 F (2 C)","Relative Humidity":"70%","Pressure (altimeter)":"29.59 in. Hg (1002 hPa)","ob":"EPGD 141200Z 17005KT 130V210 CAVOK 07/02 Q1002","cycle":"12"},
{"_id":"4495a8a111ec85eb6d2389a681fb8497","_rev":"1-4e9cea88050e9b05d2776d9882508847","Location":"Gdansk-Rebiechowo, Poland (EPGD) 54-23N 018-28E 138M","Date":"Jan 19, 2012 - 02:00 AM EST / 2012.01.19 0700 UTC","Wind":"from the W (270 degrees) at 16 MPH (14 KT):0","Visibility":"greater than 7 mile(s):0","Sky conditions":"mostly cloudy","Temperature":"35 F (2 C)","Windchill":"24 F (-4 C):1","Dew Point":"32 F (0 C)","Relative Humidity":"86%","Pressure (altimeter)":"29.74 in. Hg (1007 hPa)","ob":"EPGD 190700Z 27014KT 9999 BKN011 02/00 Q1007 R11/290095","cycle":"7"},
{"_id":"4495a8a111ec85eb6d2389a681fb905b","_rev":"1-e800c11bb7479bdc3c8705f3878f2079","Location":"Gdansk-Rebiechowo, Poland (EPGD) 54-23N 018-28E 138M","Date":"Feb 13, 2012 - 05:00 PM EST / 2012.02.13 2200 UTC","Wind":"from the WSW (250 degrees) at 3 MPH (3 KT):0","Visibility":"greater than 7 mile(s):0","Sky conditions":"mostly cloudy","Temperature":"28 F (-2 C)","Dew Point":"24 F (-4 C)","Relative Humidity":"86%","Pressure (altimeter)":"29.97 in. Hg (1015 hPa)","ob":"EPGD 132200Z 25003KT 9999 BKN046 M02/M04 Q1015 R11/190095","cycle":"22"},
{"_id":"4495a8a111ec85eb6d2389a681fb9f33","_rev":"1-bb890dd9afde4b9b396b67b97a121306","Location":"Gdansk-Rebiechowo, Poland (EPGD) 54-23N 018-28E 138M","Date":"Jan 01, 2012 - 06:00 AM EST / 2012.01.01 1100 UTC","Wind":"from the S (170 degrees) at 8 MPH (7 KT) (direction variable):0","Visibility":"greater than 7 mile(s):0","Temperature":"33 F (1 C)","Windchill":"26 F (-3 C):1","Dew Point":"30 F (-1 C)","Relative Humidity":"86%","Pressure (altimeter)":"29.83 in. Hg (1010 hPa)","ob":"EPGD 011100Z 17007KT 130V210 CAVOK 01/M01 Q1010","cycle":"11"},
{"_id":"4495a8a111ec85eb6d2389a681fba53d","_rev":"1-d6407fb554eea1cdc0e82209d9b42af0","Location":"Gdansk-Rebiechowo, Poland (EPGD) 54-23N 018-28E 138M","Date":"Jan 01, 2012 - 12:00 PM EST / 2012.01.01 1700 UTC","Wind":"from the S (170 degrees) at 6 MPH (5 KT) (direction variable):0","Visibility":"2 mile(s):0","Sky conditions":"mostly cloudy","Weather":"mist","Temperature":"33 F (1 C)","Windchill":"26 F (-3 C):1","Dew Point":"32 F (0 C)","Relative Humidity":"93%","Pressure (altimeter)":"29.74 in. Hg (1007 hPa)","ob":"EPGD 011700Z 17005KT 140V230 4500 BR BKN004 01/00 Q1007","cycle":"17"},
{"_id":"4495a8a111ec85eb6d2389a681fbaa8f","_rev":"1-e0772432999038d036bddeb2151a4896","Location":"Gdansk-Rebiechowo, Poland (EPGD) 54-23N 018-28E 138M","Date":"Feb 13, 2012 - 04:00 PM EST / 2012.02.13 2100 UTC","Wind":"from the W (270 degrees) at 3 MPH (3 KT):0","Visibility":"greater than 7 mile(s):0","Sky conditions":"mostly cloudy","Temperature":"28 F (-2 C)","Dew Point":"24 F (-4 C)","Relative Humidity":"86%","Pressure (altimeter)":"29.97 in. Hg (1015 hPa)","ob":"EPGD 132100Z 27003KT 9999 BKN033 M02/M04 Q1015 R11/190095","cycle":"21"},
{"_id":"4495a8a111ec85eb6d2389a681fbb449","_rev":"1-738db679e384a5a1e4cea65f134c967d","Location":"Gdansk-Rebiechowo, Poland (EPGD) 54-23N 018-28E 138M","Date":"Jan 09, 2012 - 06:00 AM EST / 2012.01.09 1100 UTC","Wind":"from the W (280 degrees) at 10 MPH (9 KT):0","Visibility":"greater than 7 mile(s):0","Sky conditions":"mostly cloudy","Temperature":"32 F (0 C)","Windchill":"23 F (-5 C):1","Dew Point":"26 F (-3 C)","Relative Humidity":"80%","Pressure (altimeter)":"30.09 in. Hg (1019 hPa)","ob":"EPGD 091100Z 28009KT 9999 BKN020 00/M03 Q1019 R11/290095","cycle":"11"},
{"_id":"4495a8a111ec85eb6d2389a681fbb7b2","_rev":"1-df6fdf8242e99a8c5818fe876b916068","Location":"Gdansk-Rebiechowo, Poland (EPGD) 54-23N 018-28E 138M","Date":"Feb 18, 2012 - 05:00 PM EST / 2012.02.18 2200 UTC","Wind":"from the S (180 degrees) at 9 MPH (8 KT) (direction variable):0","Visibility":"4 mile(s):0","Sky conditions":"mostly cloudy","Weather":"light rain","Temperature":"35 F (2 C)","Windchill":"28 F (-2 C):1","Dew Point":"33 F (1 C)","Relative Humidity":"93%","Pressure (altimeter)":"29.74 in. Hg (1007 hPa)","ob":"EPGD 182200Z 18008KT 140V230 8000 -RA BKN007 02/01 Q1007 R11/290095","cycle":"22"},
{"_id":"4495a8a111ec85eb6d2389a681fbc74a","_rev":"1-921cd6cc85388b092a36a014c991056f","Location":"Gdansk-Rebiechowo, Poland (EPGD) 54-23N 018-28E 138M","Date":"Jan 03, 2012 - 08:00 AM EST / 2012.01.03 1300 UTC","Wind":"from the SSW (210 degrees) at 12 MPH (10 KT) (direction variable):0","Visibility":"greater than 7 mile(s):0","Sky conditions":"mostly cloudy","Temperature":"39 F (4 C)","Dew Point":"33 F (1 C)","Relative Humidity":"80%","Pressure (altimeter)":"29.83 in. Hg (1010 hPa)","ob":"EPGD 031300Z 21010KT 170V240 9999 BKN019 04/01 Q1010","cycle":"13"},
{"_id":"4495a8a111ec85eb6d2389a681fbd4e7","_rev":"1-aedd147857493fe6de3715b801ebade7","Location":"Gdansk-Rebiechowo, Poland (EPGD) 54-23N 018-28E 138M","Date":"Dec 14, 2011 - 04:00 PM EST / 2011.12.14 2100 UTC","Wind":"from the SSW (200 degrees) at 15 MPH (13 KT) (direction variable):0","Visibility":"greater than 7 mile(s):0","Sky conditions":"mostly cloudy","Weather":"rain showers; Towering cumulus clouds observed","Temperature":"42 F (6 C)","Dew Point":"39 F (4 C)","Relative Humidity":"86%","Pressure (altimeter)":"29.44 in. Hg (0997 hPa)","ob":"EPGD 142100Z 20013KT 160V240 9999 SHRA FEW011 SCT015TCU BKN023 06/04 Q0997","cycle":"21"},
{"_id":"4495a8a111ec85eb6d2389a681fbe286","_rev":"1-5dac9259458a9be72fb791d94cccf8a4","Location":"Gdansk-Rebiechowo, Poland (EPGD) 54-23N 018-28E 138M","Date":"Feb 08, 2012 - 02:00 PM EST / 2012.02.08 1900 UTC","Wind":"from the W (280 degrees) at 7 MPH (6 KT):0","Visibility":"3 mile(s):0","Sky conditions":"mostly cloudy","Weather":"light snow","Temperature":"24 F (-4 C)","Windchill":"15 F (-9 C):1","Dew Point":"21 F (-6 C)","Relative Humidity":"85%","Pressure (altimeter)":"30.50 in. Hg (1033 hPa)","ob":"EPGD 081900Z 28006KT 6000 -SN FEW005 BKN011 M04/M06 Q1033 R11/190095","cycle":"19"},
{"_id":"4495a8a111ec85eb6d2389a681fbf045","_rev":"1-f3d8090f76d17034f5d53cee64436956","Location":"Gdansk-Rebiechowo, Poland (EPGD) 54-23N 018-28E 138M","Date":"Feb 05, 2012 - 01:00 AM EST / 2012.02.05 0600 UTC","Wind":"from the WNW (290 degrees) at 3 MPH (3 KT):0","Visibility":"1 mile(s):0","Sky conditions":"mostly clear","Weather":"mist","Temperature":"-14 F (-26 C)","Dew Point":"-22 F (-30 C)","Relative Humidity":"69%","Pressure (altimeter)":"30.68 in. Hg (1039 hPa)","ob":"EPGD 050600Z 29003KT 2500 BR FEW012 M26/M30 Q1039 R11/490162","cycle":"6"},
{"_id":"4495a8a111ec85eb6d2389a681fbfbcb","_rev":"1-738a6834fd75d1bf038fe7c774677c38","Location":"Gdansk-Rebiechowo, Poland (EPGD) 54-23N 018-28E 138M","Date":"Feb 02, 2012 - 10:00 PM EST / 2012.02.03 0300 UTC","Wind":"Variable at 2 MPH (2 KT):0","Visibility":"1 mile(s):0","Weather":"mist","Temperature":"-9 F (-23 C)","Dew Point":"-14 F (-26 C)","Relative Humidity":"76%","Pressure (altimeter)":"30.50 in. Hg (1033 hPa)","ob":"EPGD 030300Z VRB02KT 3000 BR NSC M23/M26 Q1033 R11/190095","cycle":"3"},
{"_id":"4495a8a111ec85eb6d2389a681fbfd60","_rev":"1-dcef1f65d5658693881c9e5ee256c3d2","Location":"Gdansk-Rebiechowo, Poland (EPGD) 54-23N 018-28E 138M","Date":"Feb 04, 2012 - 03:00 PM EST / 2012.02.04 2000 UTC","Wind":"from the ESE (110 degrees) at 6 MPH (5 KT):0","Visibility":"2 mile(s):0","Sky conditions":"mostly clear","Weather":"mist","Temperature":"0 F (-18 C)","Windchill":"-11 F (-24 C):2","Dew Point":"-4 F (-20 C)","Relative Humidity":"84%","Pressure (altimeter)":"30.62 in. Hg (1037 hPa)","ob":"EPGD 042000Z 11005KT 3500 BR FEW002 M18/M20 Q1037 R11/490136","cycle":"20"},
{"_id":"4495a8a111ec85eb6d2389a681fc00e9","_rev":"1-c02a65e794da03689a7941647c001913","Location":"Gdansk-Rebiechowo, Poland (EPGD) 54-23N 018-28E 138M","Date":"Feb 20, 2012 - 03:00 AM EST / 2012.02.20 0800 UTC","Wind":"from the W (270 degrees) at 10 MPH (9 KT):0","Visibility":"4 mile(s):0","Sky conditions":"mostly cloudy","Temperature":"32 F (0 C)","Windchill":"23 F (-5 C):1","Dew Point":"28 F (-2 C)","Relative Humidity":"86%","Pressure (altimeter)":"30.15 in. Hg (1021 hPa)","ob":"EPGD 200800Z 27009KT 7000 FEW008 BKN013 M00/M02 Q1021 R11/190095","cycle":"8"},
{"_id":"4495a8a111ec85eb6d2389a681fc0e22","_rev":"1-7b59e29eb8c2678420ba52e484dcb767","Location":"Gdansk-Rebiechowo, Poland (EPGD) 54-23N 018-28E 138M","Date":"Jan 26, 2012 - 11:00 AM EST / 2012.01.26 1600 UTC","Wind":"from the ESE (110 degrees) at 9 MPH (8 KT):0","Visibility":"3 mile(s):0","Sky conditions":"mostly cloudy","Weather":"light snow","Temperature":"26 F (-3 C)","Windchill":"17 F (-8 C):1","Dew Point":"23 F (-5 C)","Relative Humidity":"86%","Pressure (altimeter)":"30.42 in. Hg (1030 hPa)","ob":"EPGD 261600Z 11008KT 5000 -SN BKN008 M03/M05 Q1030 R11/290095","cycle":"16"},
{"_id":"4495a8a111ec85eb6d2389a681fc1b16","_rev":"1-8b36c29a099954b277d8ad1ae29e101c","Location":"Gdansk-Rebiechowo, Poland (EPGD) 54-23N 018-28E 138M","Date":"Dec 29, 2011 - 08:00 AM EST / 2011.12.29 1300 UTC","Wind":"from the SW (230 degrees) at 15 MPH (13 KT) (direction variable):0","Visibility":"greater than 7 mile(s):0","Sky conditions":"mostly cloudy","Weather":"light rain showers","Temperature":"41 F (5 C)","Dew Point":"35 F (2 C)","Relative Humidity":"80%","Pressure (altimeter)":"29.65 in. Hg (1004 hPa)","ob":"EPGD 291300Z 23013KT 200V260 9999 -SHRA BKN021 05/02 Q1004","cycle":"13"},
{"_id":"4495a8a111ec85eb6d2389a681fc1c3f","_rev":"1-b5d3caa854a60b5af25b7f39f9991662","Location":"Gdansk-Rebiechowo, Poland (EPGD) 54-23N 018-28E 138M","Date":"Feb 13, 2012 - 06:00 AM EST / 2012.02.13 1100 UTC","Wind":"from the W (280 degrees) at 6 MPH (5 KT) (direction variable):0","Visibility":"4 mile(s):0","Sky conditions":"partly cloudy","Temperature":"30 F (-1 C)","Windchill":"23 F (-5 C):1","Dew Point":"26 F (-3 C)","Relative Humidity":"86%","Pressure (altimeter)":"30.00 in. Hg (1016 hPa)","ob":"EPGD 131100Z 28005KT 240V300 8000 SCT040 M01/M03 Q1016 R11/490144","cycle":"11"},
{"_id":"4495a8a111ec85eb6d2389a681fc238f","_rev":"1-e0b510ea5f3a6116e07d9c9d69a3a91f","Location":"Gdansk-Rebiechowo, Poland (EPGD) 54-23N 018-28E 138M","Date":"Jan 18, 2012 - 11:00 AM EST / 2012.01.18 1600 UTC","Wind":"from the SW (220 degrees) at 5 MPH (4 KT) (direction variable):0","Visibility":"2 mile(s):0","Sky conditions":"mostly cloudy","Weather":"mist","Temperature":"33 F (1 C)","Windchill":"28 F (-2 C):1","Dew Point":"32 F (0 C)","Relative Humidity":"93%","Pressure (altimeter)":"30.06 in. Hg (1018 hPa)","ob":"EPGD 181600Z 22004KT 180V250 4000 BR SCT008 BKN022 01/M00 Q1018","cycle":"16"},
{"_id":"4495a8a111ec85eb6d2389a681fc2b35","_rev":"1-7bfb2277f79078193f2d4ef4d2488c46","Location":"Gdansk-Rebiechowo, Poland (EPGD) 54-23N 018-28E 138M","Date":"Feb 02, 2012 - 07:00 PM EST / 2012.02.03 0000 UTC","Wind":"from the S (180 degrees) at 2 MPH (2 KT):0","Visibility":"1 mile(s):0","Weather":"mist","Temperature":"-9 F (-23 C)","Dew Point":"-14 F (-26 C)","Relative Humidity":"76%","Pressure (altimeter)":"30.53 in. Hg (1034 hPa)","ob":"EPGD 030000Z 18002KT 3000 BR NSC M23/M26 Q1034 R11/190095","cycle":"0"},
{"_id":"4495a8a111ec85eb6d2389a681fc392b","_rev":"1-a547d5aadc756f464c34321341fdfb69","Location":"Gdansk-Rebiechowo, Poland (EPGD) 54-23N 018-28E 138M","Date":"Jan 17, 2012 - 01:00 PM EST / 2012.01.17 1800 UTC","Wind":"Variable at 2 MPH (2 KT):0","Visibility":"greater than 7 mile(s):0","Sky conditions":"mostly cloudy","Temperature":"28 F (-2 C)","Dew Point":"24 F (-4 C)","Relative Humidity":"86%","Pressure (altimeter)":"30.21 in. Hg (1023 hPa)","ob":"EPGD 171800Z VRB02KT 9999 FEW015 BKN023 M02/M04 Q1023 R11/290095","cycle":"18"},
{"_id":"4495a8a111ec85eb6d2389a681fc425d","_rev":"1-3479da430f9d0d00acc642dd0c9d0958","Location":"Gdansk-Rebiechowo, Poland (EPGD) 54-23N 018-28E 138M","Date":"Dec 28, 2011 - 09:00 AM EST / 2011.12.28 1400 UTC","Wind":"from the SSW (210 degrees) at 9 MPH (8 KT) (direction variable):0","Visibility":"4 mile(s):0","Sky conditions":"mostly cloudy","Temperature":"41 F (5 C)","Dew Point":"39 F (4 C)","Relative Humidity":"93%","Pressure (altimeter)":"30.12 in. Hg (1020 hPa)","ob":"EPGD 281400Z 21008KT 170V240 8000 SCT009 BKN013 05/04 Q1020","cycle":"14"},
{"_id":"4495a8a111ec85eb6d2389a681fc507e","_rev":"1-a7b2e12db9aee3dde57d7c81c74dc5b1","Location":"Gdansk-Rebiechowo, Poland (EPGD) 54-23N 018-28E 138M","Date":"Jan 30, 2012 - 03:00 AM EST / 2012.01.30 0800 UTC","Wind":"from the ESE (110 degrees) at 9 MPH (8 KT):0","Visibility":"greater than 7 mile(s):0","Temperature":"6 F (-14 C)","Windchill":"-7 F (-22 C):2","Dew Point":"0 F (-18 C)","Relative Humidity":"71%","Pressure (altimeter)":"30.80 in. Hg (1043 hPa)","ob":"EPGD 300800Z 11008KT CAVOK M14/M18 Q1043 R11/190095","cycle":"8"},
{"_id":"4495a8a111ec85eb6d2389a681fc5dc6","_rev":"1-8a15ef19cdbcada980d898bfb31c16cf","Location":"Gdansk-Rebiechowo, Poland (EPGD) 54-23N 018-28E 138M","Date":"Feb 01, 2012 - 10:00 PM EST / 2012.02.02 0300 UTC","Wind":"Calm:0","Visibility":"3 mile(s):0","Sky conditions":"mostly cloudy","Weather":"light snow","Temperature":"0 F (-18 C)","Dew Point":"-4 F (-20 C)","Relative Humidity":"84%","Pressure (altimeter)":"30.62 in. Hg (1037 hPa)","ob":"EPGD 020300Z 00000KT 5000 -SN BKN009 M18/M20 Q1037 R11/490150","cycle":"3"},
{"_id":"4495a8a111ec85eb6d2389a681fc6742","_rev":"1-04dfc871aa607293a5a276c8dc7bc9dc","Location":"Gdansk-Rebiechowo, Poland (EPGD) 54-23N 018-28E 138M","Date":"Feb 11, 2012 - 04:00 PM EST / 2012.02.11 2100 UTC","Wind":"from the W (260 degrees) at 5 MPH (4 KT):0","Visibility":"greater than 7 mile(s):0","Sky conditions":"mostly cloudy","Temperature":"21 F (-6 C)","Windchill":"14 F (-10 C):1","Dew Point":"17 F (-8 C)","Relative Humidity":"85%","Pressure (altimeter)":"30.47 in. Hg (1032 hPa)","ob":"EPGD 112100Z 26004KT 9999 FEW028 BKN038 M06/M08 Q1032 R29/490241","cycle":"21"},
{"_id":"4495a8a111ec85eb6d2389a681fc74c6","_rev":"1-fc28537f1fe2d52b622db3f6b4aba934","Location":"Gdansk-Rebiechowo, Poland (EPGD) 54-23N 018-28E 138M","Date":"Dec 30, 2011 - 09:00 PM EST / 2011.12.31 0200 UTC","Wind":"from the WNW (290 degrees) at 5 MPH (4 KT):0","Visibility":"greater than 7 mile(s):0","Sky conditions":"overcast","Temperature":"33 F (1 C)","Windchill":"28 F (-2 C):1","Dew Point":"33 F (1 C)","Relative Humidity":"100%","Pressure (altimeter)":"29.68 in. Hg (1005 hPa)","ob":"EPGD 310200Z 29004KT 9999 OVC004 01/01 Q1005","cycle":"2"},
{"_id":"4495a8a111ec85eb6d2389a681fc8405","_rev":"1-da18f2293e6884851c9d3eb6a0983b4f","Location":"Gdansk-Rebiechowo, Poland (EPGD) 54-23N 018-28E 138M","Date":"Dec 13, 2011 - 09:00 PM EST / 2011.12.14 0200 UTC","Wind":"from the SSW (210 degrees) at 12 MPH (10 KT) (direction variable):0","Visibility":"greater than 7 mile(s):0","Sky conditions":"mostly cloudy","Temperature":"41 F (5 C)","Dew Point":"37 F (3 C)","Relative Humidity":"86%","Pressure (altimeter)":"29.56 in. Hg (1001 hPa)","ob":"EPGD 140200Z 21010KT 180V240 9999 BKN009 05/03 Q1001","cycle":"2"},
{"_id":"4495a8a111ec85eb6d2389a681fc85f2","_rev":"1-912315a9efbdc59c76273c52e4ff4216","Location":"Gdansk-Rebiechowo, Poland (EPGD) 54-23N 018-28E 138M","Date":"Feb 19, 2012 - 02:00 PM EST / 2012.02.19 1900 UTC","Wind":"from the WSW (250 degrees) at 15 MPH (13 KT) gusting to 26 MPH (23 KT):0","Visibility":"greater than 7 mile(s):0","Sky conditions":"mostly cloudy","Temperature":"35 F (2 C)","Windchill":"24 F (-4 C):1","Dew Point":"30 F (-1 C)","Relative Humidity":"80%","Pressure (altimeter)":"29.80 in. Hg (1009 hPa)","ob":"EPGD 191900Z 25013G23KT 9999 FEW021 BKN033 02/M01 Q1009 R11/290095","cycle":"19"},
{"_id":"4495a8a111ec85eb6d2389a681fc8666","_rev":"1-fc0520bb38e30f0c649d905e3ed32617","Location":"Gdansk-Rebiechowo, Poland (EPGD) 54-23N 018-28E 138M","Date":"Feb 13, 2012 - 11:00 PM EST / 2012.02.14 0400 UTC","Wind":"from the W (260 degrees) at 3 MPH (3 KT) (direction variable):0","Visibility":"greater than 7 mile(s):0","Temperature":"24 F (-4 C)","Dew Point":"21 F (-6 C)","Relative Humidity":"85%","Pressure (altimeter)":"29.94 in. Hg (1014 hPa)","ob":"EPGD 140400Z 26003KT 220V280 CAVOK M04/M06 Q1014 R11/190095","cycle":"4"},
{"_id":"4495a8a111ec85eb6d2389a681fc87ca","_rev":"1-79300a3dc6479b6e204a9215c86b33a8","Location":"Gdansk-Rebiechowo, Poland (EPGD) 54-23N 018-28E 138M","Date":"Jan 23, 2012 - 09:00 AM EST / 2012.01.23 1400 UTC","Wind":"from the NW (310 degrees) at 14 MPH (12 KT):0","Visibility":"greater than 7 mile(s):0","Sky conditions":"mostly cloudy","Temperature":"35 F (2 C)","Windchill":"26 F (-3 C):1","Dew Point":"32 F (0 C)","Relative Humidity":"86%","Pressure (altimeter)":"29.62 in. Hg (1003 hPa)","ob":"EPGD 231400Z 31012KT 9999 FEW011 BKN030 02/M00 Q1003","cycle":"14"},
{"_id":"4495a8a111ec85eb6d2389a681fc96cc","_rev":"1-3696d502ba7edc7f659c73c07f5c8199","Location":"Gdansk-Rebiechowo, Poland (EPGD) 54-23N 018-28E 138M","Date":"Feb 05, 2012 - 02:00 AM EST / 2012.02.05 0700 UTC","Wind":"from the WNW (290 degrees) at 2 MPH (2 KT):0","Visibility":"1 mile(s):0","Sky conditions":"mostly cloudy","Weather":"mist","Temperature":"-14 F (-26 C)","Dew Point":"-20 F (-29 C)","Relative Humidity":"75%","Pressure (altimeter)":"30.68 in. Hg (1039 hPa)","ob":"EPGD 050700Z 29002KT 1800 BR FEW006 BKN012 M26/M29 Q1039 R11/490162","cycle":"7"},
{"_id":"4495a8a111ec85eb6d2389a681fc9f7d","_rev":"1-21658ef1a18d888be83b9bc5a4497a86","Location":"Gdansk-Rebiechowo, Poland (EPGD) 54-23N 018-28E 138M","Date":"Dec 13, 2011 - 10:00 AM EST / 2011.12.13 1500 UTC","Wind":"from the S (170 degrees) at 15 MPH (13 KT) gusting to 26 MPH (23 KT) (direction variable):0","Visibility":"greater than 7 mile(s):0","Temperature":"39 F (4 C)","Dew Point":"30 F (-1 C)","Relative Humidity":"69%","Pressure (altimeter)":"29.53 in. Hg (1000 hPa)","ob":"EPGD 131500Z 17013G23KT 120V190 CAVOK 04/M01 Q1000","cycle":"15"},
{"_id":"4495a8a111ec85eb6d2389a681fcaa6b","_rev":"1-72f219398379fa0be3d5012be0ced143","Location":"Gdansk-Rebiechowo, Poland (EPGD) 54-23N 018-28E 138M","Date":"Jan 09, 2012 - 06:00 PM EST / 2012.01.09 2300 UTC","Wind":"Calm:0","Visibility":"greater than 7 mile(s):0","Sky conditions":"mostly cloudy","Temperature":"30 F (-1 C)","Dew Point":"26 F (-3 C)","Relative Humidity":"86%","Pressure (altimeter)":"30.00 in. Hg (1016 hPa)","ob":"EPGD 092300Z 00000KT 9999 BKN037 M01/M03 Q1016 R11/290095","cycle":"23"},
{"_id":"4495a8a111ec85eb6d2389a681fcb622","_rev":"1-bd13318c2235cfe076ab4df8ab1ab4f2","Location":"Gdansk-Rebiechowo, Poland (EPGD) 54-23N 018-28E 138M","Date":"Feb 08, 2012 - 06:00 PM EST / 2012.02.08 2300 UTC","Wind":"Variable at 2 MPH (2 KT):0","Visibility":"1 mile(s):0","Sky conditions":"mostly cloudy","Weather":"snow; mist","Temperature":"24 F (-4 C)","Dew Point":"23 F (-5 C)","Relative Humidity":"92%","Pressure (altimeter)":"30.42 in. Hg (1030 hPa)","ob":"EPGD 082300Z VRB02KT 2000 SN BR BKN006 M04/M05 Q1030 R11/490042","cycle":"23"},
{"_id":"4495a8a111ec85eb6d2389a681fcbcf6","_rev":"1-61a94331969e987b584190a2c30667e3","Location":"Gdansk-Rebiechowo, Poland (EPGD) 54-23N 018-28E 138M","Date":"Jan 10, 2012 - 11:00 AM EST / 2012.01.10 1600 UTC","Wind":"from the WNW (290 degrees) at 7 MPH (6 KT):0","Visibility":"1 mile(s):0","Sky conditions":"mostly cloudy","Weather":"mist","Temperature":"33 F (1 C)","Windchill":"26 F (-3 C):1","Dew Point":"32 F (0 C)","Relative Humidity":"93%","Pressure (altimeter)":"30.24 in. Hg (1024 hPa)","ob":"EPGD 101600Z 29006KT 2200 BR BKN003 01/00 Q1024 R11/290060","cycle":"16"},
{"_id":"4495a8a111ec85eb6d2389a681fcc9a8","_rev":"1-3e1c4d0b3dca6d4e9c548c6ac13eee6f","Location":"Gdansk-Rebiechowo, Poland (EPGD) 54-23N 018-28E 138M","Date":"Jan 07, 2012 - 11:00 AM EST / 2012.01.07 1600 UTC","Wind":"from the SSW (200 degrees) at 8 MPH (7 KT) (direction variable):0","Visibility":"greater than 7 mile(s):0","Sky conditions":"mostly cloudy","Temperature":"35 F (2 C)","Windchill":"28 F (-2 C):1","Dew Point":"32 F (0 C)","Relative Humidity":"86%","Pressure (altimeter)":"29.53 in. Hg (1000 hPa)","ob":"EPGD 071600Z 20007KT 160V250 9999 BKN008 02/00 Q1000","cycle":"16"},
{"_id":"4495a8a111ec85eb6d2389a681fccdf4","_rev":"1-f4e103056d247e98889ae45d0a95a8f7","Location":"Gdansk-Rebiechowo, Poland (EPGD) 54-23N 018-28E 138M","Date":"Dec 18, 2011 - 02:00 PM EST / 2011.12.18 1900 UTC","Wind":"from the WSW (240 degrees) at 13 MPH (11 KT) (direction variable):0","Visibility":"1 mile(s):0","Sky conditions":"mostly cloudy","Weather":"light snow showers; Cumulonimbus clouds observed","Temperature":"33 F (1 C)","Windchill":"23 F (-5 C):1","Dew Point":"30 F (-1 C)","Relative Humidity":"86%","Pressure (altimeter)":"29.44 in. Hg (0997 hPa)","ob":"EPGD 181900Z 24011KT 200V260 3000 -SHSN SCT011CB BKN016 01/M01 Q0997","cycle":"19"},
{"_id":"4495a8a111ec85eb6d2389a681fcdb34","_rev":"1-bb0cb0de9d8150862ad2423cb79d3aa2","Location":"Gdansk-Rebiechowo, Poland (EPGD) 54-23N 018-28E 138M","Date":"Jan 15, 2012 - 09:00 PM EST / 2012.01.16 0200 UTC","Wind":"from the NW (310 degrees) at 3 MPH (3 KT):0","Visibility":"greater than 7 mile(s):0","Sky conditions":"partly cloudy","Temperature":"26 F (-3 C)","Dew Point":"24 F (-4 C)","Relative Humidity":"92%","Pressure (altimeter)":"30.15 in. Hg (1021 hPa)","ob":"EPGD 160200Z 31003KT 9999 FEW018 SCT035 M03/M04 Q1021 R11/590142","cycle":"2"},
{"_id":"4495a8a111ec85eb6d2389a681fcdb87","_rev":"1-65d0cc6dbdd3d683445f234af0493097","Location":"Gdansk-Rebiechowo, Poland (EPGD) 54-23N 018-28E 138M","Date":"Dec 17, 2011 - 10:00 PM EST / 2011.12.18 0300 UTC","Wind":"from the W (270 degrees) at 18 MPH (16 KT) gusting to 32 MPH (28 KT):0","Visibility":"greater than 7 mile(s):0","Sky conditions":"partly cloudy","Temperature":"35 F (2 C)","Windchill":"24 F (-4 C):1","Dew Point":"28 F (-2 C)","Relative Humidity":"74%","Pressure (altimeter)":"29.18 in. Hg (0988 hPa)","ob":"EPGD 180300Z 27016G28KT 9999 FEW015 SCT036 02/M02 Q0988 R11/290064","cycle":"3"},
{"_id":"4495a8a111ec85eb6d2389a681fceae6","_rev":"1-7a4f0905ac96f666e53a5b453b5a1ca1","Location":"Gdansk-Rebiechowo, Poland (EPGD) 54-23N 018-28E 138M","Date":"Jan 22, 2012 - 01:00 AM EST / 2012.01.22 0600 UTC","Wind":"from the SSW (210 degrees) at 6 MPH (5 KT) (direction variable):0","Visibility":"greater than 7 mile(s):0","Sky conditions":"mostly cloudy","Temperature":"33 F (1 C)","Windchill":"26 F (-3 C):1","Dew Point":"33 F (1 C)","Relative Humidity":"100%","Pressure (altimeter)":"29.21 in. Hg (0989 hPa)","ob":"EPGD 220600Z 21005KT 170V240 9999 SCT005 BKN009 01/01 Q0989 R11/290066","cycle":"6"},
{"_id":"4495a8a111ec85eb6d2389a681fcec1b","_rev":"1-96fcfdd8de2b3a75bdb30e3e88b36bdb","Location":"Gdansk-Rebiechowo, Poland (EPGD) 54-23N 018-28E 138M","Date":"Dec 13, 2011 - 06:00 PM EST / 2011.12.13 2300 UTC","Wind":"from the SSW (200 degrees) at 8 MPH (7 KT) (direction variable):0","Visibility":"greater than 7 mile(s):0","Sky conditions":"mostly cloudy","Temperature":"41 F (5 C)","Dew Point":"37 F (3 C)","Relative Humidity":"86%","Pressure (altimeter)":"29.53 in. Hg (1000 hPa)","ob":"EPGD 132300Z 20007KT 160V250 9999 BKN008 05/03 Q1000","cycle":"23"},
{"_id":"4495a8a111ec85eb6d2389a681fcf9e6","_rev":"1-2623d23748f0ba1a0b257841a2423e3a","Location":"Gdansk-Rebiechowo, Poland (EPGD) 54-23N 018-28E 138M","Date":"Jan 14, 2012 - 08:00 PM EST / 2012.01.15 0100 UTC","Wind":"from the NNW (330 degrees) at 20 MPH (17 KT):0","Visibility":"greater than 7 mile(s):0","Sky conditions":"mostly cloudy","Temperature":"32 F (0 C)","Windchill":"19 F (-7 C):1","Dew Point":"23 F (-5 C)","Relative Humidity":"69%","Pressure (altimeter)":"29.91 in. Hg (1013 hPa)","ob":"EPGD 150100Z 33017KT 9999 BKN026 00/M05 Q1013 R11/590230","cycle":"1"},
{"_id":"4495a8a111ec85eb6d2389a681fd05d5","_rev":"1-56c22f8fd92cd474ad82051c3da3ddc7","Location":"Gdansk-Rebiechowo, Poland (EPGD) 54-23N 018-28E 138M","Date":"Jan 01, 2012 - 08:00 AM EST / 2012.01.01 1300 UTC","Wind":"from the S (170 degrees) at 8 MPH (7 KT) (direction variable):0","Visibility":"greater than 7 mile(s):0","Sky conditions":"mostly cloudy","Temperature":"33 F (1 C)","Windchill":"26 F (-3 C):1","Dew Point":"30 F (-1 C)","Relative Humidity":"86%","Pressure (altimeter)":"29.77 in. Hg (1008 hPa)","ob":"EPGD 011300Z 17007KT 120V210 9999 BKN010 01/M01 Q1008","cycle":"13"},
{"_id":"4495a8a111ec85eb6d2389a681fd0e6d","_rev":"1-250a0df2125c438abbed42e1d6eeed97","Location":"Gdansk-Rebiechowo, Poland (EPGD) 54-23N 018-28E 138M","Date":"Feb 09, 2012 - 09:00 PM EST / 2012.02.10 0200 UTC","Wind":"from the WNW (300 degrees) at 3 MPH (3 KT):0","Visibility":"greater than 7 mile(s):0","Sky conditions":"mostly cloudy","Temperature":"3 F (-16 C)","Dew Point":"0 F (-18 C)","Relative Humidity":"84%","Pressure (altimeter)":"30.71 in. Hg (1040 hPa)","ob":"EPGD 100200Z 30003KT 9999 SCT005 BKN021 M16/M18 Q1040 R11/090095","cycle":"2"},
{"_id":"4495a8a111ec85eb6d2389a681fd14e8","_rev":"1-7f497f88b3579c438b54f1f970990dc2","Location":"Gdansk-Rebiechowo, Poland (EPGD) 54-23N 018-28E 138M","Date":"Jan 25, 2012 - 06:00 PM EST / 2012.01.25 2300 UTC","Wind":"from the NE (050 degrees) at 6 MPH (5 KT):0","Visibility":"greater than 7 mile(s):0","Sky conditions":"mostly cloudy","Temperature":"30 F (-1 C)","Windchill":"23 F (-5 C):1","Dew Point":"26 F (-3 C)","Relative Humidity":"86%","Pressure (altimeter)":"30.27 in. Hg (1025 hPa)","ob":"EPGD 252300Z 05005KT 9999 FEW011 SCT016 BKN045 M01/M03 Q1025 R11/290095","cycle":"23"},
{"_id":"4495a8a111ec85eb6d2389a681fd2086","_rev":"1-efe81b8c6181f73166ced01b0074493f","Location":"Gdansk-Rebiechowo, Poland (EPGD) 54-23N 018-28E 138M","Date":"Dec 14, 2011 - 03:00 PM EST / 2011.12.14 2000 UTC","Wind":"from the S (180 degrees) at 13 MPH (11 KT) (direction variable):0","Visibility":"greater than 7 mile(s):0","Sky conditions":"mostly cloudy","Weather":"light rain showers; Towering cumulus clouds observed","Temperature":"44 F (7 C)","Dew Point":"39 F (4 C)","Relative Humidity":"81%","Pressure (altimeter)":"29.44 in. Hg (0997 hPa)","ob":"EPGD 142000Z 18011KT 150V210 9999 -SHRA SCT023TCU BKN033 07/04 Q0997","cycle":"20"},
{"_id":"4495a8a111ec85eb6d2389a681fd214f","_rev":"1-2a9a3b8c097ff40a899b6029610c4a10","Location":"Gdansk-Rebiechowo, Poland (EPGD) 54-23N 018-28E 138M","Date":"Jan 26, 2012 - 04:00 PM EST / 2012.01.26 2100 UTC","Wind":"from the ESE (110 degrees) at 10 MPH (9 KT):0","Visibility":"3 mile(s):0","Weather":"mist","Temperature":"17 F (-8 C)","Windchill":"5 F (-15 C):1","Dew Point":"15 F (-9 C)","Relative Humidity":"92%","Pressure (altimeter)":"30.45 in. Hg (1031 hPa)","ob":"EPGD 262100Z 11009KT 5000 BR NSC M08/M09 Q1031","cycle":"21"},
{"_id":"4495a8a111ec85eb6d2389a681fd2be8","_rev":"1-6cebdc00c2eb2528fc178b761f2d7c47","Location":"Gdansk-Rebiechowo, Poland (EPGD) 54-23N 018-28E 138M","Date":"Feb 04, 2012 - 09:00 PM EST / 2012.02.05 0200 UTC","Wind":"Calm:0","Visibility":"2 mile(s):0","Weather":"mist","Temperature":"-11 F (-24 C)","Dew Point":"-16 F (-27 C)","Relative Humidity":"76%","Pressure (altimeter)":"30.65 in. Hg (1038 hPa)","ob":"EPGD 050200Z 00000KT 3500 BR NSC M24/M27 Q1038 R11/490136","cycle":"2"},
{"_id":"4495a8a111ec85eb6d2389a681fd2d00","_rev":"1-68c6f97752e5f5eb9d4530ae8635e232","Location":"Gdansk-Rebiechowo, Poland (EPGD) 54-23N 018-28E 138M","Date":"Feb 14, 2012 - 07:00 PM EST / 2012.02.15 0000 UTC","Wind":"from the S (180 degrees) at 13 MPH (11 KT) (direction variable):0","Visibility":"1 mile(s):0","Sky conditions":"mostly cloudy","Weather":"light snow; mist","Temperature":"24 F (-4 C)","Windchill":"12 F (-11 C):1","Dew Point":"21 F (-6 C)","Relative Humidity":"85%","Pressure (altimeter)":"29.23 in. Hg (0990 hPa)","ob":"EPGD 150000Z 18011KT 150V220 2200 -SN BR SCT005 BKN011 M04/M06 Q0990 R11/590243","cycle":"0"},
{"_id":"4495a8a111ec85eb6d2389a681fd334c","_rev":"1-c85a213ee3f5a228f161cd59e307f3be","Location":"Gdansk-Rebiechowo, Poland (EPGD) 54-23N 018-28E 138M","Date":"Jan 06, 2012 - 09:00 AM EST / 2012.01.06 1400 UTC","Wind":"from the NW (320 degrees) at 16 MPH (14 KT):0","Visibility":"1 mile(s):0","Sky conditions":"mostly cloudy","Weather":"light snow; mist","Temperature":"33 F (1 C)","Windchill":"23 F (-5 C):1","Dew Point":"32 F (0 C)","Relative Humidity":"93%","Pressure (altimeter)":"29.56 in. Hg (1001 hPa)","ob":"EPGD 061400Z 32014KT 2000 -SN BR BKN006 01/M00 Q1001","cycle":"14"},
{"_id":"4495a8a111ec85eb6d2389a681fd3dc3","_rev":"1-ec894567d5f483f0c524fb876f870d17","Location":"Gdansk-Rebiechowo, Poland (EPGD) 54-23N 018-28E 138M","Date":"Dec 22, 2011 - 01:00 PM EST / 2011.12.22 1800 UTC","Wind":"Calm:0","Visibility":"1 mile(s):0","Sky conditions":"overcast","Weather":"mist","Temperature":"26 F (-3 C)","Dew Point":"24 F (-4 C)","Relative Humidity":"92%","Pressure (altimeter)":"30.12 in. Hg (1020 hPa)","ob":"EPGD 221800Z 00000KT 2500 BR OVC004 M03/M04 Q1020","cycle":"18"},
{"_id":"4495a8a111ec85eb6d2389a681fd3dd0","_rev":"1-26887bd287f39d0dcc24980934457f33","Location":"Gdansk-Rebiechowo, Poland (EPGD) 54-23N 018-28E 138M","Date":"Dec 19, 2011 - 07:00 AM EST / 2011.12.19 1200 UTC","Wind":"from the SW (220 degrees) at 13 MPH (11 KT) (direction variable):0","Visibility":"greater than 7 mile(s):0","Sky conditions":"mostly cloudy","Temperature":"37 F (3 C)","Dew Point":"30 F (-1 C)","Relative Humidity":"74%","Pressure (altimeter)":"29.74 in. Hg (1007 hPa)","ob":"EPGD 191200Z 22011KT 180V260 9999 BKN016 03/M01 Q1007 R11/290062","cycle":"12"},
{"_id":"4495a8a111ec85eb6d2389a681fd4be5","_rev":"1-94af758a66eb710ae3935b08f1222d8c","Location":"Gdansk-Rebiechowo, Poland (EPGD) 54-23N 018-28E 138M","Date":"Jan 05, 2012 - 11:00 AM EST / 2012.01.05 1600 UTC","Wind":"from the SW (220 degrees) at 13 MPH (11 KT) (direction variable):0","Visibility":"greater than 7 mile(s):0","Temperature":"37 F (3 C)","Dew Point":"33 F (1 C)","Relative Humidity":"86%","Pressure (altimeter)":"28.67 in. Hg (0971 hPa)","ob":"EPGD 051600Z 22011KT 190V280 CAVOK 03/01 Q0971","cycle":"16"},
{"_id":"4495a8a111ec85eb6d2389a681fd54c5","_rev":"1-7c21e873b2b51e5a31fd3cedecd2561e","Location":"Gdansk-Rebiechowo, Poland (EPGD) 54-23N 018-28E 138M","Date":"Jan 05, 2012 - 10:00 PM EST / 2012.01.06 0300 UTC","Wind":"from the NE (040 degrees) at 5 MPH (4 KT):0","Visibility":"greater than 7 mile(s):0","Sky conditions":"partly cloudy","Weather":"light rain showers","Temperature":"35 F (2 C)","Windchill":"30 F (-1 C):1","Dew Point":"33 F (1 C)","Relative Humidity":"93%","Pressure (altimeter)":"28.85 in. Hg (0977 hPa)","ob":"EPGD 060300Z 04004KT 9999 -SHRA SCT011 SCT022 02/01 Q0977","cycle":"3"},
{"_id":"4495a8a111ec85eb6d2389a681fd5da4","_rev":"1-8b51606a2e5b225a13e0ee71a054be29","Location":"Gdansk-Rebiechowo, Poland (EPGD) 54-23N 018-28E 138M","Date":"Dec 28, 2011 - 12:00 PM EST / 2011.12.28 1700 UTC","Wind":"from the SSW (210 degrees) at 13 MPH (11 KT) (direction variable):0","Visibility":"greater than 7 mile(s):0","Sky conditions":"mostly cloudy","Temperature":"42 F (6 C)","Dew Point":"35 F (2 C)","Relative Humidity":"75%","Pressure (altimeter)":"30.03 in. Hg (1017 hPa)","ob":"EPGD 281700Z 21011KT 170V260 9999 FEW007 BKN015 06/02 Q1017","cycle":"17"},
{"_id":"4495a8a111ec85eb6d2389a681fd67a8","_rev":"1-775bde86ea2fe9df64f26a0e22700f59","Location":"Gdansk-Rebiechowo, Poland (EPGD) 54-23N 018-28E 138M","Date":"Jan 29, 2012 - 04:00 PM EST / 2012.01.29 2100 UTC","Wind":"from the ESE (110 degrees) at 3 MPH (3 KT):0","Visibility":"greater than 7 mile(s):0","Temperature":"8 F (-13 C)","Dew Point":"0 F (-18 C)","Relative Humidity":"66%","Pressure (altimeter)":"30.80 in. Hg (1043 hPa)","ob":"EPGD 292100Z 11003KT CAVOK M13/M18 Q1043 R11/190095","cycle":"21"},
{"_id":"4495a8a111ec85eb6d2389a681fd6b78","_rev":"1-06426692f4afda16e8594335cd008549","Location":"Gdansk-Rebiechowo, Poland (EPGD) 54-23N 018-28E 138M","Date":"Dec 26, 2011 - 10:00 PM EST / 2011.12.27 0300 UTC","Wind":"from the W (260 degrees) at 23 MPH (20 KT) gusting to 35 MPH (30 KT):0","Visibility":"greater than 7 mile(s):0","Sky conditions":"mostly cloudy","Temperature":"50 F (10 C)","Dew Point":"44 F (7 C)","Relative Humidity":"81%","Pressure (altimeter)":"30.18 in. Hg (1022 hPa)","ob":"EPGD 270300Z 26020G30KT 9999 BKN015 10/07 Q1022","cycle":"3"},
{"_id":"4495a8a111ec85eb6d2389a681fd711a","_rev":"1-3a5db09c567cababa1a8530e5875755b","Location":"Gdansk-Rebiechowo, Poland (EPGD) 54-23N 018-28E 138M","Date":"Jan 14, 2012 - 12:00 PM EST / 2012.01.14 1700 UTC","Wind":"from the NW (320 degrees) at 16 MPH (14 KT):0","Visibility":"greater than 7 mile(s):0","Sky conditions":"partly cloudy","Weather":"Towering cumulus clouds observed","Temperature":"30 F (-1 C)","Windchill":"19 F (-7 C):1","Dew Point":"26 F (-3 C)","Relative Humidity":"86%","Pressure (altimeter)":"29.85 in. Hg (1011 hPa)","ob":"EPGD 141700Z 32014KT 9999 FEW005 FEW010TCU SCT030 M01/M03 Q1011 RESHSN R11/590234","cycle":"17"},
{"_id":"4495a8a111ec85eb6d2389a681fd808a","_rev":"1-022c8a22fe5836f68faca3a5fd8e7ae6","Location":"Gdansk-Rebiechowo, Poland (EPGD) 54-23N 018-28E 138M","Date":"Jan 18, 2012 - 04:00 PM EST / 2012.01.18 2100 UTC","Wind":"from the SW (230 degrees) at 8 MPH (7 KT) (direction variable):0","Visibility":"greater than 7 mile(s):0","Sky conditions":"mostly cloudy","Temperature":"32 F (0 C)","Windchill":"24 F (-4 C):1","Dew Point":"28 F (-2 C)","Relative Humidity":"86%","Pressure (altimeter)":"29.88 in. Hg (1012 hPa)","ob":"EPGD 182100Z 23007KT 190V270 9999 BKN009 00/M02 Q1012 R11/290095","cycle":"21"},
{"_id":"4495a8a111ec85eb6d2389a681fd815a","_rev":"1-26831e279e7982f7efa0cec0a344abc8","Location":"Gdansk-Rebiechowo, Poland (EPGD) 54-23N 018-28E 138M","Date":"Jan 02, 2012 - 03:00 PM EST / 2012.01.02 2000 UTC","Wind":"from the W (270 degrees) at 6 MPH (5 KT):0","Visibility":"greater than 7 mile(s):0","Sky conditions":"mostly clear","Temperature":"42 F (6 C)","Dew Point":"41 F (5 C)","Relative Humidity":"93%","Pressure (altimeter)":"29.71 in. Hg (1006 hPa)","ob":"EPGD 022000Z 27005KT 9999 FEW011 06/05 Q1006","cycle":"20"},
{"_id":"4495a8a111ec85eb6d2389a681fd9067","_rev":"1-f0932e01f1f4d2541144a126cab30548","Location":"Gdansk-Rebiechowo, Poland (EPGD) 54-23N 018-28E 138M","Date":"Jan 21, 2012 - 06:00 PM EST / 2012.01.21 2300 UTC","Wind":"from the S (170 degrees) at 6 MPH (5 KT) (direction variable):0","Visibility":"1 mile(s):0","Sky conditions":"overcast","Weather":"light snow; mist","Temperature":"32 F (0 C)","Windchill":"26 F (-3 C):1","Dew Point":"30 F (-1 C)","Relative Humidity":"92%","Pressure (altimeter)":"29.15 in. Hg (0987 hPa)","ob":"EPGD 212300Z 17005KT 120V230 2800 -SN BR OVC005 M00/M01 Q0987 R11/590348","cycle":"23"},
{"_id":"4495a8a111ec85eb6d2389a681fd9be6","_rev":"1-634f35b601edefd96c3a00ca3f76fbd8","Location":"Gdansk-Rebiechowo, Poland (EPGD) 54-23N 018-28E 138M","Date":"Jan 30, 2012 - 12:00 PM EST / 2012.01.30 1700 UTC","Wind":"from the E (100 degrees) at 7 MPH (6 KT):0","Visibility":"greater than 7 mile(s):0","Temperature":"8 F (-13 C)","Windchill":"-4 F (-20 C):1","Dew Point":"1 F (-17 C)","Relative Humidity":"71%","Pressure (altimeter)":"30.77 in. Hg (1042 hPa)","ob":"EPGD 301700Z 10006KT CAVOK M13/M17 Q1042","cycle":"17"},
{"_id":"4495a8a111ec85eb6d2389a681fd9e18","_rev":"1-c83cd53a9e923cc78cbc6acfd46775d6","Location":"Gdansk-Rebiechowo, Poland (EPGD) 54-23N 018-28E 138M","Date":"Jan 26, 2012 - 01:00 PM EST / 2012.01.26 1800 UTC","Wind":"from the ESE (110 degrees) at 9 MPH (8 KT):0","Visibility":"3 mile(s):0","Sky conditions":"mostly cloudy","Weather":"light snow","Temperature":"24 F (-4 C)","Windchill":"14 F (-10 C):1","Dew Point":"21 F (-6 C)","Relative Humidity":"85%","Pressure (altimeter)":"30.42 in. Hg (1030 hPa)","ob":"EPGD 261800Z 11008KT 5000 -SN BKN007 M04/M06 Q1030 R11/290095","cycle":"18"},
{"_id":"4495a8a111ec85eb6d2389a681fda5bd","_rev":"1-ec3d967c4d87966dcd1fb09f9f4717ea","Location":"Gdansk-Rebiechowo, Poland (EPGD) 54-23N 018-28E 138M","Date":"Jan 12, 2012 - 02:00 AM EST / 2012.01.12 0700 UTC","Wind":"from the SW (230 degrees) at 15 MPH (13 KT) (direction variable):0","Visibility":"4 mile(s):0","Sky conditions":"mostly cloudy","Weather":"light drizzle","Temperature":"41 F (5 C)","Dew Point":"39 F (4 C)","Relative Humidity":"93%","Pressure (altimeter)":"29.83 in. Hg (1010 hPa)","ob":"EPGD 120700Z 23013KT 200V280 8000 -DZ BKN008 05/04 Q1010 R11/290095","cycle":"7"},
{"_id":"4495a8a111ec85eb6d2389a681fda5f9","_rev":"1-4e0ca2ed807a4a6b76f89fac70fd08d9","Location":"Gdansk-Rebiechowo, Poland (EPGD) 54-23N 018-28E 138M","Date":"Jan 09, 2012 - 01:00 AM EST / 2012.01.09 0600 UTC","Wind":"from the NW (310 degrees) at 12 MPH (10 KT):0","Visibility":"greater than 7 mile(s):0","Sky conditions":"mostly cloudy","Weather":"light rain, snow","Temperature":"33 F (1 C)","Windchill":"24 F (-4 C):1","Dew Point":"30 F (-1 C)","Relative Humidity":"86%","Pressure (altimeter)":"30.03 in. Hg (1017 hPa)","ob":"EPGD 090600Z 31010KT 9999 -RASN FEW009 BKN028 01/M01 Q1017 R11/290095","cycle":"6"},
{"_id":"4495a8a111ec85eb6d2389a681fdb268","_rev":"1-4547616b62a90f49ed37a57dcc60f19d","Location":"Gdansk-Rebiechowo, Poland (EPGD) 54-23N 018-28E 138M","Date":"Feb 12, 2012 - 02:00 PM EST / 2012.02.12 1900 UTC","Wind":"from the WSW (240 degrees) at 9 MPH (8 KT) (direction variable):0","Visibility":"greater than 7 mile(s):0","Sky conditions":"mostly cloudy","Temperature":"21 F (-6 C)","Windchill":"10 F (-12 C):1","Dew Point":"17 F (-8 C)","Relative Humidity":"85%","Pressure (altimeter)":"30.12 in. Hg (1020 hPa)","ob":"EPGD 121900Z 24008KT 210V270 9999 BKN013 M06/M08 Q1020 R11/490233","cycle":"19"},
{"_id":"4495a8a111ec85eb6d2389a681fdbc95","_rev":"1-756462d27d5036babf3a1a0997d359da","Location":"Gdansk-Rebiechowo, Poland (EPGD) 54-23N 018-28E 138M","Date":"Jan 26, 2012 - 06:00 AM EST / 2012.01.26 1100 UTC","Wind":"from the ESE (120 degrees) at 9 MPH (8 KT):0","Visibility":"1 mile(s):0","Sky conditions":"mostly cloudy","Weather":"mist","Temperature":"26 F (-3 C)","Windchill":"17 F (-8 C):1","Dew Point":"23 F (-5 C)","Relative Humidity":"86%","Pressure (altimeter)":"30.42 in. Hg (1030 hPa)","ob":"EPGD 261100Z 12008KT 3000 BR BKN006 M03/M05 Q1030 R11/290095","cycle":"11"},
{"_id":"4495a8a111ec85eb6d2389a681fdcb1d","_rev":"1-bbdc0c2eded8ee77ab14df2b1680bf07","Location":"Gdansk-Rebiechowo, Poland (EPGD) 54-23N 018-28E 138M","Date":"Jan 29, 2012 - 02:00 PM EST / 2012.01.29 1900 UTC","Wind":"from the ESE (110 degrees) at 6 MPH (5 KT):0","Visibility":"greater than 7 mile(s):0","Temperature":"12 F (-11 C)","Windchill":"3 F (-16 C):1","Dew Point":"1 F (-17 C)","Relative Humidity":"61%","Pressure (altimeter)":"30.80 in. Hg (1043 hPa)","ob":"EPGD 291900Z 11005KT CAVOK M11/M17 Q1043 R11/190095","cycle":"19"},
{"_id":"4495a8a111ec85eb6d2389a681fdd794","_rev":"1-5a9b6c3c41ca5542a14593091ef2e6db","Location":"Gdansk-Rebiechowo, Poland (EPGD) 54-23N 018-28E 138M","Date":"Dec 17, 2011 - 03:00 AM EST / 2011.12.17 0800 UTC","Wind":"from the S (190 degrees) at 6 MPH (5 KT) (direction variable):0","Visibility":"greater than 7 mile(s):0","Sky conditions":"mostly cloudy","Temperature":"33 F (1 C)","Windchill":"26 F (-3 C):1","Dew Point":"32 F (0 C)","Relative Humidity":"93%","Pressure (altimeter)":"28.73 in. Hg (0973 hPa)","ob":"EPGD 170800Z 19005KT 150V230 9999 BKN005 01/M00 Q0973 R11/290064","cycle":"8"},
{"_id":"4495a8a111ec85eb6d2389a681fde0c4","_rev":"1-61a55b63ff435cee63e9ab4f2f5856ba","Location":"Gdansk-Rebiechowo, Poland (EPGD) 54-23N 018-28E 138M","Date":"Feb 13, 2012 - 08:00 AM EST / 2012.02.13 1300 UTC","Wind":"from the W (270 degrees) at 8 MPH (7 KT):0","Visibility":"greater than 7 mile(s):0","Sky conditions":"mostly clear","Temperature":"32 F (0 C)","Windchill":"24 F (-4 C):1","Dew Point":"26 F (-3 C)","Relative Humidity":"80%","Pressure (altimeter)":"29.97 in. Hg (1015 hPa)","ob":"EPGD 131300Z 27007KT 9999 FEW015 M00/M03 Q1015 R11/190095","cycle":"13"},
{"_id":"4495a8a111ec85eb6d2389a681fdef40","_rev":"1-5379d11816c166e248fe3ee438b638a4","Location":"Gdansk-Rebiechowo, Poland (EPGD) 54-23N 018-28E 138M","Date":"Feb 18, 2012 - 10:00 AM EST / 2012.02.18 1500 UTC","Wind":"from the SSW (200 degrees) at 6 MPH (5 KT) (direction variable):0","Visibility":"greater than 7 mile(s):0","Sky conditions":"partly cloudy","Temperature":"35 F (2 C)","Windchill":"30 F (-1 C):1","Dew Point":"30 F (-1 C)","Relative Humidity":"80%","Pressure (altimeter)":"29.85 in. Hg (1011 hPa)","ob":"EPGD 181500Z 20005KT 160V250 9999 SCT013 02/M01 Q1011 R11/190095","cycle":"15"},
{"_id":"4495a8a111ec85eb6d2389a681fdf3ad","_rev":"1-01e6999f770157772c13ec28291ca550","Location":"Gdansk-Rebiechowo, Poland (EPGD) 54-23N 018-28E 138M","Date":"Feb 03, 2012 - 10:00 PM EST / 2012.02.04 0300 UTC","Wind":"from the SSW (210 degrees) at 8 MPH (7 KT):0","Visibility":"3 mile(s):0","Sky conditions":"mostly cloudy","Weather":"mist","Temperature":"6 F (-14 C)","Windchill":"-7 F (-22 C):2","Dew Point":"3 F (-16 C)","Relative Humidity":"84%","Pressure (altimeter)":"30.53 in. Hg (1034 hPa)","ob":"EPGD 040300Z 21007KT 5000 BR SCT013 BKN023 M14/M16 Q1034 R11/490148","cycle":"3"},
{"_id":"4495a8a111ec85eb6d2389a681fdf9d9","_rev":"1-981def076e4c12084d0008deaf18c4be","Location":"Gdansk-Rebiechowo, Poland (EPGD) 54-23N 018-28E 138M","Date":"Jan 27, 2012 - 04:00 AM EST / 2012.01.27 0900 UTC","Wind":"from the SE (130 degrees) at 5 MPH (4 KT):0","Visibility":"3 mile(s):0","Weather":"mist","Temperature":"12 F (-11 C)","Windchill":"3 F (-16 C):1","Dew Point":"8 F (-13 C)","Relative Humidity":"85%","Pressure (altimeter)":"30.47 in. Hg (1032 hPa)","ob":"EPGD 270900Z 13004KT 5000 BR NSC M11/M13 Q1032 R11/190095","cycle":"9"},
{"_id":"4495a8a111ec85eb6d2389a681fe01fb","_rev":"1-f45bd89aca59163b51cdc6c611057028","Location":"Gdansk-Rebiechowo, Poland (EPGD) 54-23N 018-28E 138M","Date":"Feb 11, 2012 - 11:00 PM EST / 2012.02.12 0400 UTC","Wind":"from the WSW (250 degrees) at 5 MPH (4 KT):0","Visibility":"greater than 7 mile(s):0","Sky conditions":"mostly cloudy","Temperature":"17 F (-8 C)","Windchill":"8 F (-13 C):1","Dew Point":"12 F (-11 C)","Relative Humidity":"78%","Pressure (altimeter)":"30.39 in. Hg (1029 hPa)","ob":"EPGD 120400Z 25004KT 9999 FEW023 BKN040 M08/M11 Q1029 R29/490241","cycle":"4"},
{"_id":"4495a8a111ec85eb6d2389a681fe0b57","_rev":"1-bc02bc3dc8e48858a129104758be502f","Location":"Gdansk-Rebiechowo, Poland (EPGD) 54-23N 018-28E 138M","Date":"Dec 15, 2011 - 06:00 AM EST / 2011.12.15 1100 UTC","Wind":"from the SW (220 degrees) at 13 MPH (11 KT) (direction variable):0","Visibility":"greater than 7 mile(s):0","Temperature":"41 F (5 C)","Dew Point":"33 F (1 C)","Relative Humidity":"75%","Pressure (altimeter)":"29.65 in. Hg (1004 hPa)","ob":"EPGD 151100Z 22011KT 190V250 CAVOK 05/01 Q1004","cycle":"11"},
{"_id":"4495a8a111ec85eb6d2389a681fe1a80","_rev":"1-721df89c1452aa6c8987623bd468ab93","Location":"Gdansk-Rebiechowo, Poland (EPGD) 54-23N 018-28E 138M","Date":"Dec 14, 2011 - 07:00 PM EST / 2011.12.15 0000 UTC","Wind":"from the WSW (240 degrees) at 10 MPH (9 KT) (direction variable):0","Visibility":"greater than 7 mile(s):0","Sky conditions":"mostly cloudy","Weather":"light rain showers; Towering cumulus clouds observed","Temperature":"41 F (5 C)","Dew Point":"37 F (3 C)","Relative Humidity":"86%","Pressure (altimeter)":"29.47 in. Hg (0998 hPa)","ob":"EPGD 150000Z 24009KT 210V280 9999 -SHRA SCT009 BKN011TCU 05/03 Q0998","cycle":"0"},
{"_id":"4495a8a111ec85eb6d2389a681fe1f91","_rev":"1-2f7353d1ccc70c6599883dbb6c8769c1","Location":"Gdansk-Rebiechowo, Poland (EPGD) 54-23N 018-28E 138M","Date":"Dec 17, 2011 - 01:00 AM EST / 2011.12.17 0600 UTC","Wind":"from the S (170 degrees) at 7 MPH (6 KT) (direction variable):0","Visibility":"greater than 7 mile(s):0","Sky conditions":"mostly cloudy","Weather":"light rain","Temperature":"33 F (1 C)","Windchill":"26 F (-3 C):1","Dew Point":"32 F (0 C)","Relative Humidity":"93%","Pressure (altimeter)":"28.70 in. Hg (0972 hPa)","ob":"EPGD 170600Z 17006KT 130V210 9999 -RA FEW005 BKN009 01/M00 Q0972 R11/290064","cycle":"6"},
{"_id":"4495a8a111ec85eb6d2389a681fe285f","_rev":"1-cf9a6ef554b9bcb301263b78211b2966","Location":"Gdansk-Rebiechowo, Poland (EPGD) 54-23N 018-28E 138M","Date":"Jan 17, 2012 - 10:00 PM EST / 2012.01.18 0300 UTC","Wind":"from the SW (230 degrees) at 3 MPH (3 KT) (direction variable):0","Visibility":"2 mile(s):0","Sky conditions":"mostly cloudy","Weather":"light snow; mist","Temperature":"32 F (0 C)","Dew Point":"30 F (-1 C)","Relative Humidity":"92%","Pressure (altimeter)":"30.18 in. Hg (1022 hPa)","ob":"EPGD 180300Z 23003KT 190V260 3500 -SN BR BKN005 00/M01 Q1022 R11/290095","cycle":"3"},
{"_id":"4495a8a111ec85eb6d2389a681fe2ec6","_rev":"1-ba7f8d03126b4d8cef10bce41b2d2997","Location":"Gdansk-Rebiechowo, Poland (EPGD) 54-23N 018-28E 138M","Date":"Feb 04, 2012 - 07:00 AM EST / 2012.02.04 1200 UTC","Wind":"from the SE (130 degrees) at 10 MPH (9 KT) (direction variable):0","Visibility":"1 mile(s):0","Sky conditions":"partly cloudy","Weather":"light snow; mist","Temperature":"8 F (-13 C)","Windchill":"-5 F (-21 C):2","Dew Point":"3 F (-16 C)","Relative Humidity":"78%","Pressure (altimeter)":"30.56 in. Hg (1035 hPa)","ob":"EPGD 041200Z 13009KT 110V170 2200 -SN BR SCT009 M13/M16 Q1035 R11/490136","cycle":"12"},
{"_id":"4495a8a111ec85eb6d2389a681fe30d6","_rev":"1-f6e32a469364841af626b04d9d8d05a4","Location":"Gdansk-Rebiechowo, Poland (EPGD) 54-23N 018-28E 138M","Date":"Dec 25, 2011 - 08:00 AM EST / 2011.12.25 1300 UTC","Wind":"from the WSW (240 degrees) at 12 MPH (10 KT) (direction variable):0","Visibility":"4 mile(s):0","Sky conditions":"mostly cloudy","Temperature":"39 F (4 C)","Dew Point":"35 F (2 C)","Relative Humidity":"86%","Pressure (altimeter)":"30.15 in. Hg (1021 hPa)","ob":"EPGD 251300Z 24010KT 210V270 8000 BKN009 04/02 Q1021","cycle":"13"},
{"_id":"4495a8a111ec85eb6d2389a681fe33fb","_rev":"1-4f9d1849a126fdec00e2b19813610031","Location":"Gdansk-Rebiechowo, Poland (EPGD) 54-23N 018-28E 138M","Date":"Dec 15, 2011 - 12:00 AM EST / 2011.12.15 0500 UTC","Wind":"from the WSW (240 degrees) at 12 MPH (10 KT) (direction variable):0","Visibility":"greater than 7 mile(s):0","Sky conditions":"partly cloudy","Temperature":"39 F (4 C)","Dew Point":"35 F (2 C)","Relative Humidity":"86%","Pressure (altimeter)":"29.59 in. Hg (1002 hPa)","ob":"EPGD 150500Z 24010KT 200V270 9999 SCT011 SCT036 04/02 Q1002","cycle":"5"},
{"_id":"4495a8a111ec85eb6d2389a681fe3c45","_rev":"1-1b2e6a4bc5852c0adc406a684d311ca0","Location":"Gdansk-Rebiechowo, Poland (EPGD) 54-23N 018-28E 138M","Date":"Jan 03, 2012 - 04:00 PM EST / 2012.01.03 2100 UTC","Wind":"from the SSW (200 degrees) at 16 MPH (14 KT) gusting to 30 MPH (26 KT) (direction variable):0","Visibility":"4 mile(s):0","Sky conditions":"mostly cloudy","Weather":"rain","Temperature":"39 F (4 C)","Dew Point":"35 F (2 C)","Relative Humidity":"86%","Pressure (altimeter)":"29.44 in. Hg (0997 hPa)","ob":"EPGD 032100Z 20014G26KT 160V230 7000 RA FEW006 BKN011 04/02 Q0997","cycle":"21"},
{"_id":"4495a8a111ec85eb6d2389a681fe3d34","_rev":"1-76addc938fad2a08d2d1cd6c30edf460","Location":"Gdansk-Rebiechowo, Poland (EPGD) 54-23N 018-28E 138M","Date":"Jan 10, 2012 - 12:00 PM EST / 2012.01.10 1700 UTC","Wind":"from the W (260 degrees) at 5 MPH (4 KT) (direction variable):0","Visibility":"1 mile(s):0","Sky conditions":"mostly cloudy","Weather":"mist","Temperature":"33 F (1 C)","Windchill":"28 F (-2 C):1","Dew Point":"32 F (0 C)","Relative Humidity":"93%","Pressure (altimeter)":"30.24 in. Hg (1024 hPa)","ob":"EPGD 101700Z 26004KT 220V300 2500 BR BKN006 01/00 Q1024 R11/290060","cycle":"17"},
{"_id":"4495a8a111ec85eb6d2389a681fe499f","_rev":"1-609604f0fb3c0ad7004397b80b66b1fc","Location":"Gdansk-Rebiechowo, Poland (EPGD) 54-23N 018-28E 138M","Date":"Jan 20, 2012 - 09:00 AM EST / 2012.01.20 1400 UTC","Wind":"from the WSW (250 degrees) at 10 MPH (9 KT):0","Visibility":"greater than 7 mile(s):0","Sky conditions":"partly cloudy","Temperature":"35 F (2 C)","Windchill":"26 F (-3 C):1","Dew Point":"30 F (-1 C)","Relative Humidity":"80%","Pressure (altimeter)":"29.53 in. Hg (1000 hPa)","ob":"EPGD 201400Z 25009KT 9999 SCT015 SCT040 02/M01 Q1000 R11/290095","cycle":"14"},
{"_id":"4495a8a111ec85eb6d2389a681fe4b5c","_rev":"1-94f5ea0b6305b7ce7b9c24b8c639594a","Location":"Gdansk-Rebiechowo, Poland (EPGD) 54-23N 018-28E 138M","Date":"Jan 20, 2012 - 01:00 AM EST / 2012.01.20 0600 UTC","Wind":"from the W (280 degrees) at 9 MPH (8 KT):0","Visibility":"4 mile(s):0","Sky conditions":"mostly cloudy","Weather":"light snow showers","Temperature":"33 F (1 C)","Windchill":"24 F (-4 C):1","Dew Point":"32 F (0 C)","Relative Humidity":"93%","Pressure (altimeter)":"29.44 in. Hg (0997 hPa)","ob":"EPGD 200600Z 28008KT 8000 -SHSN BKN006 01/00 Q0997 R29/69 R11/690252","cycle":"6"},
{"_id":"4495a8a111ec85eb6d2389a681fe53e0","_rev":"1-51db35a3cb55f32d4e123dece87a17c7","Location":"Gdansk-Rebiechowo, Poland (EPGD) 54-23N 018-28E 138M","Date":"Jan 16, 2012 - 03:00 PM EST / 2012.01.16 2000 UTC","Wind":"from the WNW (290 degrees) at 3 MPH (3 KT):0","Visibility":"4 mile(s):0","Sky conditions":"mostly cloudy","Temperature":"30 F (-1 C)","Dew Point":"26 F (-3 C)","Relative Humidity":"86%","Pressure (altimeter)":"30.12 in. Hg (1020 hPa)","ob":"EPGD 162000Z 29003KT 8000 FEW009 BKN037 M01/M03 Q1020 R11/190095","cycle":"20"},
{"_id":"4495a8a111ec85eb6d2389a681fe55f5","_rev":"1-cefbc3ea2774b422498758486406d076","Location":"Gdansk-Rebiechowo, Poland (EPGD) 54-23N 018-28E 138M","Date":"Jan 11, 2012 - 02:00 PM EST / 2012.01.11 1900 UTC","Wind":"from the WNW (290 degrees) at 24 MPH (21 KT):0","Visibility":"greater than 7 mile(s):0","Sky conditions":"mostly cloudy","Temperature":"41 F (5 C)","Dew Point":"33 F (1 C)","Relative Humidity":"75%","Pressure (altimeter)":"30.06 in. Hg (1018 hPa)","ob":"EPGD 111900Z 29021KT 9999 BKN023 05/01 Q1018 R11/290095","cycle":"19"},
{"_id":"4495a8a111ec85eb6d2389a681fe5c99","_rev":"1-93a535e61d4d3af639715dd1a79862fc","Location":"Gdansk-Rebiechowo, Poland (EPGD) 54-23N 018-28E 138M","Date":"Feb 07, 2012 - 06:00 PM EST / 2012.02.07 2300 UTC","Wind":"from the E (100 degrees) at 6 MPH (5 KT):0","Visibility":"greater than 7 mile(s):0","Sky conditions":"mostly cloudy","Temperature":"17 F (-8 C)","Windchill":"8 F (-13 C):1","Dew Point":"12 F (-11 C)","Relative Humidity":"78%","Pressure (altimeter)":"30.77 in. Hg (1042 hPa)","ob":"EPGD 072300Z 10005KT 9999 FEW011 BKN027 M08/M11 Q1042 R11/490143","cycle":"23"},
{"_id":"4495a8a111ec85eb6d2389a681fe663b","_rev":"1-3194bea488587779b732ab9ec2c7326c","Location":"Gdansk-Rebiechowo, Poland (EPGD) 54-23N 018-28E 138M","Date":"Feb 13, 2012 - 08:00 PM EST / 2012.02.14 0100 UTC","Wind":"from the W (280 degrees) at 2 MPH (2 KT):0","Visibility":"greater than 7 mile(s):0","Temperature":"26 F (-3 C)","Dew Point":"21 F (-6 C)","Relative Humidity":"79%","Pressure (altimeter)":"29.94 in. Hg (1014 hPa)","ob":"EPGD 140100Z 28002KT CAVOK M03/M06 Q1014 R11/190095","cycle":"1"},
{"_id":"4495a8a111ec85eb6d2389a681fe68fb","_rev":"1-a29836d1b9162f861dc61c86a15029ee","Location":"Gdansk-Rebiechowo, Poland (EPGD) 54-23N 018-28E 138M","Date":"Feb 08, 2012 - 09:00 PM EST / 2012.02.09 0200 UTC","Wind":"from the ESE (120 degrees) at 13 MPH (11 KT):0","Visibility":"less than 1 mile:0","Sky conditions":"mostly cloudy","Weather":"snow; mist","Temperature":"21 F (-6 C)","Windchill":"8 F (-13 C):1","Dew Point":"19 F (-7 C)","Relative Humidity":"92%","Pressure (altimeter)":"30.39 in. Hg (1029 hPa)","ob":"EPGD 090200Z 12011KT 1000 R29/1300 SN BR BKN004 M06/M07 Q1029 R11/490042","cycle":"2"},
{"_id":"4495a8a111ec85eb6d2389a681fe6fd4","_rev":"1-b5a3d8f290725f2917dd7a01e09bbfeb","Location":"Gdansk-Rebiechowo, Poland (EPGD) 54-23N 018-28E 138M","Date":"Dec 25, 2011 - 02:00 PM EST / 2011.12.25 1900 UTC","Wind":"from the WSW (240 degrees) at 12 MPH (10 KT) (direction variable):0","Visibility":"greater than 7 mile(s):0","Sky conditions":"mostly cloudy","Temperature":"41 F (5 C)","Dew Point":"39 F (4 C)","Relative Humidity":"93%","Pressure (altimeter)":"30.15 in. Hg (1021 hPa)","ob":"EPGD 251900Z 24010KT 210V270 9999 BKN005 05/04 Q1021","cycle":"19"},
{"_id":"4495a8a111ec85eb6d2389a681fe7611","_rev":"1-768ac06558ab1a8cec88f8c081d17b37","Location":"Gdansk-Rebiechowo, Poland (EPGD) 54-23N 018-28E 138M","Date":"Jan 25, 2012 - 02:00 PM EST / 2012.01.25 1900 UTC","Wind":"from the N (350 degrees) at 6 MPH (5 KT):0","Visibility":"greater than 7 mile(s):0","Sky conditions":"mostly cloudy","Temperature":"30 F (-1 C)","Windchill":"23 F (-5 C):1","Dew Point":"26 F (-3 C)","Relative Humidity":"86%","Pressure (altimeter)":"30.24 in. Hg (1024 hPa)","ob":"EPGD 251900Z 35005KT 9999 FEW009 BKN013 M01/M03 Q1024 R11/290095","cycle":"19"},
{"_id":"4495a8a111ec85eb6d2389a681fe80a2","_rev":"1-99611667f35ee4b84899a1f651e1ca59","Location":"Gdansk-Rebiechowo, Poland (EPGD) 54-23N 018-28E 138M","Date":"Feb 19, 2012 - 04:00 PM EST / 2012.02.19 2100 UTC","Wind":"from the WSW (250 degrees) at 15 MPH (13 KT):0","Visibility":"greater than 7 mile(s):0","Sky conditions":"partly cloudy","Temperature":"35 F (2 C)","Windchill":"24 F (-4 C):1","Dew Point":"28 F (-2 C)","Relative Humidity":"74%","Pressure (altimeter)":"29.85 in. Hg (1011 hPa)","ob":"EPGD 192100Z 25013KT 9999 FEW019 SCT036 02/M02 Q1011 R11/290095","cycle":"21"},
{"_id":"4495a8a111ec85eb6d2389a681fe8126","_rev":"1-77a9cb498b9db584a5002d399abe0136","Location":"Gdansk-Rebiechowo, Poland (EPGD) 54-23N 018-28E 138M","Date":"Jan 02, 2012 - 07:00 PM EST / 2012.01.03 0000 UTC","Wind":"from the W (260 degrees) at 8 MPH (7 KT):0","Visibility":"greater than 7 mile(s):0","Temperature":"42 F (6 C)","Dew Point":"39 F (4 C)","Relative Humidity":"86%","Pressure (altimeter)":"29.80 in. Hg (1009 hPa)","ob":"EPGD 030000Z 26007KT CAVOK 06/04 Q1009","cycle":"0"},
{"_id":"4495a8a111ec85eb6d2389a681fe855d","_rev":"1-f6be4f548e8eb6671e007e0b8c8d4460","Location":"Gdansk-Rebiechowo, Poland (EPGD) 54-23N 018-28E 138M","Date":"Jan 13, 2012 - 05:00 AM EST / 2012.01.13 1000 UTC","Wind":"from the W (270 degrees) at 21 MPH (18 KT):0","Visibility":"greater than 7 mile(s):0","Sky conditions":"partly cloudy","Temperature":"37 F (3 C)","Dew Point":"30 F (-1 C)","Relative Humidity":"74%","Pressure (altimeter)":"29.50 in. Hg (0999 hPa)","ob":"EPGD 131000Z 27018KT 9999 SCT011 03/M01 Q0999","cycle":"10"},
{"_id":"4495a8a111ec85eb6d2389a681fe933d","_rev":"1-99d26408a35c4f99fcea84090fdc780b","Location":"Gdansk-Rebiechowo, Poland (EPGD) 54-23N 018-28E 138M","Date":"Feb 10, 2012 - 10:00 PM EST / 2012.02.11 0300 UTC","Wind":"from the WNW (300 degrees) at 3 MPH (3 KT):0","Visibility":"greater than 7 mile(s):0","Sky conditions":"partly cloudy","Temperature":"-2 F (-19 C)","Dew Point":"-5 F (-21 C)","Relative Humidity":"84%","Pressure (altimeter)":"30.65 in. Hg (1038 hPa)","ob":"EPGD 110300Z 30003KT 9999 SCT021 M19/M21 Q1038 R11/090095","cycle":"3"},
{"_id":"4495a8a111ec85eb6d2389a681fe9b8d","_rev":"1-56efd333efa0782fd4b4ff4b7862ee9a","Location":"Gdansk-Rebiechowo, Poland (EPGD) 54-23N 018-28E 138M","Date":"Jan 24, 2012 - 01:00 PM EST / 2012.01.24 1800 UTC","Wind":"from the WNW (300 degrees) at 7 MPH (6 KT):0","Visibility":"2 mile(s):0","Sky conditions":"mostly cloudy","Weather":"light snow showers; mist; Towering cumulus clouds observed","Temperature":"32 F (0 C)","Windchill":"24 F (-4 C):1","Dew Point":"30 F (-1 C)","Relative Humidity":"92%","Pressure (altimeter)":"30.06 in. Hg (1018 hPa)","ob":"EPGD 241800Z 30006KT 4000 -SHSN BR BKN004 BKN022TCU M00/M01 Q1018 RESHSN R11/290095","cycle":"18"},
{"_id":"4495a8a111ec85eb6d2389a681fea46b","_rev":"1-e5aca64b2b02b736f603e6f5d97b6369","Location":"Gdansk-Rebiechowo, Poland (EPGD) 54-23N 018-28E 138M","Date":"Feb 05, 2012 - 09:00 AM EST / 2012.02.05 1400 UTC","Wind":"from the ESE (120 degrees) at 3 MPH (3 KT):0","Visibility":"greater than 7 mile(s):0","Temperature":"6 F (-14 C)","Dew Point":"-5 F (-21 C)","Relative Humidity":"55%","Pressure (altimeter)":"30.68 in. Hg (1039 hPa)","ob":"EPGD 051400Z 12003KT CAVOK M14/M21 Q1039 R11/490162","cycle":"14"},
{"_id":"4495a8a111ec85eb6d2389a681feb10e","_rev":"1-1939dcf2490ed4f3b99737feb4154f95","Location":"Gdansk-Rebiechowo, Poland (EPGD) 54-23N 018-28E 138M","Date":"Feb 15, 2012 - 02:00 PM EST / 2012.02.15 1900 UTC","Wind":"from the NNE (020 degrees) at 12 MPH (10 KT) (direction variable):0","Visibility":"1 mile(s):0","Sky conditions":"mostly cloudy","Weather":"light snow; mist; low drifting snow","Temperature":"26 F (-3 C)","Windchill":"15 F (-9 C):1","Dew Point":"21 F (-6 C)","Relative Humidity":"79%","Pressure (altimeter)":"29.44 in. Hg (0997 hPa)","ob":"EPGD 151900Z 02010KT 350V050 3000 -SN BR DRSN BKN013 M03/M06 Q0997 R11/490332","cycle":"19"},
{"_id":"4495a8a111ec85eb6d2389a681feba43","_rev":"1-c00c248fb78716ad0acf6dd41be43b67","Location":"Gdansk-Rebiechowo, Poland (EPGD) 54-23N 018-28E 138M","Date":"Jan 09, 2012 - 02:00 PM EST / 2012.01.09 1900 UTC","Wind":"Variable at 2 MPH (2 KT):0","Visibility":"greater than 7 mile(s):0","Sky conditions":"mostly cloudy","Temperature":"30 F (-1 C)","Dew Point":"24 F (-4 C)","Relative Humidity":"80%","Pressure (altimeter)":"30.09 in. Hg (1019 hPa)","ob":"EPGD 091900Z VRB02KT 9999 BKN033 M01/M04 Q1019 R11/290095","cycle":"19"},
{"_id":"4495a8a111ec85eb6d2389a681fec64b","_rev":"1-bbe63d3f1ec701165bab0224c54a4895","Location":"Gdansk-Rebiechowo, Poland (EPGD) 54-23N 018-28E 138M","Date":"Feb 18, 2012 - 02:00 PM EST / 2012.02.18 1900 UTC","Wind":"from the S (180 degrees) at 8 MPH (7 KT) (direction variable):0","Visibility":"4 mile(s):0","Sky conditions":"mostly cloudy","Weather":"light rain","Temperature":"33 F (1 C)","Windchill":"26 F (-3 C):1","Dew Point":"32 F (0 C)","Relative Humidity":"93%","Pressure (altimeter)":"29.80 in. Hg (1009 hPa)","ob":"EPGD 181900Z 18007KT 150V210 8000 -RA BKN009 01/M00 Q1009 R11/190095","cycle":"19"},
{"_id":"4495a8a111ec85eb6d2389a681fec667","_rev":"1-de1f0661ffa7bd5aaf468070763c448d","Location":"Gdansk-Rebiechowo, Poland (EPGD) 54-23N 018-28E 138M","Date":"Feb 15, 2012 - 04:00 AM EST / 2012.02.15 0900 UTC","Wind":"from the E (080 degrees) at 12 MPH (10 KT):0","Visibility":"1 mile(s):0","Sky conditions":"mostly cloudy","Weather":"light snow; mist","Temperature":"26 F (-3 C)","Windchill":"15 F (-9 C):1","Dew Point":"24 F (-4 C)","Relative Humidity":"92%","Pressure (altimeter)":"28.94 in. Hg (0980 hPa)","ob":"EPGD 150900Z 08010KT 2200 -SN BR BKN003 M03/M04 Q0980 R11/490332","cycle":"9"},
{"_id":"4495a8a111ec85eb6d2389a681fed520","_rev":"1-bbf76bd8fea1f32879010aba65cc98c7","Location":"Gdansk-Rebiechowo, Poland (EPGD) 54-23N 018-28E 138M","Date":"Jan 18, 2012 - 05:00 AM EST / 2012.01.18 1000 UTC","Wind":"from the WSW (240 degrees) at 3 MPH (3 KT) (direction variable):0","Visibility":"3 mile(s):0","Sky conditions":"mostly cloudy","Temperature":"33 F (1 C)","Dew Point":"32 F (0 C)","Relative Humidity":"93%","Pressure (altimeter)":"30.15 in. Hg (1021 hPa)","ob":"EPGD 181000Z 24003KT 210V280 6000 BKN006 01/00 Q1021 R11/290095","cycle":"10"},
{"_id":"4495a8a111ec85eb6d2389a681fed8bf","_rev":"1-275077f75fe2461360f4050a6531f9ba","Location":"Gdansk-Rebiechowo, Poland (EPGD) 54-23N 018-28E 138M","Date":"Dec 18, 2011 - 03:00 PM EST / 2011.12.18 2000 UTC","Wind":"from the SW (230 degrees) at 13 MPH (11 KT) (direction variable):0","Visibility":"2 mile(s):0","Sky conditions":"mostly cloudy","Weather":"light snow showers; Cumulonimbus clouds observed","Temperature":"33 F (1 C)","Windchill":"23 F (-5 C):1","Dew Point":"30 F (-1 C)","Relative Humidity":"86%","Pressure (altimeter)":"29.47 in. Hg (0998 hPa)","ob":"EPGD 182000Z 23011KT 190V260 4000 -SHSN SCT009CB BKN016 01/M01 Q0998 R11/690061","cycle":"20"},
{"_id":"4495a8a111ec85eb6d2389a681fed90e","_rev":"1-99c2152c0bbcf0251bd03d363af16d1f","Location":"Gdansk-Rebiechowo, Poland (EPGD) 54-23N 018-28E 138M","Date":"Dec 15, 2011 - 01:00 AM EST / 2011.12.15 0600 UTC","Wind":"from the WSW (240 degrees) at 13 MPH (11 KT) (direction variable):0","Visibility":"greater than 7 mile(s):0","Sky conditions":"mostly clear","Temperature":"39 F (4 C)","Dew Point":"33 F (1 C)","Relative Humidity":"80%","Pressure (altimeter)":"29.59 in. Hg (1002 hPa)","ob":"EPGD 150600Z 24011KT 190V270 9999 FEW011 04/01 Q1002","cycle":"6"},
{"_id":"4495a8a111ec85eb6d2389a681fee1d1","_rev":"1-28387acb45003b54868a5794c16258c4","Location":"Gdansk-Rebiechowo, Poland (EPGD) 54-23N 018-28E 138M","Date":"Feb 13, 2012 - 09:00 PM EST / 2012.02.14 0200 UTC","Wind":"from the WSW (240 degrees) at 2 MPH (2 KT):0","Visibility":"greater than 7 mile(s):0","Temperature":"26 F (-3 C)","Dew Point":"21 F (-6 C)","Relative Humidity":"79%","Pressure (altimeter)":"29.94 in. Hg (1014 hPa)","ob":"EPGD 140200Z 24002KT CAVOK M03/M06 Q1014 R11/190095","cycle":"2"},
{"_id":"4495a8a111ec85eb6d2389a681feefd3","_rev":"1-896010e2309cd05b521c6ef9018d31fb","Location":"Gdansk-Rebiechowo, Poland (EPGD) 54-23N 018-28E 138M","Date":"Jan 12, 2012 - 09:00 PM EST / 2012.01.13 0200 UTC","Wind":"from the W (280 degrees) at 20 MPH (17 KT):0","Visibility":"greater than 7 mile(s):0","Sky conditions":"mostly cloudy","Temperature":"37 F (3 C)","Dew Point":"30 F (-1 C)","Relative Humidity":"74%","Pressure (altimeter)":"29.53 in. Hg (1000 hPa)","ob":"EPGD 130200Z 28017KT 9999 BKN026 03/M01 Q1000","cycle":"2"},
{"_id":"4495a8a111ec85eb6d2389a681fefc32","_rev":"1-0d13a207403d39bf3e9451bac2a3f778","Location":"Gdansk-Rebiechowo, Poland (EPGD) 54-23N 018-28E 138M","Date":"Dec 20, 2011 - 08:00 AM EST / 2011.12.20 1300 UTC","Wind":"from the S (180 degrees) at 5 MPH (4 KT) (direction variable):0","Visibility":"greater than 7 mile(s):0","Sky conditions":"mostly clear","Temperature":"35 F (2 C)","Windchill":"30 F (-1 C):1","Dew Point":"30 F (-1 C)","Relative Humidity":"80%","Pressure (altimeter)":"29.85 in. Hg (1011 hPa)","ob":"EPGD 201300Z 18004KT 150V220 9999 FEW009 02/M01 Q1011 R11/190095","cycle":"13"},
{"_id":"4495a8a111ec85eb6d2389a681ff031e","_rev":"1-e8addf1f7db8eccc7b83b2bd1fb116a9","Location":"Gdansk-Rebiechowo, Poland (EPGD) 54-23N 018-28E 138M","Date":"Dec 28, 2011 - 02:00 AM EST / 2011.12.28 0700 UTC","Wind":"from the WSW (250 degrees) at 9 MPH (8 KT) (direction variable):0","Visibility":"greater than 7 mile(s):0","Sky conditions":"mostly cloudy","Temperature":"33 F (1 C)","Windchill":"24 F (-4 C):1","Dew Point":"32 F (0 C)","Relative Humidity":"93%","Pressure (altimeter)":"30.33 in. Hg (1027 hPa)","ob":"EPGD 280700Z 25008KT 220V280 9999 BKN005 01/00 Q1027","cycle":"7"},
{"_id":"4495a8a111ec85eb6d2389a681ff0a65","_rev":"1-db1a8cf5687c53ed2b7bdccd7305bb3e","Location":"Gdansk-Rebiechowo, Poland (EPGD) 54-23N 018-28E 138M","Date":"Jan 28, 2012 - 06:00 PM EST / 2012.01.28 2300 UTC","Wind":"from the ESE (120 degrees) at 8 MPH (7 KT):0","Visibility":"greater than 7 mile(s):0","Temperature":"10 F (-12 C)","Windchill":"-2 F (-19 C):1","Dew Point":"5 F (-15 C)","Relative Humidity":"78%","Pressure (altimeter)":"30.65 in. Hg (1038 hPa)","ob":"EPGD 282300Z 12007KT CAVOK M12/M15 Q1038 R11/190095","cycle":"23"},
{"_id":"4495a8a111ec85eb6d2389a681ff1597","_rev":"1-105d8af2e53bfeacd57b6504f4e6790f","Location":"Gdansk-Rebiechowo, Poland (EPGD) 54-23N 018-28E 138M","Date":"Jan 22, 2012 - 10:00 AM EST / 2012.01.22 1500 UTC","Wind":"from the SW (220 degrees) at 5 MPH (4 KT) (direction variable):0","Visibility":"greater than 7 mile(s):0","Sky conditions":"mostly cloudy","Temperature":"35 F (2 C)","Windchill":"30 F (-1 C):1","Dew Point":"33 F (1 C)","Relative Humidity":"93%","Pressure (altimeter)":"29.23 in. Hg (0990 hPa)","ob":"EPGD 221500Z 22004KT 160V270 9999 BKN006 02/01 Q0990 R11/290066","cycle":"15"},
{"_id":"4495a8a111ec85eb6d2389a681ff228c","_rev":"1-bf6241947b11bbae0bdf3887af9f777c","Location":"Gdansk-Rebiechowo, Poland (EPGD) 54-23N 018-28E 138M","Date":"Feb 09, 2012 - 08:00 AM EST / 2012.02.09 1300 UTC","Wind":"from the ENE (070 degrees) at 13 MPH (11 KT) (direction variable):0","Visibility":"greater than 7 mile(s):0","Sky conditions":"mostly cloudy","Temperature":"17 F (-8 C)","Windchill":"3 F (-16 C):1","Dew Point":"12 F (-11 C)","Relative Humidity":"78%","Pressure (altimeter)":"30.59 in. Hg (1036 hPa)","ob":"EPGD 091300Z 07011KT 040V110 9999 FEW009 BKN015 M08/M11 Q1036 R11/490333","cycle":"13"},
{"_id":"4495a8a111ec85eb6d2389a681ff2756","_rev":"1-581cee1f211ce04606fa443c8d8bbfc9","Location":"Gdansk-Rebiechowo, Poland (EPGD) 54-23N 018-28E 138M","Date":"Jan 08, 2012 - 09:00 PM EST / 2012.01.09 0200 UTC","Wind":"from the NW (320 degrees) at 14 MPH (12 KT):0","Visibility":"greater than 7 mile(s):0","Sky conditions":"mostly cloudy","Weather":"light rain","Temperature":"35 F (2 C)","Windchill":"26 F (-3 C):1","Dew Point":"32 F (0 C)","Relative Humidity":"86%","Pressure (altimeter)":"29.97 in. Hg (1015 hPa)","ob":"EPGD 090200Z 32012KT 9999 -RA SCT005 BKN028 02/M00 Q1015","cycle":"2"},
{"_id":"4495a8a111ec85eb6d2389a681ff3515","_rev":"1-4a559ea5c2343fc096a2b6f961de3213","Location":"Gdansk-Rebiechowo, Poland (EPGD) 54-23N 018-28E 138M","Date":"Jan 05, 2012 - 12:00 PM EST / 2012.01.05 1700 UTC","Wind":"from the SSW (210 degrees) at 13 MPH (11 KT) (direction variable):0","Visibility":"greater than 7 mile(s):0","Sky conditions":"mostly cloudy","Temperature":"37 F (3 C)","Dew Point":"33 F (1 C)","Relative Humidity":"86%","Pressure (altimeter)":"28.67 in. Hg (0971 hPa)","ob":"EPGD 051700Z 21011KT 170V260 9999 BKN016 03/01 Q0971","cycle":"17"},
{"_id":"4495a8a111ec85eb6d2389a681ff4467","_rev":"1-7df30fff9ce916d1fa14133f0dbfd863","Location":"Gdansk-Rebiechowo, Poland (EPGD) 54-23N 018-28E 138M","Date":"Feb 08, 2012 - 11:00 PM EST / 2012.02.09 0400 UTC","Wind":"from the ESE (120 degrees) at 12 MPH (10 KT):0","Visibility":"less than 1 mile:0","Sky conditions":"mostly cloudy","Weather":"light snow; mist","Temperature":"19 F (-7 C)","Windchill":"6 F (-14 C):1","Dew Point":"15 F (-9 C)","Relative Humidity":"85%","Pressure (altimeter)":"30.42 in. Hg (1030 hPa)","ob":"EPGD 090400Z 12010KT 1600 -SN BR BKN009 M07/M09 Q1030 R11/490242","cycle":"4"},
{"_id":"4495a8a111ec85eb6d2389a681ff519d","_rev":"1-b64556409a34ea3c87d2ba76d9910344","Location":"Gdansk-Rebiechowo, Poland (EPGD) 54-23N 018-28E 138M","Date":"Feb 11, 2012 - 12:00 PM EST / 2012.02.11 1700 UTC","Wind":"from the W (260 degrees) at 3 MPH (3 KT):0","Visibility":"2 mile(s):0","Sky conditions":"mostly cloudy","Weather":"light snow; mist","Temperature":"21 F (-6 C)","Dew Point":"17 F (-8 C)","Relative Humidity":"85%","Pressure (altimeter)":"30.50 in. Hg (1033 hPa)","ob":"EPGD 111700Z 26003KT 3500 -SN BR BKN012 M06/M08 Q1033 R11/490241","cycle":"17"},
{"_id":"4495a8a111ec85eb6d2389a681ff5549","_rev":"1-05e935a87dbe3f8ae736a3f405a429b8","Location":"Gdansk-Rebiechowo, Poland (EPGD) 54-23N 018-28E 138M","Date":"Dec 30, 2011 - 02:00 AM EST / 2011.12.30 0700 UTC","Wind":"from the S (170 degrees) at 5 MPH (4 KT) (direction variable):0","Visibility":"4 mile(s):0","Sky conditions":"mostly cloudy","Weather":"light rain","Temperature":"35 F (2 C)","Windchill":"30 F (-1 C):1","Dew Point":"32 F (0 C)","Relative Humidity":"86%","Pressure (altimeter)":"29.47 in. Hg (0998 hPa)","ob":"EPGD 300700Z 17004KT 110V220 8000 -RA SCT007 BKN015 02/00 Q0998","cycle":"7"},
{"_id":"4495a8a111ec85eb6d2389a681ff61ad","_rev":"1-3660490a88571d835df6e9f14a4427d9","Location":"Gdansk-Rebiechowo, Poland (EPGD) 54-23N 018-28E 138M","Date":"Jan 13, 2012 - 05:00 PM EST / 2012.01.13 2200 UTC","Wind":"from the NW (310 degrees) at 16 MPH (14 KT):0","Visibility":"greater than 7 mile(s):0","Sky conditions":"mostly clear","Weather":"low drifting snow","Temperature":"32 F (0 C)","Windchill":"21 F (-6 C):1","Dew Point":"23 F (-5 C)","Relative Humidity":"69%","Pressure (altimeter)":"29.59 in. Hg (1002 hPa)","ob":"EPGD 132200Z 31014KT 9999 DRSN FEW026 00/M05 Q1002 RESHSN R11/590195","cycle":"22"},
{"_id":"4495a8a111ec85eb6d2389a681ff6b1d","_rev":"1-70c33380d71bb404b598229094a301ab","Location":"Gdansk-Rebiechowo, Poland (EPGD) 54-23N 018-28E 138M","Date":"Feb 03, 2012 - 10:00 AM EST / 2012.02.03 1500 UTC","Wind":"from the SSW (210 degrees) at 3 MPH (3 KT) (direction variable):0","Visibility":"less than 1 mile:0","Sky conditions":"mostly cloudy","Weather":"light snow; mist","Temperature":"12 F (-11 C)","Dew Point":"8 F (-13 C)","Relative Humidity":"85%","Pressure (altimeter)":"30.50 in. Hg (1033 hPa)","ob":"EPGD 031500Z 21003KT 180V260 1300 R29/P2000 -SN BR FEW006 BKN020 M11/M13 Q1033","cycle":"15"},
{"_id":"4495a8a111ec85eb6d2389a681ff71a9","_rev":"1-7d0a684e1b2a900edae015994730c95c","Location":"Gdansk-Rebiechowo, Poland (EPGD) 54-23N 018-28E 138M","Date":"Dec 28, 2011 - 03:00 PM EST / 2011.12.28 2000 UTC","Wind":"from the SW (230 degrees) at 12 MPH (10 KT) (direction variable):0","Visibility":"greater than 7 mile(s):0","Sky conditions":"mostly cloudy","Temperature":"42 F (6 C)","Dew Point":"37 F (3 C)","Relative Humidity":"81%","Pressure (altimeter)":"29.94 in. Hg (1014 hPa)","ob":"EPGD 282000Z 23010KT 190V260 9999 BKN015 06/03 Q1014","cycle":"20"},
{"_id":"4495a8a111ec85eb6d2389a681ff7924","_rev":"1-383877cca287d8ec43352c445c22a217","Location":"Gdansk-Rebiechowo, Poland (EPGD) 54-23N 018-28E 138M","Date":"Jan 02, 2012 - 08:00 AM EST / 2012.01.02 1300 UTC","Wind":"from the W (270 degrees) at 7 MPH (6 KT):0","Visibility":"greater than 7 mile(s):0","Sky conditions":"mostly cloudy","Temperature":"48 F (9 C)","Dew Point":"44 F (7 C)","Relative Humidity":"87%","Pressure (altimeter)":"29.59 in. Hg (1002 hPa)","ob":"EPGD 021300Z 27006KT 9999 FEW012 BKN030 09/07 Q1002","cycle":"13"},
{"_id":"4495a8a111ec85eb6d2389a681ff8049","_rev":"1-0b6b32168c60bf44418864fa74e85551","Location":"Gdansk-Rebiechowo, Poland (EPGD) 54-23N 018-28E 138M","Date":"Feb 16, 2012 - 08:00 PM EST / 2012.02.17 0100 UTC","Wind":"from the SSW (200 degrees) at 6 MPH (5 KT) (direction variable):0","Visibility":"4 mile(s):0","Sky conditions":"mostly cloudy","Weather":"light snow","Temperature":"26 F (-3 C)","Windchill":"19 F (-7 C):1","Dew Point":"23 F (-5 C)","Relative Humidity":"86%","Pressure (altimeter)":"29.85 in. Hg (1011 hPa)","ob":"EPGD 170100Z 20005KT 160V240 8000 -SN BKN017 M03/M05 Q1011 R11/090095","cycle":"1"},
{"_id":"4495a8a111ec85eb6d2389a681ff8961","_rev":"1-a35a0a3c1f1476e9b30bd2df64df4491","Location":"Gdansk-Rebiechowo, Poland (EPGD) 54-23N 018-28E 138M","Date":"Jan 22, 2012 - 12:00 AM EST / 2012.01.22 0500 UTC","Wind":"from the SW (220 degrees) at 7 MPH (6 KT) (direction variable):0","Visibility":"greater than 7 mile(s):0","Sky conditions":"mostly cloudy","Temperature":"33 F (1 C)","Windchill":"26 F (-3 C):1","Dew Point":"32 F (0 C)","Relative Humidity":"93%","Pressure (altimeter)":"29.21 in. Hg (0989 hPa)","ob":"EPGD 220500Z 22006KT 190V250 9999 BKN009 01/00 Q0989 R11/290066","cycle":"5"},
{"_id":"4495a8a111ec85eb6d2389a681ff8ece","_rev":"1-d58536bc32518710c3430de8808b5768","Location":"Gdansk-Rebiechowo, Poland (EPGD) 54-23N 018-28E 138M","Date":"Jan 09, 2012 - 11:00 PM EST / 2012.01.10 0400 UTC","Wind":"from the SSE (150 degrees) at 6 MPH (5 KT) (direction variable):0","Visibility":"2 mile(s):0","Sky conditions":"mostly cloudy","Weather":"light snow","Temperature":"30 F (-1 C)","Windchill":"23 F (-5 C):1","Dew Point":"30 F (-1 C)","Relative Humidity":"100%","Pressure (altimeter)":"29.97 in. Hg (1015 hPa)","ob":"EPGD 100400Z 15005KT 110V200 4000 -SN BKN004 M01/M01 Q1015 R11/490241","cycle":"4"},
{"_id":"4495a8a111ec85eb6d2389a681ff93be","_rev":"1-ca7035550af843073fcbcb9a8368b1de","Location":"Gdansk-Rebiechowo, Poland (EPGD) 54-23N 018-28E 138M","Date":"Jan 24, 2012 - 10:00 AM EST / 2012.01.24 1500 UTC","Wind":"from the WNW (290 degrees) at 6 MPH (5 KT):0","Visibility":"4 mile(s):0","Sky conditions":"mostly cloudy","Temperature":"32 F (0 C)","Windchill":"26 F (-3 C):1","Dew Point":"30 F (-1 C)","Relative Humidity":"92%","Pressure (altimeter)":"30.00 in. Hg (1016 hPa)","ob":"EPGD 241500Z 29005KT 8000 FEW016 BKN038 00/M01 Q1016 R11/290095","cycle":"15"},
{"_id":"4495a8a111ec85eb6d2389a681ffa2d4","_rev":"1-3c0ba6b139bc950360d64f6e8446ac09","Location":"Gdansk-Rebiechowo, Poland (EPGD) 54-23N 018-28E 138M","Date":"Dec 27, 2011 - 07:00 AM EST / 2011.12.27 1200 UTC","Wind":"from the W (270 degrees) at 20 MPH (17 KT):0","Visibility":"4 mile(s):0","Sky conditions":"mostly cloudy","Weather":"light rain","Temperature":"46 F (8 C)","Dew Point":"42 F (6 C)","Relative Humidity":"87%","Pressure (altimeter)":"30.21 in. Hg (1023 hPa)","ob":"EPGD 271200Z 27017KT 7000 -RA FEW009 BKN013 08/06 Q1023","cycle":"12"},
{"_id":"4495a8a111ec85eb6d2389a681ffa5c2","_rev":"1-66151459e35897b0498deb52d817a50a","Location":"Gdansk-Rebiechowo, Poland (EPGD) 54-23N 018-28E 138M","Date":"Jan 07, 2012 - 08:00 AM EST / 2012.01.07 1300 UTC","Wind":"from the SSW (210 degrees) at 9 MPH (8 KT) (direction variable):0","Visibility":"greater than 7 mile(s):0","Sky conditions":"mostly cloudy","Weather":"light rain showers","Temperature":"35 F (2 C)","Windchill":"28 F (-2 C):1","Dew Point":"32 F (0 C)","Relative Humidity":"86%","Pressure (altimeter)":"29.56 in. Hg (1001 hPa)","ob":"EPGD 071300Z 21008KT 170V240 9999 -SHRA BKN011 02/00 Q1001","cycle":"13"},
{"_id":"4495a8a111ec85eb6d2389a681ffad18","_rev":"1-d7b528a99c3d6fa4135072ce6baabbde","Location":"Gdansk-Rebiechowo, Poland (EPGD) 54-23N 018-28E 138M","Date":"Jan 12, 2012 - 01:00 AM EST / 2012.01.12 0600 UTC","Wind":"from the SW (230 degrees) at 13 MPH (11 KT) (direction variable):0","Visibility":"5 mile(s):0","Sky conditions":"mostly cloudy","Weather":"light rain showers","Temperature":"41 F (5 C)","Dew Point":"37 F (3 C)","Relative Humidity":"86%","Pressure (altimeter)":"29.85 in. Hg (1011 hPa)","ob":"EPGD 120600Z 23011KT 200V260 9000 -SHRA BKN011 05/03 Q1011 R11/290095","cycle":"6"},
{"_id":"4495a8a111ec85eb6d2389a681ffb9c7","_rev":"1-3b99a8b97d4930fc1de1ee7300dd818c","Location":"Gdansk-Rebiechowo, Poland (EPGD) 54-23N 018-28E 138M","Date":"Feb 01, 2012 - 11:00 AM EST / 2012.02.01 1600 UTC","Wind":"Calm:0","Visibility":"greater than 7 mile(s):0","Sky conditions":"partly cloudy","Temperature":"12 F (-11 C)","Dew Point":"5 F (-15 C)","Relative Humidity":"72%","Pressure (altimeter)":"30.71 in. Hg (1040 hPa)","ob":"EPGD 011600Z 00000KT 9999 SCT012 M11/M15 Q1040 R11/190095","cycle":"16"},
{"_id":"4495a8a111ec85eb6d2389a681ffbf79","_rev":"1-5f4527e30050704251bb0c006ad45ba2","Location":"Gdansk-Rebiechowo, Poland (EPGD) 54-23N 018-28E 138M","Date":"Dec 23, 2011 - 02:00 PM EST / 2011.12.23 1900 UTC","Wind":"from the SW (230 degrees) at 7 MPH (6 KT) (direction variable):0","Visibility":"1 mile(s):0","Sky conditions":"mostly cloudy","Weather":"light rain; mist","Temperature":"35 F (2 C)","Windchill":"28 F (-2 C):1","Dew Point":"33 F (1 C)","Relative Humidity":"93%","Pressure (altimeter)":"29.88 in. Hg (1012 hPa)","ob":"EPGD 231900Z 23006KT 200V270 2000 -RA BR BKN002 02/01 Q1012","cycle":"19"},
{"_id":"4495a8a111ec85eb6d2389a681ffc40b","_rev":"1-c6b2ab5fb534bc8a1da27cd4396b332b","Location":"Gdansk-Rebiechowo, Poland (EPGD) 54-23N 018-28E 138M","Date":"Jan 21, 2012 - 09:00 AM EST / 2012.01.21 1400 UTC","Wind":"from the S (170 degrees) at 9 MPH (8 KT) (direction variable):0","Visibility":"greater than 7 mile(s):0","Sky conditions":"mostly cloudy","Temperature":"32 F (0 C)","Windchill":"24 F (-4 C):1","Dew Point":"30 F (-1 C)","Relative Humidity":"92%","Pressure (altimeter)":"29.53 in. Hg (1000 hPa)","ob":"EPGD 211400Z 17008KT 140V230 9999 BKN007 00/M01 Q1000 R11/290095","cycle":"14"},
{"_id":"4495a8a111ec85eb6d2389a681ffce56","_rev":"1-f8265a53fea05ed7f41aa536e7dfad03","Location":"Gdansk-Rebiechowo, Poland (EPGD) 54-23N 018-28E 138M","Date":"Dec 31, 2011 - 04:00 PM EST / 2011.12.31 2100 UTC","Wind":"from the WSW (250 degrees) at 7 MPH (6 KT) (direction variable):0","Visibility":"2 mile(s):0","Sky conditions":"mostly cloudy","Weather":"mist","Temperature":"30 F (-1 C)","Windchill":"23 F (-5 C):1","Dew Point":"28 F (-2 C)","Relative Humidity":"92%","Pressure (altimeter)":"29.91 in. Hg (1013 hPa)","ob":"EPGD 312100Z 25006KT 220V280 4000 BR BKN003 M01/M02 Q1013","cycle":"21"},
{"_id":"4495a8a111ec85eb6d2389a681ffdb9e","_rev":"1-60356a55423de2534f3b742401125fea","Location":"Gdansk-Rebiechowo, Poland (EPGD) 54-23N 018-28E 138M","Date":"Jan 28, 2012 - 09:00 PM EST / 2012.01.29 0200 UTC","Wind":"from the ESE (110 degrees) at 8 MPH (7 KT):0","Visibility":"greater than 7 mile(s):0","Temperature":"8 F (-13 C)","Windchill":"-4 F (-20 C):1","Dew Point":"3 F (-16 C)","Relative Humidity":"78%","Pressure (altimeter)":"30.65 in. Hg (1038 hPa)","ob":"EPGD 290200Z 11007KT CAVOK M13/M16 Q1038","cycle":"2"},
{"_id":"4495a8a111ec85eb6d2389a681ffde34","_rev":"1-8520c595ac0d76d990861813809b6fb7","Location":"Gdansk-Rebiechowo, Poland (EPGD) 54-23N 018-28E 138M","Date":"Jan 01, 2012 - 05:00 AM EST / 2012.01.01 1000 UTC","Wind":"from the SSE (160 degrees) at 7 MPH (6 KT) (direction variable):0","Visibility":"greater than 7 mile(s):0","Temperature":"33 F (1 C)","Windchill":"26 F (-3 C):1","Dew Point":"28 F (-2 C)","Relative Humidity":"80%","Pressure (altimeter)":"29.85 in. Hg (1011 hPa)","ob":"EPGD 011000Z 16006KT 120V200 CAVOK 01/M02 Q1011","cycle":"10"},
{"_id":"4495a8a111ec85eb6d2389a681ffe9c9","_rev":"1-de8a65b96ef008db271566671bfbb1e7","Location":"Gdansk-Rebiechowo, Poland (EPGD) 54-23N 018-28E 138M","Date":"Feb 16, 2012 - 02:00 AM EST / 2012.02.16 0700 UTC","Wind":"from the NW (320 degrees) at 3 MPH (3 KT):0","Visibility":"greater than 7 mile(s):0","Sky conditions":"mostly cloudy","Temperature":"24 F (-4 C)","Dew Point":"19 F (-7 C)","Relative Humidity":"79%","Pressure (altimeter)":"29.88 in. Hg (1012 hPa)","ob":"EPGD 160700Z 32003KT 9999 BKN026 M04/M07 Q1012 R11/490075","cycle":"7"},
{"_id":"4495a8a111ec85eb6d2389a681fff00b","_rev":"1-9872ce7f511293aea34358e4483104e5","Location":"Gdansk-Rebiechowo, Poland (EPGD) 54-23N 018-28E 138M","Date":"Jan 06, 2012 - 07:00 PM EST / 2012.01.07 0000 UTC","Wind":"from the W (260 degrees) at 9 MPH (8 KT):0","Visibility":"greater than 7 mile(s):0","Temperature":"30 F (-1 C)","Windchill":"21 F (-6 C):1","Dew Point":"26 F (-3 C)","Relative Humidity":"86%","Pressure (altimeter)":"29.74 in. Hg (1007 hPa)","ob":"EPGD 070000Z 26008KT CAVOK M01/M03 Q1007 R11/190095","cycle":"0",
