Gdansk-Rebiechowo, Poland (EPGD) 54-23N 018-28E 138M
Feb 05, 2012 - 09:00 AM EST / 2012.02.05 1400 UTC
Wind: from the ESE (120 degrees) at 3 MPH (3 KT):0
Visibility: greater than 7 mile(s):0
Temperature: 6 F (-14 C)
Dew Point: -5 F (-21 C)
Relative Humidity: 55%
Pressure (altimeter): 30.68 in. Hg (1039 hPa)
ob: EPGD 051400Z 12003KT CAVOK M14/M21 Q1039 R11/490162
cycle: 14
