Gdansk-Rebiechowo, Poland (EPGD) 54-23N 018-28E 138M
Feb 19, 2012 - 09:00 PM EST / 2012.02.20 0200 UTC
Wind: from the WSW (250 degrees) at 13 MPH (11 KT) (direction variable):0
Visibility: greater than 7 mile(s):0
Sky conditions: mostly cloudy
Temperature: 32 F (0 C)
Windchill: 23 F (-5 C):1
Dew Point: 26 F (-3 C)
Relative Humidity: 80%
Pressure (altimeter): 30.00 in. Hg (1016 hPa)
ob: EPGD 200200Z 25011KT 220V280 9999 SCT017 BKN040 00/M03 Q1016 R11/290095
cycle: 2
