Gdansk-Rebiechowo, Poland (EPGD) 54-23N 018-28E 138M
Dec 29, 2011 - 12:00 AM EST / 2011.12.29 0500 UTC
Wind: from the SW (220 degrees) at 8 MPH (7 KT) (direction variable):0
Visibility: greater than 7 mile(s):0
Sky conditions: mostly cloudy
Temperature: 41 F (5 C)
Dew Point: 39 F (4 C)
Relative Humidity: 93%
Pressure (altimeter): 29.77 in. Hg (1008 hPa)
ob: EPGD 290500Z 22007KT 180V310 9999 BKN007 05/04 Q1008
cycle: 5
