Gdansk-Rebiechowo, Poland (EPGD) 54-23N 018-28E 138M
Jan 21, 2012 - 07:00 AM EST / 2012.01.21 1200 UTC
Wind: from the S (180 degrees) at 7 MPH (6 KT) (direction variable):0
Visibility: greater than 7 mile(s):0
Sky conditions: mostly cloudy
Temperature: 33 F (1 C)
Windchill: 26 F (-3 C):1
Dew Point: 28 F (-2 C)
Relative Humidity: 80%
Pressure (altimeter): 29.62 in. Hg (1003 hPa)
ob: EPGD 211200Z 18006KT 130V220 9999 BKN013 01/M02 Q1003 R11/290095
cycle: 12
