Gdansk-Rebiechowo, Poland (EPGD) 54-23N 018-28E 138M
Feb 20, 2012 - 12:00 AM EST / 2012.02.20 0500 UTC
Wind: from the W (260 degrees) at 14 MPH (12 KT):0
Visibility: greater than 7 mile(s):0
Sky conditions: mostly cloudy
Temperature: 32 F (0 C)
Windchill: 21 F (-6 C):1
Dew Point: 26 F (-3 C)
Relative Humidity: 80%
Pressure (altimeter): 30.06 in. Hg (1018 hPa)
ob: EPGD 200500Z 26012KT 9999 BKN017 00/M03 Q1018 R11/290095
cycle: 5
