Gdansk-Rebiechowo, Poland (EPGD) 54-23N 018-28E 138M
Dec 29, 2011 - 11:00 PM EST / 2011.12.30 0400 UTC
Wind: from the SSW (200 degrees) at 9 MPH (8 KT) (direction variable):0
Visibility: greater than 7 mile(s):0
Sky conditions: partly cloudy
Temperature: 37 F (3 C)
Dew Point: 32 F (0 C)
Relative Humidity: 80%
Pressure (altimeter): 29.47 in. Hg (0998 hPa)
ob: EPGD 300400Z 20008KT 170V230 9999 SCT013 SCT039 03/M00 Q0998
cycle: 4
