Gdansk-Rebiechowo, Poland (EPGD) 54-23N 018-28E 138M
Jan 19, 2012 - 03:00 PM EST / 2012.01.19 2000 UTC
Wind: from the S (190 degrees) at 6 MPH (5 KT) (direction variable):0
Visibility: 3 mile(s):0
Sky conditions: mostly cloudy
Weather: light snow, rain
Temperature: 33 F (1 C)
Windchill: 26 F (-3 C):1
Dew Point: 32 F (0 C)
Relative Humidity: 93%
Pressure (altimeter): 29.47 in. Hg (0998 hPa)
ob: EPGD 192000Z 19005KT 140V220 6000 -SNRA FEW003 BKN007 01/M00 Q0998
cycle: 20
