Gdansk-Rebiechowo, Poland (EPGD) 54-23N 018-28E 138M
Dec 16, 2011 - 05:00 AM EST / 2011.12.16 1000 UTC
Wind: from the SSE (160 degrees) at 8 MPH (7 KT) (direction variable):0
Visibility: greater than 7 mile(s):0
Temperature: 37 F (3 C)
Dew Point: 32 F (0 C)
Relative Humidity: 80%
Pressure (altimeter): 29.32 in. Hg (0993 hPa)
ob: EPGD 161000Z 16007KT 120V200 CAVOK 03/M00 Q0993
cycle: 10
