Gdansk-Rebiechowo, Poland (EPGD) 54-23N 018-28E 138M
Feb 01, 2012 - 08:00 PM EST / 2012.02.02 0100 UTC
Wind: Calm:0
Visibility: 1 mile(s):0
Sky conditions: mostly cloudy
Weather: light snow
Temperature: 5 F (-15 C)
Dew Point: 0 F (-18 C)
Relative Humidity: 77%
Pressure (altimeter): 30.62 in. Hg (1037 hPa)
ob: EPGD 020100Z 00000KT 3000 -SN SCT009 BKN035 M15/M18 Q1037 R11/490150
cycle: 1
