Gdansk-Rebiechowo, Poland (EPGD) 54-23N 018-28E 138M
Feb 13, 2012 - 01:00 AM EST / 2012.02.13 0600 UTC
Wind: from the WNW (290 degrees) at 7 MPH (6 KT):0
Visibility: 3 mile(s):0
Sky conditions: mostly cloudy
Temperature: 26 F (-3 C)
Windchill: 17 F (-8 C):1
Dew Point: 23 F (-5 C)
Relative Humidity: 86%
Pressure (altimeter): 30.03 in. Hg (1017 hPa)
ob: EPGD 130600Z 29006KT 6000 BKN030 M03/M05 Q1017 R29/490144
cycle: 6
