Gdansk-Rebiechowo, Poland (EPGD) 54-23N 018-28E 138M
Feb 16, 2012 - 03:00 AM EST / 2012.02.16 0800 UTC
Wind: from the N (360 degrees) at 3 MPH (3 KT) (direction variable):0
Visibility: greater than 7 mile(s):0
Sky conditions: partly cloudy
Temperature: 26 F (-3 C)
Dew Point: 21 F (-6 C)
Relative Humidity: 79%
Pressure (altimeter): 29.91 in. Hg (1013 hPa)
ob: EPGD 160800Z 36003KT 320V040 9999 SCT011 SCT023 M03/M06 Q1013 R11/490075
cycle: 8
