Gdansk-Rebiechowo, Poland (EPGD) 54-23N 018-28E 138M
Feb 07, 2012 - 01:00 PM EST / 2012.02.07 1800 UTC
Wind: from the ENE (070 degrees) at 9 MPH (8 KT) (direction variable):0
Visibility: 4 mile(s):0
Sky conditions: mostly cloudy
Weather: light snow
Temperature: 19 F (-7 C)
Windchill: 8 F (-13 C):1
Dew Point: 15 F (-9 C)
Relative Humidity: 85%
Pressure (altimeter): 30.77 in. Hg (1042 hPa)
ob: EPGD 071800Z 07008KT 030V100 8000 -SN BKN010 M07/M09 Q1042 R/490143
cycle: 18
