Gdansk-Rebiechowo, Poland (EPGD) 54-23N 018-28E 138M
Dec 14, 2011 - 03:00 AM EST / 2011.12.14 0800 UTC
Wind: from the SW (230 degrees) at 13 MPH (11 KT) (direction variable):0
Visibility: greater than 7 mile(s):0
Sky conditions: mostly clear
Temperature: 41 F (5 C)
Dew Point: 35 F (2 C)
Relative Humidity: 80%
Pressure (altimeter): 29.62 in. Hg (1003 hPa)
ob: EPGD 140800Z 23011KT 190V260 9999 FEW017 05/02 Q1003
cycle: 8
