Gdansk-Rebiechowo, Poland (EPGD) 54-23N 018-28E 138M
Dec 29, 2011 - 09:00 AM EST / 2011.12.29 1400 UTC
Wind: from the SW (230 degrees) at 15 MPH (13 KT) gusting to 28 MPH (24 KT) (direction variable):0
Visibility: greater than 7 mile(s):0
Sky conditions: mostly cloudy
Temperature: 41 F (5 C)
Dew Point: 33 F (1 C)
Relative Humidity: 75%
Pressure (altimeter): 29.65 in. Hg (1004 hPa)
ob: EPGD 291400Z 23013G24KT 190V260 9999 BKN026 05/01 Q1004
cycle: 14
