Gdansk-Rebiechowo, Poland (EPGD) 54-23N 018-28E 138M
Jan 12, 2012 - 12:00 AM EST / 2012.01.12 0500 UTC
Wind: from the SW (230 degrees) at 9 MPH (8 KT) (direction variable):0
Visibility: greater than 7 mile(s):0
Sky conditions: mostly cloudy
Temperature: 41 F (5 C)
Dew Point: 35 F (2 C)
Relative Humidity: 80%
Pressure (altimeter): 29.91 in. Hg (1013 hPa)
ob: EPGD 120500Z 23008KT 190V260 9999 BKN026 05/02 Q1013 R11/290095
cycle: 5
