Gdansk-Rebiechowo, Poland (EPGD) 54-23N 018-28E 138M
Feb 07, 2012 - 07:00 AM EST / 2012.02.07 1200 UTC
Wind: from the NE (040 degrees) at 9 MPH (8 KT) (direction variable):0
Visibility: greater than 7 mile(s):0
Sky conditions: mostly cloudy
Temperature: 17 F (-8 C)
Windchill: 5 F (-15 C):1
Dew Point: 10 F (-12 C)
Relative Humidity: 72%
Pressure (altimeter): 30.71 in. Hg (1040 hPa)
ob: EPGD 071200Z 04008KT 010V080 9999 BKN012 M08/M12 Q1040 R11/490238
cycle: 12
