Gdansk-Rebiechowo, Poland (EPGD) 54-23N 018-28E 138M
Jan 05, 2012 - 03:00 AM EST / 2012.01.05 0800 UTC
Wind: from the S (170 degrees) at 12 MPH (10 KT) (direction variable):0
Visibility: 1 mile(s):0
Sky conditions: mostly cloudy
Weather: snow
Temperature: 33 F (1 C)
Windchill: 24 F (-4 C):1
Dew Point: 32 F (0 C)
Relative Humidity: 93%
Pressure (altimeter): 28.85 in. Hg (0977 hPa)
ob: EPGD 050800Z 17010KT 130V200 2500 SN FEW003 BKN005 01/M00 Q0977
cycle: 8
