Gdansk-Rebiechowo, Poland (EPGD) 54-23N 018-28E 138M
Dec 18, 2011 - 07:00 PM EST / 2011.12.19 0000 UTC
Wind: from the WSW (240 degrees) at 14 MPH (12 KT) (direction variable):0
Visibility: greater than 7 mile(s):0
Sky conditions: mostly cloudy
Temperature: 33 F (1 C)
Windchill: 23 F (-5 C):1
Dew Point: 28 F (-2 C)
Relative Humidity: 80%
Pressure (altimeter): 29.53 in. Hg (1000 hPa)
ob: EPGD 190000Z 24012KT 210V280 9999 BKN018 01/M02 Q1000 R11/690061
cycle: 0
