Gdansk-Rebiechowo, Poland (EPGD) 54-23N 018-28E 138M
Jan 24, 2012 - 02:00 PM EST / 2012.01.24 1900 UTC
Wind: from the WNW (300 degrees) at 3 MPH (3 KT):0
Visibility: 3 mile(s):0
Sky conditions: mostly cloudy
Weather: light snow showers; Towering cumulus clouds observed
Temperature: 32 F (0 C)
Dew Point: 30 F (-1 C)
Relative Humidity: 92%
Pressure (altimeter): 30.06 in. Hg (1018 hPa)
ob: EPGD 241900Z 30003KT 6000 -SHSN FEW006 BKN025TCU M00/M01 Q1018 R11/290095
cycle: 19
