Gdansk-Rebiechowo, Poland (EPGD) 54-23N 018-28E 138M
Feb 08, 2012 - 09:00 PM EST / 2012.02.09 0200 UTC
Wind: from the ESE (120 degrees) at 13 MPH (11 KT):0
Visibility: less than 1 mile:0
Sky conditions: mostly cloudy
Weather: snow; mist
Temperature: 21 F (-6 C)
Windchill: 8 F (-13 C):1
Dew Point: 19 F (-7 C)
Relative Humidity: 92%
Pressure (altimeter): 30.39 in. Hg (1029 hPa)
ob: EPGD 090200Z 12011KT 1000 R29/1300 SN BR BKN004 M06/M07 Q1029 R11/490042
cycle: 2
