Gdansk-Rebiechowo, Poland (EPGD) 54-23N 018-28E 138M
Feb 08, 2012 - 04:00 AM EST / 2012.02.08 0900 UTC
Wind: from the W (270 degrees) at 2 MPH (2 KT):0
Visibility: 2 mile(s):0
Sky conditions: partly cloudy
Weather: mist
Temperature: 17 F (-8 C)
Dew Point: 14 F (-10 C)
Relative Humidity: 85%
Pressure (altimeter): 30.74 in. Hg (1041 hPa)
ob: EPGD 080900Z 27002KT 4000 BR SCT046 M08/M10 Q1041 R11/490143
cycle: 9
