Gdansk-Rebiechowo, Poland (EPGD) 54-23N 018-28E 138M
Jan 25, 2012 - 07:00 PM EST / 2012.01.26 0000 UTC
Wind: from the ENE (060 degrees) at 3 MPH (3 KT) (direction variable):0
Visibility: greater than 7 mile(s):0
Sky conditions: mostly cloudy
Temperature: 30 F (-1 C)
Dew Point: 26 F (-3 C)
Relative Humidity: 86%
Pressure (altimeter): 30.27 in. Hg (1025 hPa)
ob: EPGD 260000Z 06003KT 020V080 9999 SCT011 BKN045 M01/M03 Q1025 R11/290095
cycle: 0
