Gdansk-Rebiechowo, Poland (EPGD) 54-23N 018-28E 138M
Jan 12, 2012 - 03:00 AM EST / 2012.01.12 0800 UTC
Wind: from the SW (230 degrees) at 13 MPH (11 KT) (direction variable):0
Visibility: 2 mile(s):0
Sky conditions: mostly cloudy
Weather: light drizzle; mist
Temperature: 42 F (6 C)
Dew Point: 41 F (5 C)
Relative Humidity: 93%
Pressure (altimeter): 29.80 in. Hg (1009 hPa)
ob: EPGD 120800Z 23011KT 200V270 4000 -DZ BR BKN008 06/05 Q1009 R11/290095
cycle: 8
