Gdansk-Rebiechowo, Poland (EPGD) 54-23N 018-28E 138M
Dec 20, 2011 - 01:00 PM EST / 2011.12.20 1800 UTC
Wind: from the ESE (120 degrees) at 3 MPH (3 KT):0
Visibility: 3 mile(s):0
Sky conditions: mostly cloudy
Weather: mist
Temperature: 32 F (0 C)
Dew Point: 30 F (-1 C)
Relative Humidity: 92%
Pressure (altimeter): 29.85 in. Hg (1011 hPa)
ob: EPGD 201800Z 12003KT 5000 BR FEW005 BKN048 M00/M01 Q1011 R11/190095
cycle: 18
