Gdansk-Rebiechowo, Poland (EPGD) 54-23N 018-28E 138M
Dec 21, 2011 - 05:00 PM EST / 2011.12.21 2200 UTC
Wind: Variable at 1 MPH (1 KT):0
Visibility: 1 mile(s):0
Sky conditions: overcast
Weather: mist
Temperature: 24 F (-4 C)
Dew Point: 23 F (-5 C)
Relative Humidity: 92%
Pressure (altimeter): 30.00 in. Hg (1016 hPa)
ob: EPGD 212200Z VRB01KT 2300 BR OVC019 M04/M05 Q1016 R11/190095
cycle: 22
