Gdansk-Rebiechowo, Poland (EPGD) 54-23N 018-28E 138M
Dec 28, 2011 - 09:00 PM EST / 2011.12.29 0200 UTC
Wind: from the SW (220 degrees) at 8 MPH (7 KT) (direction variable):0
Visibility: greater than 7 mile(s):0
Sky conditions: mostly cloudy
Temperature: 41 F (5 C)
Dew Point: 37 F (3 C)
Relative Humidity: 86%
Pressure (altimeter): 29.83 in. Hg (1010 hPa)
ob: EPGD 290200Z 22007KT 170V250 9999 BKN008 05/03 Q1010
cycle: 2
