Gdansk-Rebiechowo, Poland (EPGD) 54-23N 018-28E 138M
Feb 11, 2012 - 08:00 AM EST / 2012.02.11 1300 UTC
Wind: from the W (260 degrees) at 5 MPH (4 KT):0
Visibility: 1 mile(s):0
Sky conditions: mostly cloudy
Weather: light snow; mist
Temperature: 21 F (-6 C)
Windchill: 14 F (-10 C):1
Dew Point: 15 F (-9 C)
Relative Humidity: 79%
Pressure (altimeter): 30.56 in. Hg (1035 hPa)
ob: EPGD 111300Z 26004KT 3000 -SN BR FEW011 BKN017 M06/M09 Q1035 R11/490154
cycle: 13
