Gdansk-Rebiechowo, Poland (EPGD) 54-23N 018-28E 138M
Dec 24, 2011 - 11:00 PM EST / 2011.12.25 0400 UTC
Wind: from the W (270 degrees) at 12 MPH (10 KT):0
Visibility: greater than 7 mile(s):0
Sky conditions: mostly clear
Temperature: 35 F (2 C)
Windchill: 26 F (-3 C):1
Dew Point: 32 F (0 C)
Relative Humidity: 86%
Pressure (altimeter): 30.09 in. Hg (1019 hPa)
ob: EPGD 250400Z 27010KT 9999 FEW017 02/00 Q1019
cycle: 4
