Gdansk-Rebiechowo, Poland (EPGD) 54-23N 018-28E 138M
Feb 10, 2012 - 10:00 AM EST / 2012.02.10 1500 UTC
Wind: from the NE (040 degrees) at 6 MPH (5 KT):0
Visibility: greater than 7 mile(s):0
Sky conditions: mostly cloudy
Temperature: 17 F (-8 C)
Windchill: 8 F (-13 C):1
Dew Point: 12 F (-11 C)
Relative Humidity: 78%
Pressure (altimeter): 30.68 in. Hg (1039 hPa)
ob: EPGD 101500Z 04005KT 9999 BKN011 M08/M11 Q1039 R29/090095
cycle: 15
