Gdansk-Rebiechowo, Poland (EPGD) 54-23N 018-28E 138M
Dec 23, 2011 - 08:00 PM EST / 2011.12.24 0100 UTC
Wind: from the WSW (240 degrees) at 3 MPH (3 KT) (direction variable):0
Visibility: 2 mile(s):0
Sky conditions: mostly cloudy
Weather: mist
Temperature: 37 F (3 C)
Dew Point: 35 F (2 C)
Relative Humidity: 93%
Pressure (altimeter): 29.80 in. Hg (1009 hPa)
ob: EPGD 240100Z 24003KT 200V270 4000 BR BKN003 03/02 Q1009
cycle: 1
