Gdansk-Rebiechowo, Poland (EPGD) 54-23N 018-28E 138M
Dec 13, 2011 - 03:00 PM EST / 2011.12.13 2000 UTC
Wind: from the SSW (200 degrees) at 15 MPH (13 KT) (direction variable):0
Visibility: greater than 7 mile(s):0
Sky conditions: mostly cloudy
Weather: light rain
Temperature: 39 F (4 C)
Dew Point: 33 F (1 C)
Relative Humidity: 80%
Pressure (altimeter): 29.50 in. Hg (0999 hPa)
ob: EPGD 132000Z 20013KT 170V230 9999 -RA BKN017 04/01 Q0999
cycle: 20
