Gdansk-Rebiechowo, Poland (EPGD) 54-23N 018-28E 138M
Dec 22, 2011 - 08:00 AM EST / 2011.12.22 1300 UTC
Wind: from the SSW (200 degrees) at 3 MPH (3 KT) (direction variable):0
Visibility: greater than 7 mile(s):0
Temperature: 30 F (-1 C)
Dew Point: 23 F (-5 C)
Relative Humidity: 74%
Pressure (altimeter): 30.09 in. Hg (1019 hPa)
ob: EPGD 221300Z 20003KT 140V240 CAVOK M01/M05 Q1019
cycle: 13
