Gdansk-Rebiechowo, Poland (EPGD) 54-23N 018-28E 138M
Feb 08, 2012 - 02:00 PM EST / 2012.02.08 1900 UTC
Wind: from the W (280 degrees) at 7 MPH (6 KT):0
Visibility: 3 mile(s):0
Sky conditions: mostly cloudy
Weather: light snow
Temperature: 24 F (-4 C)
Windchill: 15 F (-9 C):1
Dew Point: 21 F (-6 C)
Relative Humidity: 85%
Pressure (altimeter): 30.50 in. Hg (1033 hPa)
ob: EPGD 081900Z 28006KT 6000 -SN FEW005 BKN011 M04/M06 Q1033 R11/190095
cycle: 19
