Gdansk-Rebiechowo, Poland (EPGD) 54-23N 018-28E 138M
Dec 21, 2011 - 10:00 PM EST / 2011.12.22 0300 UTC
Wind: from the S (190 degrees) at 3 MPH (3 KT):0
Visibility: 1 mile(s):0
Weather: mist
Temperature: 21 F (-6 C)
Dew Point: 19 F (-7 C)
Relative Humidity: 92%
Pressure (altimeter): 30.03 in. Hg (1017 hPa)
ob: EPGD 220300Z 19003KT 3000 BR NSC M06/M07 Q1017
cycle: 3
