Gdansk-Rebiechowo, Poland (EPGD) 54-23N 018-28E 138M
Dec 29, 2011 - 09:00 PM EST / 2011.12.30 0200 UTC
Wind: from the SW (220 degrees) at 12 MPH (10 KT) (direction variable):0
Visibility: greater than 7 mile(s):0
Sky conditions: partly cloudy
Temperature: 37 F (3 C)
Dew Point: 30 F (-1 C)
Relative Humidity: 74%
Pressure (altimeter): 29.50 in. Hg (0999 hPa)
ob: EPGD 300200Z 22010KT 180V250 9999 FEW013 SCT029 03/M01 Q0999
cycle: 2
