Gdansk-Rebiechowo, Poland (EPGD) 54-23N 018-28E 138M
Feb 08, 2012 - 05:00 AM EST / 2012.02.08 1000 UTC
Wind: from the NW (310 degrees) at 2 MPH (2 KT):0
Visibility: 3 mile(s):0
Sky conditions: mostly cloudy
Weather: mist
Temperature: 23 F (-5 C)
Dew Point: 17 F (-8 C)
Relative Humidity: 79%
Pressure (altimeter): 30.71 in. Hg (1040 hPa)
ob: EPGD 081000Z 31002KT 5000 BR BKN023 M05/M08 Q1040 R11/90159
cycle: 10
