Gdansk-Rebiechowo, Poland (EPGD) 54-23N 018-28E 138M
Jan 12, 2012 - 09:00 PM EST / 2012.01.13 0200 UTC
Wind: from the W (280 degrees) at 20 MPH (17 KT):0
Visibility: greater than 7 mile(s):0
Sky conditions: mostly cloudy
Temperature: 37 F (3 C)
Dew Point: 30 F (-1 C)
Relative Humidity: 74%
Pressure (altimeter): 29.53 in. Hg (1000 hPa)
ob: EPGD 130200Z 28017KT 9999 BKN026 03/M01 Q1000
cycle: 2
