Gdansk-Rebiechowo, Poland (EPGD) 54-23N 018-28E 138M
Feb 08, 2012 - 08:00 AM EST / 2012.02.08 1300 UTC
Wind: Variable at 2 MPH (2 KT):0
Visibility: greater than 7 mile(s):0
Sky conditions: partly cloudy
Temperature: 26 F (-3 C)
Dew Point: 17 F (-8 C)
Relative Humidity: 68%
Pressure (altimeter): 30.65 in. Hg (1038 hPa)
ob: EPGD 081300Z VRB02KT 9999 SCT020 M03/M08 Q1038 R11/490159
cycle: 13
