Gdansk-Rebiechowo, Poland (EPGD) 54-23N 018-28E 138M
Feb 05, 2012 - 04:00 AM EST / 2012.02.05 0900 UTC
Wind: Variable at 1 MPH (1 KT):0
Visibility: 1 mile(s):0
Sky conditions: mostly clear
Weather: mist
Temperature: -4 F (-20 C)
Dew Point: -9 F (-23 C)
Relative Humidity: 76%
Pressure (altimeter): 30.71 in. Hg (1040 hPa)
ob: EPGD 050900Z VRB01KT 2500 BR FEW006 M20/M23 Q1040 R11/490162
cycle: 9
