Gdansk-Rebiechowo, Poland (EPGD) 54-23N 018-28E 138M
Feb 01, 2012 - 07:00 AM EST / 2012.02.01 1200 UTC
Wind: from the E (100 degrees) at 8 MPH (7 KT):0
Visibility: 5 mile(s):0
Sky conditions: mostly clear
Temperature: 12 F (-11 C)
Windchill: 0 F (-18 C):1
Dew Point: 3 F (-16 C)
Relative Humidity: 66%
Pressure (altimeter): 30.71 in. Hg (1040 hPa)
ob: EPGD 011200Z 10007KT 9000 FEW005 M11/M16 Q1040 R11/490142
cycle: 12
