Gdansk-Rebiechowo, Poland (EPGD) 54-23N 018-28E 138M
Dec 18, 2011 - 12:00 AM EST / 2011.12.18 0500 UTC
Wind: from the W (260 degrees) at 13 MPH (11 KT):0
Visibility: greater than 7 mile(s):0
Sky conditions: partly cloudy
Temperature: 35 F (2 C)
Windchill: 26 F (-3 C):1
Dew Point: 30 F (-1 C)
Relative Humidity: 80%
Pressure (altimeter): 29.21 in. Hg (0989 hPa)
ob: EPGD 180500Z 26011KT 9999 SCT023 02/M01 Q0989 R11/290064
cycle: 5
