Gdansk-Rebiechowo, Poland (EPGD) 54-23N 018-28E 138M
Feb 14, 2012 - 01:00 PM EST / 2012.02.14 1800 UTC
Wind: from the SSW (210 degrees) at 10 MPH (9 KT) (direction variable):0
Visibility: greater than 7 mile(s):0
Temperature: 26 F (-3 C)
Windchill: 15 F (-9 C):1
Dew Point: 19 F (-7 C)
Relative Humidity: 73%
Pressure (altimeter): 29.62 in. Hg (1003 hPa)
ob: EPGD 141800Z 21009KT 170V240 CAVOK M03/M07 Q1003 R29/190095
cycle: 18
