Gdansk-Rebiechowo, Poland (EPGD) 54-23N 018-28E 138M
Jan 12, 2012 - 03:00 PM EST / 2012.01.12 2000 UTC
Wind: from the W (270 degrees) at 20 MPH (17 KT):0
Visibility: 4 mile(s):0
Sky conditions: mostly cloudy
Weather: light rain showers; Towering cumulus clouds observed
Temperature: 37 F (3 C)
Dew Point: 35 F (2 C)
Relative Humidity: 93%
Pressure (altimeter): 29.38 in. Hg (0995 hPa)
ob: EPGD 122000Z 27017KT 7000 -SHRA FEW011TCU BKN012 03/02 Q0995
cycle: 20
