Gdansk-Rebiechowo, Poland (EPGD) 54-23N 018-28E 138M
Jan 08, 2012 - 08:00 AM EST / 2012.01.08 1300 UTC
Wind: from the W (280 degrees) at 8 MPH (7 KT):0
Visibility: greater than 7 mile(s):0
Sky conditions: mostly cloudy
Weather: Towering cumulus clouds observed
Temperature: 39 F (4 C)
Dew Point: 35 F (2 C)
Relative Humidity: 86%
Pressure (altimeter): 29.71 in. Hg (1006 hPa)
ob: EPGD 081300Z 28007KT 9999 FEW012TCU BKN016 04/02 Q1006
cycle: 13
