Gdansk-Rebiechowo, Poland (EPGD) 54-23N 018-28E 138M
Dec 23, 2011 - 02:00 AM EST / 2011.12.23 0700 UTC
Wind: from the S (170 degrees) at 5 MPH (4 KT):0
Visibility: 2 mile(s):0
Sky conditions: overcast
Weather: mist
Temperature: 30 F (-1 C)
Windchill: 24 F (-4 C):1
Dew Point: 28 F (-2 C)
Relative Humidity: 92%
Pressure (altimeter): 30.06 in. Hg (1018 hPa)
ob: EPGD 230700Z 17004KT 4000 BR OVC003 M01/M02 Q1018
cycle: 7
