Gdansk-Rebiechowo, Poland (EPGD) 54-23N 018-28E 138M
Feb 03, 2012 - 08:00 PM EST / 2012.02.04 0100 UTC
Wind: from the SW (220 degrees) at 3 MPH (3 KT) (direction variable):0
Visibility: 2 mile(s):0
Sky conditions: mostly cloudy
Weather: mist
Temperature: 6 F (-14 C)
Dew Point: 3 F (-16 C)
Relative Humidity: 84%
Pressure (altimeter): 30.53 in. Hg (1034 hPa)
ob: EPGD 040100Z 22003KT 180V270 4000 BR BKN030 M14/M16 Q1034 R11/490148
cycle: 1
