Gdansk-Rebiechowo, Poland (EPGD) 54-23N 018-28E 138M
Feb 17, 2012 - 12:00 AM EST / 2012.02.17 0500 UTC
Wind: from the S (190 degrees) at 9 MPH (8 KT) (direction variable):0
Visibility: greater than 7 mile(s):0
Sky conditions: mostly cloudy
Weather: light snow
Temperature: 28 F (-2 C)
Windchill: 19 F (-7 C):1
Dew Point: 24 F (-4 C)
Relative Humidity: 86%
Pressure (altimeter): 29.74 in. Hg (1007 hPa)
ob: EPGD 170500Z 19008KT 150V220 9999 -SN BKN007 M02/M04 Q1007 R29/290050
cycle: 5
