Gdansk-Rebiechowo, Poland (EPGD) 54-23N 018-28E 138M
Jan 26, 2012 - 02:00 PM EST / 2012.01.26 1900 UTC
Wind: from the ESE (110 degrees) at 13 MPH (11 KT):0
Visibility: 4 mile(s):0
Sky conditions: mostly cloudy
Temperature: 23 F (-5 C)
Windchill: 10 F (-12 C):1
Dew Point: 19 F (-7 C)
Relative Humidity: 85%
Pressure (altimeter): 30.42 in. Hg (1030 hPa)
ob: EPGD 261900Z 11011KT 8000 BKN006 M05/M07 Q1030 R11/290095
cycle: 19
