Gdansk-Rebiechowo, Poland (EPGD) 54-23N 018-28E 138M
Jan 13, 2012 - 12:00 PM EST / 2012.01.13 1700 UTC
Wind: from the W (280 degrees) at 17 MPH (15 KT):0
Visibility: less than 1 mile:0
Sky conditions: mostly cloudy
Weather: snow showers; Cumulonimbus clouds observed
Temperature: 32 F (0 C)
Windchill: 21 F (-6 C):1
Dew Point: 30 F (-1 C)
Relative Humidity: 92%
Pressure (altimeter): 29.53 in. Hg (1000 hPa)
ob: EPGD 131700Z 28015KT 1200 SHSN BKN005CB 00/M01 Q1000
cycle: 17
