Gdansk-Rebiechowo, Poland (EPGD) 54-23N 018-28E 138M
Dec 23, 2011 - 12:00 AM EST / 2011.12.23 0500 UTC
Wind: from the S (190 degrees) at 3 MPH (3 KT) (direction variable):0
Visibility: 2 mile(s):0
Sky conditions: overcast
Weather: mist
Temperature: 30 F (-1 C)
Dew Point: 28 F (-2 C)
Relative Humidity: 92%
Pressure (altimeter): 30.09 in. Hg (1019 hPa)
ob: EPGD 230500Z 19003KT 150V220 4000 BR OVC004 M01/M02 Q1019
cycle: 5
