Gdansk-Rebiechowo, Poland (EPGD) 54-23N 018-28E 138M
Jan 04, 2012 - 03:00 AM EST / 2012.01.04 0800 UTC
Wind: from the WSW (240 degrees) at 18 MPH (16 KT) gusting to 32 MPH (28 KT) (direction variable):0
Visibility: greater than 7 mile(s):0
Sky conditions: mostly clear
Temperature: 39 F (4 C)
Dew Point: 30 F (-1 C)
Relative Humidity: 69%
Pressure (altimeter): 29.41 in. Hg (0996 hPa)
ob: EPGD 040800Z 24016G28KT 200V260 9999 FEW040 04/M01 Q0996
cycle: 8
