Gdansk-Rebiechowo, Poland (EPGD) 54-23N 018-28E 138M
Dec 25, 2011 - 08:00 AM EST / 2011.12.25 1300 UTC
Wind: from the WSW (240 degrees) at 12 MPH (10 KT) (direction variable):0
Visibility: 4 mile(s):0
Sky conditions: mostly cloudy
Temperature: 39 F (4 C)
Dew Point: 35 F (2 C)
Relative Humidity: 86%
Pressure (altimeter): 30.15 in. Hg (1021 hPa)
ob: EPGD 251300Z 24010KT 210V270 8000 BKN009 04/02 Q1021
cycle: 13
