Gdansk-Rebiechowo, Poland (EPGD) 54-23N 018-28E 138M
Jan 28, 2012 - 10:00 PM EST / 2012.01.29 0300 UTC
Wind: from the ESE (120 degrees) at 7 MPH (6 KT):0
Visibility: greater than 7 mile(s):0
Temperature: 8 F (-13 C)
Windchill: -4 F (-20 C):1
Dew Point: 3 F (-16 C)
Relative Humidity: 78%
Pressure (altimeter): 30.68 in. Hg (1039 hPa)
ob: EPGD 290300Z 12006KT CAVOK M13/M16 Q1039
cycle: 3
