Gdansk-Rebiechowo, Poland (EPGD) 54-23N 018-28E 138M
Feb 03, 2012 - 04:00 AM EST / 2012.02.03 0900 UTC
Wind: from the SW (220 degrees) at 7 MPH (6 KT):0
Visibility: 2 mile(s):0
Weather: mist
Temperature: 5 F (-15 C)
Windchill: -7 F (-22 C):2
Dew Point: 0 F (-18 C)
Relative Humidity: 77%
Pressure (altimeter): 30.47 in. Hg (1032 hPa)
ob: EPGD 030900Z 22006KT 4000 BR NSC M15/M18 Q1032 R11/190095
cycle: 9
