Gdansk-Rebiechowo, Poland (EPGD) 54-23N 018-28E 138M
Feb 14, 2012 - 03:00 PM EST / 2012.02.14 2000 UTC
Wind: from the SSW (200 degrees) at 10 MPH (9 KT):0
Visibility: greater than 7 mile(s):0
Temperature: 26 F (-3 C)
Windchill: 15 F (-9 C):1
Dew Point: 19 F (-7 C)
Relative Humidity: 73%
Pressure (altimeter): 29.50 in. Hg (0999 hPa)
ob: EPGD 142000Z 20009KT CAVOK M03/M07 Q0999 R11/190095
cycle: 20
