Gdansk-Rebiechowo, Poland (EPGD) 54-23N 018-28E 138M
Jan 18, 2012 - 07:00 PM EST / 2012.01.19 0000 UTC
Wind: from the WSW (250 degrees) at 8 MPH (7 KT) (direction variable):0
Visibility: 1 mile(s):0
Sky conditions: mostly cloudy
Weather: snow
Temperature: 32 F (0 C)
Windchill: 24 F (-4 C):1
Dew Point: 30 F (-1 C)
Relative Humidity: 92%
Pressure (altimeter): 29.80 in. Hg (1009 hPa)
ob: EPGD 190000Z 25007KT 210V270 3000 SN BKN006 M00/M01 Q1009 R11/290095
cycle: 0
