Gdansk-Rebiechowo, Poland (EPGD) 54-23N 018-28E 138M
Feb 04, 2012 - 01:00 PM EST / 2012.02.04 1800 UTC
Wind: from the E (100 degrees) at 7 MPH (6 KT):0
Visibility: 1 mile(s):0
Sky conditions: partly cloudy
Weather: mist
Temperature: 5 F (-15 C)
Windchill: -7 F (-22 C):2
Dew Point: 0 F (-18 C)
Relative Humidity: 77%
Pressure (altimeter): 30.62 in. Hg (1037 hPa)
ob: EPGD 041800Z 10006KT 2200 BR SCT005 SCT014 M15/M18 Q1037 R11/490136
cycle: 18
