Gdansk-Rebiechowo, Poland (EPGD) 54-23N 018-28E 138M
Feb 10, 2012 - 06:00 AM EST / 2012.02.10 1100 UTC
Wind: from the SE (130 degrees) at 3 MPH (3 KT):0
Visibility: greater than 7 mile(s):0
Sky conditions: mostly cloudy
Temperature: 17 F (-8 C)
Dew Point: 12 F (-11 C)
Relative Humidity: 78%
Pressure (altimeter): 30.71 in. Hg (1040 hPa)
ob: EPGD 101100Z 13003KT 9999 FEW009 BKN012 M08/M11 Q1040 R11/090095
cycle: 11
