Gdansk-Rebiechowo, Poland (EPGD) 54-23N 018-28E 138M
Jan 02, 2012 - 06:00 AM EST / 2012.01.02 1100 UTC
Wind: from the SW (230 degrees) at 9 MPH (8 KT) (direction variable):0
Visibility: greater than 7 mile(s):0
Sky conditions: mostly cloudy
Temperature: 50 F (10 C)
Dew Point: 48 F (9 C)
Relative Humidity: 93%
Pressure (altimeter): 29.56 in. Hg (1001 hPa)
ob: EPGD 021100Z 23008KT 200V260 9999 BKN010 10/09 Q1001
cycle: 11
