Gdansk-Rebiechowo, Poland (EPGD) 54-23N 018-28E 138M
Jan 31, 2012 - 01:00 AM EST / 2012.01.31 0600 UTC
Wind: Calm:0
Visibility: greater than 7 mile(s):0
Temperature: 0 F (-18 C)
Dew Point: -4 F (-20 C)
Relative Humidity: 84%
Pressure (altimeter): 30.71 in. Hg (1040 hPa)
ob: EPGD 310600Z 00000KT CAVOK M18/M20 Q1040
cycle: 6
