Gdansk-Rebiechowo, Poland (EPGD) 54-23N 018-28E 138M
Jan 25, 2012 - 09:00 AM EST / 2012.01.25 1400 UTC
Wind: from the W (270 degrees) at 2 MPH (2 KT):0
Visibility: greater than 7 mile(s):0
Sky conditions: partly cloudy
Temperature: 30 F (-1 C)
Dew Point: 26 F (-3 C)
Relative Humidity: 86%
Pressure (altimeter): 30.18 in. Hg (1022 hPa)
ob: EPGD 251400Z 27002KT 9999 FEW013 SCT017 M01/M03 Q1022 R11/290095
cycle: 14
