Gdansk-Rebiechowo, Poland (EPGD) 54-23N 018-28E 138M
Jan 11, 2012 - 07:00 PM EST / 2012.01.12 0000 UTC
Wind: from the W (260 degrees) at 12 MPH (10 KT):0
Visibility: greater than 7 mile(s):0
Sky conditions: partly cloudy
Temperature: 39 F (4 C)
Dew Point: 33 F (1 C)
Relative Humidity: 80%
Pressure (altimeter): 30.09 in. Hg (1019 hPa)
ob: EPGD 120000Z 26010KT 9999 SCT019 04/01 Q1019 R11/290095
cycle: 0
