Gdansk-Rebiechowo, Poland (EPGD) 54-23N 018-28E 138M
Dec 17, 2011 - 09:00 AM EST / 2011.12.17 1400 UTC
Wind: from the WSW (250 degrees) at 15 MPH (13 KT) gusting to 33 MPH (29 KT):0
Visibility: greater than 7 mile(s):0
Sky conditions: mostly cloudy
Weather: light rain
Temperature: 37 F (3 C)
Dew Point: 33 F (1 C)
Relative Humidity: 86%
Pressure (altimeter): 28.85 in. Hg (0977 hPa)
ob: EPGD 171400Z 25013G29KT 9999 -RA BKN009 03/01 Q0977 R11/290064
cycle: 14
