Gdansk-Rebiechowo, Poland (EPGD) 54-23N 018-28E 138M
Dec 27, 2011 - 11:00 PM EST / 2011.12.28 0400 UTC
Wind: from the W (270 degrees) at 6 MPH (5 KT):0
Visibility: greater than 7 mile(s):0
Sky conditions: partly cloudy
Temperature: 35 F (2 C)
Windchill: 30 F (-1 C):1
Dew Point: 33 F (1 C)
Relative Humidity: 93%
Pressure (altimeter): 30.36 in. Hg (1028 hPa)
ob: EPGD 280400Z 27005KT 9999 SCT007 02/01 Q1028
cycle: 4
