Gdansk-Rebiechowo, Poland (EPGD) 54-23N 018-28E 138M
Jan 25, 2012 - 01:00 AM EST / 2012.01.25 0600 UTC
Wind: from the W (270 degrees) at 1 MPH (1 KT):0
Visibility: greater than 7 mile(s):0
Sky conditions: mostly cloudy
Temperature: 26 F (-3 C)
Dew Point: 24 F (-4 C)
Relative Humidity: 92%
Pressure (altimeter): 30.15 in. Hg (1021 hPa)
ob: EPGD 250600Z 27001KT 9999 BKN042 M03/M04 Q1021 R11/520146
cycle: 6
