Gdansk-Rebiechowo, Poland (EPGD) 54-23N 018-28E 138M
Feb 14, 2012 - 10:00 PM EST / 2012.02.15 0300 UTC
Wind: from the SSE (160 degrees) at 10 MPH (9 KT) (direction variable):0
Visibility: 1 mile(s):0
Sky conditions: mostly cloudy
Weather: light snow; mist
Temperature: 24 F (-4 C)
Windchill: 14 F (-10 C):1
Dew Point: 23 F (-5 C)
Relative Humidity: 92%
Pressure (altimeter): 29.00 in. Hg (0982 hPa)
ob: EPGD 150300Z 16009KT 120V200 2200 -SN BR BKN005 M04/M05 Q0982 R11/590243
cycle: 3
