Gdansk-Rebiechowo, Poland (EPGD) 54-23N 018-28E 138M
Jan 31, 2012 - 05:00 PM EST / 2012.01.31 2200 UTC
Wind: from the E (090 degrees) at 7 MPH (6 KT):0
Visibility: greater than 7 mile(s):0
Temperature: 10 F (-12 C)
Windchill: 0 F (-18 C):1
Dew Point: 1 F (-17 C)
Relative Humidity: 66%
Pressure (altimeter): 30.71 in. Hg (1040 hPa)
ob: EPGD 312200Z 09006KT CAVOK M12/M17 Q1040 R11/190095
cycle: 22
