Gdansk-Rebiechowo, Poland (EPGD) 54-23N 018-28E 138M
Feb 09, 2012 - 07:00 PM EST / 2012.02.10 0000 UTC
Wind: from the ESE (120 degrees) at 3 MPH (3 KT):0
Visibility: greater than 7 mile(s):0
Sky conditions: mostly cloudy
Temperature: 8 F (-13 C)
Dew Point: 3 F (-16 C)
Relative Humidity: 78%
Pressure (altimeter): 30.71 in. Hg (1040 hPa)
ob: EPGD 100000Z 12003KT 9999 SCT006 BKN017 M13/M16 Q1040 R/090095
cycle: 0
