Gdansk-Rebiechowo, Poland (EPGD) 54-23N 018-28E 138M
Dec 20, 2011 - 09:00 AM EST / 2011.12.20 1400 UTC
Wind: from the SSE (150 degrees) at 3 MPH (3 KT) (direction variable):0
Visibility: greater than 7 mile(s):0
Temperature: 35 F (2 C)
Dew Point: 30 F (-1 C)
Relative Humidity: 80%
Pressure (altimeter): 29.85 in. Hg (1011 hPa)
ob: EPGD 201400Z 15003KT 080V190 CAVOK 02/M01 Q1011 R11/190095
cycle: 14
