Gdansk-Rebiechowo, Poland (EPGD) 54-23N 018-28E 138M
Jan 03, 2012 - 01:00 AM EST / 2012.01.03 0600 UTC
Wind: from the WSW (250 degrees) at 10 MPH (9 KT) (direction variable):0
Visibility: greater than 7 mile(s):0
Sky conditions: mostly cloudy
Temperature: 39 F (4 C)
Dew Point: 35 F (2 C)
Relative Humidity: 86%
Pressure (altimeter): 29.88 in. Hg (1012 hPa)
ob: EPGD 030600Z 25009KT 210V280 9999 BKN042 04/02 Q1012
cycle: 6
