Gdansk-Rebiechowo, Poland (EPGD) 54-23N 018-28E 138M
Dec 15, 2011 - 05:00 AM EST / 2011.12.15 1000 UTC
Wind: from the SW (220 degrees) at 10 MPH (9 KT) (direction variable):0
Visibility: greater than 7 mile(s):0
Temperature: 39 F (4 C)
Dew Point: 33 F (1 C)
Relative Humidity: 80%
Pressure (altimeter): 29.65 in. Hg (1004 hPa)
ob: EPGD 151000Z 22009KT 170V250 CAVOK 04/01 Q1004
cycle: 10
