Gdansk-Rebiechowo, Poland (EPGD) 54-23N 018-28E 138M
Jan 05, 2012 - 08:00 PM EST / 2012.01.06 0100 UTC
Wind: from the SSE (160 degrees) at 3 MPH (3 KT) (direction variable):0
Visibility: greater than 7 mile(s):0
Sky conditions: mostly cloudy
Weather: light rain showers
Temperature: 37 F (3 C)
Dew Point: 33 F (1 C)
Relative Humidity: 86%
Pressure (altimeter): 28.76 in. Hg (0974 hPa)
ob: EPGD 060100Z 16003KT 110V200 9999 -SHRA BKN007 03/01 Q0974
cycle: 1
