Gdansk-Rebiechowo, Poland (EPGD) 54-23N 018-28E 138M
Jan 17, 2012 - 05:00 AM EST / 2012.01.17 1000 UTC
Wind: Calm:0
Visibility: greater than 7 mile(s):0
Sky conditions: mostly cloudy
Temperature: 30 F (-1 C)
Dew Point: 28 F (-2 C)
Relative Humidity: 92%
Pressure (altimeter): 30.18 in. Hg (1022 hPa)
ob: EPGD 171000Z 00000KT 9999 BKN031 M01/M02 Q1022 R11/290053
cycle: 10
