Gdansk-Rebiechowo, Poland (EPGD) 54-23N 018-28E 138M
Dec 17, 2011 - 11:00 PM EST / 2011.12.18 0400 UTC
Wind: from the W (270 degrees) at 15 MPH (13 KT) gusting to 28 MPH (24 KT):0
Visibility: greater than 7 mile(s):0
Sky conditions: partly cloudy
Temperature: 35 F (2 C)
Windchill: 24 F (-4 C):1
Dew Point: 30 F (-1 C)
Relative Humidity: 80%
Pressure (altimeter): 29.18 in. Hg (0988 hPa)
ob: EPGD 180400Z 27013G24KT 9999 FEW020 SCT030 02/M01 Q0988 R11/290064
cycle: 4
