Gdansk-Rebiechowo, Poland (EPGD) 54-23N 018-28E 138M
Dec 26, 2011 - 09:00 AM EST / 2011.12.26 1400 UTC
Wind: from the W (270 degrees) at 15 MPH (13 KT):0
Visibility: greater than 7 mile(s):0
Sky conditions: mostly cloudy
Temperature: 48 F (9 C)
Dew Point: 46 F (8 C)
Relative Humidity: 93%
Pressure (altimeter): 30.24 in. Hg (1024 hPa)
ob: EPGD 261400Z 27013KT 9999 BKN005 09/08 Q1024
cycle: 14
