Gdansk-Rebiechowo, Poland (EPGD) 54-23N 018-28E 138M
Feb 06, 2012 - 05:00 AM EST / 2012.02.06 1000 UTC
Wind: from the E (090 degrees) at 10 MPH (9 KT):0
Visibility: 2 mile(s):0
Sky conditions: mostly cloudy
Weather: light snow; mist
Temperature: 12 F (-11 C)
Windchill: 0 F (-18 C):1
Dew Point: 5 F (-15 C)
Relative Humidity: 72%
Pressure (altimeter): 30.65 in. Hg (1038 hPa)
ob: EPGD 061000Z 09009KT 4500 -SN BR BKN007 M11/M15 Q1038 R11/490152
cycle: 10
