Gdansk-Rebiechowo, Poland (EPGD) 54-23N 018-28E 138M
Jan 05, 2012 - 12:00 AM EST / 2012.01.05 0500 UTC
Wind: from the SSW (200 degrees) at 13 MPH (11 KT) gusting to 24 MPH (21 KT) (direction variable):0
Visibility: greater than 7 mile(s):0
Sky conditions: mostly cloudy
Weather: light rain showers
Temperature: 37 F (3 C)
Dew Point: 32 F (0 C)
Relative Humidity: 80%
Pressure (altimeter): 29.06 in. Hg (0984 hPa)
ob: EPGD 050500Z 20011G21KT 160V230 9999 -SHRA BKN011 03/00 Q0984
cycle: 5
