Gdansk-Rebiechowo, Poland (EPGD) 54-23N 018-28E 138M
Jan 31, 2012 - 03:00 AM EST / 2012.01.31 0800 UTC
Wind: Calm:0
Visibility: 3 mile(s):0
Temperature: 1 F (-17 C)
Dew Point: -4 F (-20 C)
Relative Humidity: 77%
Pressure (altimeter): 30.74 in. Hg (1041 hPa)
ob: EPGD 310800Z 00000KT 6000 NSC M17/M20 Q1041 R11/190095
cycle: 8
