Gdansk-Rebiechowo, Poland (EPGD) 54-23N 018-28E 138M
Feb 04, 2012 - 09:00 PM EST / 2012.02.05 0200 UTC
Wind: Calm:0
Visibility: 2 mile(s):0
Weather: mist
Temperature: -11 F (-24 C)
Dew Point: -16 F (-27 C)
Relative Humidity: 76%
Pressure (altimeter): 30.65 in. Hg (1038 hPa)
ob: EPGD 050200Z 00000KT 3500 BR NSC M24/M27 Q1038 R11/490136
cycle: 2
