Gdansk-Rebiechowo, Poland (EPGD) 54-23N 018-28E 138M
Dec 13, 2011 - 11:00 PM EST / 2011.12.14 0400 UTC
Wind: from the SSW (210 degrees) at 10 MPH (9 KT) (direction variable):0
Visibility: greater than 7 mile(s):0
Sky conditions: partly cloudy
Temperature: 41 F (5 C)
Dew Point: 35 F (2 C)
Relative Humidity: 80%
Pressure (altimeter): 29.56 in. Hg (1001 hPa)
ob: EPGD 140400Z 21009KT 180V250 9999 SCT013 05/02 Q1001
cycle: 4
