Gdansk-Rebiechowo, Poland (EPGD) 54-23N 018-28E 138M
Jan 21, 2012 - 06:00 AM EST / 2012.01.21 1100 UTC
Wind: from the S (170 degrees) at 6 MPH (5 KT) (direction variable):0
Visibility: greater than 7 mile(s):0
Sky conditions: mostly cloudy
Temperature: 33 F (1 C)
Windchill: 26 F (-3 C):1
Dew Point: 28 F (-2 C)
Relative Humidity: 80%
Pressure (altimeter): 29.65 in. Hg (1004 hPa)
ob: EPGD 211100Z 17005KT 130V210 9999 BKN016 01/M02 Q1004 R11/290095
cycle: 11
