Gdansk-Rebiechowo, Poland (EPGD) 54-23N 018-28E 138M
Feb 16, 2012 - 07:00 AM EST / 2012.02.16 1200 UTC
Wind: from the ESE (120 degrees) at 3 MPH (3 KT):0
Visibility: greater than 7 mile(s):0
Sky conditions: mostly clear
Temperature: 32 F (0 C)
Dew Point: 21 F (-6 C)
Relative Humidity: 63%
Pressure (altimeter): 29.97 in. Hg (1015 hPa)
ob: EPGD 161200Z 12003KT 9999 FEW021 M00/M06 Q1015 R11/190095
cycle: 12
