Gdansk-Rebiechowo, Poland (EPGD) 54-23N 018-28E 138M
Dec 15, 2011 - 05:00 PM EST / 2011.12.15 2200 UTC
Wind: from the S (190 degrees) at 6 MPH (5 KT) (direction variable):0
Visibility: greater than 7 mile(s):0
Sky conditions: mostly cloudy
Temperature: 37 F (3 C)
Dew Point: 33 F (1 C)
Relative Humidity: 86%
Pressure (altimeter): 29.65 in. Hg (1004 hPa)
ob: EPGD 152200Z 19005KT 150V220 9999 BKN043 03/01 Q1004
cycle: 22
