Gdansk-Rebiechowo, Poland (EPGD) 54-23N 018-28E 138M
Jan 06, 2012 - 12:00 PM EST / 2012.01.06 1700 UTC
Wind: from the WNW (300 degrees) at 16 MPH (14 KT):0
Visibility: greater than 7 mile(s):0
Sky conditions: mostly cloudy
Temperature: 32 F (0 C)
Windchill: 21 F (-6 C):1
Dew Point: 28 F (-2 C)
Relative Humidity: 86%
Pressure (altimeter): 29.68 in. Hg (1005 hPa)
ob: EPGD 061700Z 30014KT 9999 FEW009 BKN021 00/M02 Q1005
cycle: 17
