Gdansk-Rebiechowo, Poland (EPGD) 54-23N 018-28E 138M
Dec 24, 2011 - 09:00 PM EST / 2011.12.25 0200 UTC
Wind: from the W (280 degrees) at 14 MPH (12 KT):0
Visibility: greater than 7 mile(s):0
Sky conditions: mostly cloudy
Temperature: 35 F (2 C)
Windchill: 26 F (-3 C):1
Dew Point: 33 F (1 C)
Relative Humidity: 93%
Pressure (altimeter): 30.06 in. Hg (1018 hPa)
ob: EPGD 250200Z 28012KT 9999 BKN011 02/01 Q1018
cycle: 2
