Gdansk-Rebiechowo, Poland (EPGD) 54-23N 018-28E 138M
Jan 06, 2012 - 10:00 PM EST / 2012.01.07 0300 UTC
Wind: from the WSW (240 degrees) at 8 MPH (7 KT) (direction variable):0
Visibility: greater than 7 mile(s):0
Sky conditions: partly cloudy
Temperature: 32 F (0 C)
Windchill: 24 F (-4 C):1
Dew Point: 28 F (-2 C)
Relative Humidity: 86%
Pressure (altimeter): 29.71 in. Hg (1006 hPa)
ob: EPGD 070300Z 24007KT 210V270 9999 SCT009 M00/M02 Q1006 R11/190095
cycle: 3
