Gdansk-Rebiechowo, Poland (EPGD) 54-23N 018-28E 138M
Dec 29, 2011 - 06:00 PM EST / 2011.12.29 2300 UTC
Wind: from the SW (230 degrees) at 13 MPH (11 KT) gusting to 24 MPH (21 KT) (direction variable):0
Visibility: greater than 7 mile(s):0
Sky conditions: mostly cloudy
Temperature: 37 F (3 C)
Dew Point: 30 F (-1 C)
Relative Humidity: 74%
Pressure (altimeter): 29.56 in. Hg (1001 hPa)
ob: EPGD 292300Z 23011G21KT 180V260 9999 FEW021 BKN036 03/M01 Q1001
cycle: 23
