Gdansk-Rebiechowo, Poland (EPGD) 54-23N 018-28E 138M
Jan 17, 2012 - 05:00 PM EST / 2012.01.17 2200 UTC
Wind: from the SW (230 degrees) at 5 MPH (4 KT) (direction variable):0
Visibility: 4 mile(s):0
Sky conditions: mostly cloudy
Weather: light drizzle
Temperature: 30 F (-1 C)
Windchill: 24 F (-4 C):1
Dew Point: 28 F (-2 C)
Relative Humidity: 92%
Pressure (altimeter): 30.21 in. Hg (1023 hPa)
ob: EPGD 172200Z 23004KT 180V270 7000 -DZ BKN006 M01/M02 Q1023 R11/290095
cycle: 22
