Gdansk-Rebiechowo, Poland (EPGD) 54-23N 018-28E 138M
Feb 08, 2012 - 04:00 PM EST / 2012.02.08 2100 UTC
Wind: from the W (270 degrees) at 3 MPH (3 KT):0
Visibility: 1 mile(s):0
Sky conditions: mostly cloudy
Weather: light snow; mist
Temperature: 24 F (-4 C)
Dew Point: 23 F (-5 C)
Relative Humidity: 92%
Pressure (altimeter): 30.47 in. Hg (1032 hPa)
ob: EPGD 082100Z 27003KT 2500 -SN BR FEW005 BKN010 M04/M05 Q1032 R11/490042
cycle: 21
