Gdansk-Rebiechowo, Poland (EPGD) 54-23N 018-28E 138M
Jan 30, 2012 - 04:00 AM EST / 2012.01.30 0900 UTC
Wind: from the ESE (110 degrees) at 9 MPH (8 KT):0
Visibility: greater than 7 mile(s):0
Temperature: 8 F (-13 C)
Windchill: -5 F (-21 C):2
Dew Point: 1 F (-17 C)
Relative Humidity: 71%
Pressure (altimeter): 30.80 in. Hg (1043 hPa)
ob: EPGD 300900Z 11008KT CAVOK M13/M17 Q1043 R11/190095
cycle: 9
