Gdansk-Rebiechowo, Poland (EPGD) 54-23N 018-28E 138M
Dec 14, 2011 - 01:00 AM EST / 2011.12.14 0600 UTC
Wind: from the SW (230 degrees) at 10 MPH (9 KT) (direction variable):0
Visibility: greater than 7 mile(s):0
Sky conditions: mostly cloudy
Temperature: 41 F (5 C)
Dew Point: 35 F (2 C)
Relative Humidity: 80%
Pressure (altimeter): 29.59 in. Hg (1002 hPa)
ob: EPGD 140600Z 23009KT 200V260 9999 BKN011 05/02 Q1002
cycle: 6
