Gdansk-Rebiechowo, Poland (EPGD) 54-23N 018-28E 138M
Feb 18, 2012 - 01:00 AM EST / 2012.02.18 0600 UTC
Wind: from the WSW (250 degrees) at 6 MPH (5 KT) (direction variable):0
Visibility: greater than 7 mile(s):0
Sky conditions: mostly cloudy
Temperature: 32 F (0 C)
Windchill: 26 F (-3 C):1
Dew Point: 30 F (-1 C)
Relative Humidity: 92%
Pressure (altimeter): 29.91 in. Hg (1013 hPa)
ob: EPGD 180600Z 25005KT 220V280 9999 BKN004 M00/M01 Q1013 R11/190095
cycle: 6
