Gdansk-Rebiechowo, Poland (EPGD) 54-23N 018-28E 138M
Dec 21, 2011 - 09:00 AM EST / 2011.12.21 1400 UTC
Wind: Calm:0
Visibility: 3 mile(s):0
Weather: mist
Temperature: 24 F (-4 C)
Dew Point: 21 F (-6 C)
Relative Humidity: 85%
Pressure (altimeter): 29.83 in. Hg (1010 hPa)
ob: EPGD 211400Z 00000KT 5000 BR NSC M04/M06 Q1010 R11/190095
cycle: 14
