Gdansk-Rebiechowo, Poland (EPGD) 54-23N 018-28E 138M
Jan 13, 2012 - 08:00 AM EST / 2012.01.13 1300 UTC
Wind: from the WNW (290 degrees) at 22 MPH (19 KT):0
Visibility: greater than 7 mile(s):0
Sky conditions: partly cloudy
Temperature: 37 F (3 C)
Dew Point: 28 F (-2 C)
Relative Humidity: 69%
Pressure (altimeter): 29.53 in. Hg (1000 hPa)
ob: EPGD 131300Z 29019KT 9999 SCT030 03/M02 Q1000
cycle: 13
