Gdansk-Rebiechowo, Poland (EPGD) 54-23N 018-28E 138M
Jan 27, 2012 - 09:00 AM EST / 2012.01.27 1400 UTC
Wind: from the ESE (120 degrees) at 10 MPH (9 KT) (direction variable):0
Visibility: 4 mile(s):0
Temperature: 15 F (-9 C)
Windchill: 3 F (-16 C):1
Dew Point: 10 F (-12 C)
Relative Humidity: 78%
Pressure (altimeter): 30.47 in. Hg (1032 hPa)
ob: EPGD 271400Z 12009KT 100V160 8000 NSC M09/M12 Q1032 R11/190095
cycle: 14
