Gdansk-Rebiechowo, Poland (EPGD) 54-23N 018-28E 138M
Feb 08, 2012 - 07:00 PM EST / 2012.02.09 0000 UTC
Wind: from the S (190 degrees) at 3 MPH (3 KT):0
Visibility: less than 1 mile:0
Sky conditions: mostly cloudy
Weather: snow; mist
Temperature: 24 F (-4 C)
Dew Point: 23 F (-5 C)
Relative Humidity: 92%
Pressure (altimeter): 30.39 in. Hg (1029 hPa)
ob: EPGD 090000Z 19003KT 1600 SN BR BKN006 M04/M05 Q1029 R11/490042
cycle: 0
