Gdansk-Rebiechowo, Poland (EPGD) 54-23N 018-28E 138M
Dec 31, 2011 - 05:00 PM EST / 2011.12.31 2200 UTC
Wind: from the W (260 degrees) at 2 MPH (2 KT):0
Visibility: 4 mile(s):0
Temperature: 28 F (-2 C)
Dew Point: 26 F (-3 C)
Relative Humidity: 92%
Pressure (altimeter): 29.91 in. Hg (1013 hPa)
ob: EPGD 312200Z 26002KT 7000 NSC M02/M03 Q1013
cycle: 22
