Gdansk-Rebiechowo, Poland (EPGD) 54-23N 018-28E 138M
Jan 30, 2012 - 03:00 AM EST / 2012.01.30 0800 UTC
Wind: from the ESE (110 degrees) at 9 MPH (8 KT):0
Visibility: greater than 7 mile(s):0
Temperature: 6 F (-14 C)
Windchill: -7 F (-22 C):2
Dew Point: 0 F (-18 C)
Relative Humidity: 71%
Pressure (altimeter): 30.80 in. Hg (1043 hPa)
ob: EPGD 300800Z 11008KT CAVOK M14/M18 Q1043 R11/190095
cycle: 8
