Gdansk-Rebiechowo, Poland (EPGD) 54-23N 018-28E 138M
Jan 06, 2012 - 09:00 AM EST / 2012.01.06 1400 UTC
Wind: from the NW (320 degrees) at 16 MPH (14 KT):0
Visibility: 1 mile(s):0
Sky conditions: mostly cloudy
Weather: light snow; mist
Temperature: 33 F (1 C)
Windchill: 23 F (-5 C):1
Dew Point: 32 F (0 C)
Relative Humidity: 93%
Pressure (altimeter): 29.56 in. Hg (1001 hPa)
ob: EPGD 061400Z 32014KT 2000 -SN BR BKN006 01/M00 Q1001
cycle: 14
