Gdansk-Rebiechowo, Poland (EPGD) 54-23N 018-28E 138M
Dec 25, 2011 - 04:00 AM EST / 2011.12.25 0900 UTC
Wind: from the WSW (240 degrees) at 10 MPH (9 KT) (direction variable):0
Visibility: greater than 7 mile(s):0
Sky conditions: mostly cloudy
Temperature: 37 F (3 C)
Dew Point: 33 F (1 C)
Relative Humidity: 86%
Pressure (altimeter): 30.15 in. Hg (1021 hPa)
ob: EPGD 250900Z 24009KT 200V270 9999 BKN009 03/01 Q1021
cycle: 9
