Gdansk-Rebiechowo, Poland (EPGD) 54-23N 018-28E 138M
Feb 14, 2012 - 05:00 PM EST / 2012.02.14 2200 UTC
Wind: from the S (190 degrees) at 12 MPH (10 KT):0
Visibility: 1 mile(s):0
Sky conditions: mostly cloudy
Weather: light snow
Temperature: 24 F (-4 C)
Windchill: 12 F (-11 C):1
Dew Point: 21 F (-6 C)
Relative Humidity: 85%
Pressure (altimeter): 29.38 in. Hg (0995 hPa)
ob: EPGD 142200Z 19010KT 2500 -SN FEW005 BKN011 M04/M06 Q0995 R11/590243
cycle: 22
