Gdansk-Rebiechowo, Poland (EPGD) 54-23N 018-28E 138M
Dec 31, 2011 - 11:00 PM EST / 2012.01.01 0400 UTC
Wind: from the S (170 degrees) at 3 MPH (3 KT) (direction variable):0
Visibility: greater than 7 mile(s):0
Sky conditions: mostly cloudy
Temperature: 30 F (-1 C)
Dew Point: 26 F (-3 C)
Relative Humidity: 86%
Pressure (altimeter): 29.91 in. Hg (1013 hPa)
ob: EPGD 010400Z 17003KT 130V200 9999 BKN016 M01/M03 Q1013
cycle: 4
