Gdansk-Rebiechowo, Poland (EPGD) 54-23N 018-28E 138M
Feb 08, 2012 - 11:00 AM EST / 2012.02.08 1600 UTC
Wind: from the W (280 degrees) at 9 MPH (8 KT):0
Visibility: 3 mile(s):0
Sky conditions: mostly cloudy
Weather: light snow
Temperature: 24 F (-4 C)
Windchill: 14 F (-10 C):1
Dew Point: 21 F (-6 C)
Relative Humidity: 85%
Pressure (altimeter): 30.56 in. Hg (1035 hPa)
ob: EPGD 081600Z 28008KT 6000 -SN SCT010 BKN030 M04/M06 Q1035 R11/190095
cycle: 16
