Gdansk-Rebiechowo, Poland (EPGD) 54-23N 018-28E 138M
Dec 29, 2011 - 07:00 AM EST / 2011.12.29 1200 UTC
Wind: from the WSW (240 degrees) at 14 MPH (12 KT) gusting to 25 MPH (22 KT) (direction variable):0
Visibility: greater than 7 mile(s):0
Sky conditions: mostly cloudy
Weather: light rain showers
Temperature: 41 F (5 C)
Dew Point: 35 F (2 C)
Relative Humidity: 80%
Pressure (altimeter): 29.68 in. Hg (1005 hPa)
ob: EPGD 291200Z 24012G22KT 210V270 9999 -SHRA BKN021 05/02 Q1005
cycle: 12
