Gdansk-Rebiechowo, Poland (EPGD) 54-23N 018-28E 138M
Feb 13, 2012 - 10:00 AM EST / 2012.02.13 1500 UTC
Wind: from the W (270 degrees) at 6 MPH (5 KT):0
Visibility: greater than 7 mile(s):0
Sky conditions: mostly cloudy
Temperature: 30 F (-1 C)
Windchill: 23 F (-5 C):1
Dew Point: 24 F (-4 C)
Relative Humidity: 80%
Pressure (altimeter): 29.97 in. Hg (1015 hPa)
ob: EPGD 131500Z 27005KT 9999 BKN026 M01/M04 Q1015 R11/190095
cycle: 15
