Gdansk-Rebiechowo, Poland (EPGD) 54-23N 018-28E 138M
Dec 25, 2011 - 09:00 AM EST / 2011.12.25 1400 UTC
Wind: from the SW (230 degrees) at 10 MPH (9 KT) (direction variable):0
Visibility: 4 mile(s):0
Sky conditions: mostly cloudy
Temperature: 39 F (4 C)
Dew Point: 35 F (2 C)
Relative Humidity: 86%
Pressure (altimeter): 30.12 in. Hg (1020 hPa)
ob: EPGD 251400Z 23009KT 200V260 8000 BKN007 04/02 Q1020
cycle: 14
