Gdansk-Rebiechowo, Poland (EPGD) 54-23N 018-28E 138M
Feb 07, 2012 - 02:00 PM EST / 2012.02.07 1900 UTC
Wind: from the E (080 degrees) at 10 MPH (9 KT):0
Visibility: greater than 7 mile(s):0
Sky conditions: mostly cloudy
Temperature: 19 F (-7 C)
Windchill: 6 F (-14 C):1
Dew Point: 15 F (-9 C)
Relative Humidity: 85%
Pressure (altimeter): 30.77 in. Hg (1042 hPa)
ob: EPGD 071900Z 08009KT 9999 BKN010 M07/M09 Q1042 R11/490143
cycle: 19
