Gdansk-Rebiechowo, Poland (EPGD) 54-23N 018-28E 138M
Jan 27, 2012 - 08:00 PM EST / 2012.01.28 0100 UTC
Wind: from the ESE (120 degrees) at 8 MPH (7 KT):0
Visibility: greater than 7 mile(s):0
Temperature: 8 F (-13 C)
Windchill: -4 F (-20 C):1
Dew Point: 3 F (-16 C)
Relative Humidity: 78%
Pressure (altimeter): 30.53 in. Hg (1034 hPa)
ob: EPGD 280100Z 12007KT CAVOK M13/M16 Q1034 R11/190095
cycle: 1
