Gdansk-Rebiechowo, Poland (EPGD) 54-23N 018-28E 138M
Jan 05, 2012 - 02:00 AM EST / 2012.01.05 0700 UTC
Wind: from the S (180 degrees) at 14 MPH (12 KT) (direction variable):0
Visibility: greater than 7 mile(s):0
Sky conditions: mostly cloudy
Weather: light rain
Temperature: 35 F (2 C)
Windchill: 26 F (-3 C):1
Dew Point: 32 F (0 C)
Relative Humidity: 86%
Pressure (altimeter): 28.91 in. Hg (0979 hPa)
ob: EPGD 050700Z 18012KT 130V210 9999 -RA SCT007 BKN013 02/00 Q0979
cycle: 7
