Gdansk-Rebiechowo, Poland (EPGD) 54-23N 018-28E 138M
Dec 22, 2011 - 10:00 PM EST / 2011.12.23 0300 UTC
Wind: from the SSW (210 degrees) at 3 MPH (3 KT) (direction variable):0
Visibility: 2 mile(s):0
Sky conditions: overcast
Weather: mist
Temperature: 28 F (-2 C)
Dew Point: 28 F (-2 C)
Relative Humidity: 100%
Pressure (altimeter): 30.09 in. Hg (1019 hPa)
ob: EPGD 230300Z 21003KT 170V250 4000 BR OVC004 M02/M02 Q1019
cycle: 3
