Gdansk-Rebiechowo, Poland (EPGD) 54-23N 018-28E 138M
Jan 24, 2012 - 08:00 AM EST / 2012.01.24 1300 UTC
Wind: from the NW (320 degrees) at 5 MPH (4 KT):0
Visibility: greater than 7 mile(s):0
Sky conditions: mostly cloudy
Temperature: 33 F (1 C)
Windchill: 28 F (-2 C):1
Dew Point: 30 F (-1 C)
Relative Humidity: 86%
Pressure (altimeter): 29.97 in. Hg (1015 hPa)
ob: EPGD 241300Z 32004KT 9999 BKN030 01/M01 Q1015 R11/290095
cycle: 13
