Gdansk-Rebiechowo, Poland (EPGD) 54-23N 018-28E 138M
Feb 18, 2012 - 01:00 PM EST / 2012.02.18 1800 UTC
Wind: from the S (180 degrees) at 8 MPH (7 KT) (direction variable):0
Visibility: greater than 7 mile(s):0
Sky conditions: mostly cloudy
Temperature: 33 F (1 C)
Windchill: 26 F (-3 C):1
Dew Point: 30 F (-1 C)
Relative Humidity: 86%
Pressure (altimeter): 29.80 in. Hg (1009 hPa)
ob: EPGD 181800Z 18007KT 150V210 9999 BKN009 01/M01 Q1009 R11/190095
cycle: 18
