Gdansk-Rebiechowo, Poland (EPGD) 54-23N 018-28E 138M
Dec 21, 2011 - 11:00 PM EST / 2011.12.22 0400 UTC
Wind: Calm:0
Visibility: 1 mile(s):0
Weather: mist
Temperature: 21 F (-6 C)
Dew Point: 19 F (-7 C)
Relative Humidity: 92%
Pressure (altimeter): 30.06 in. Hg (1018 hPa)
ob: EPGD 220400Z 00000KT 2500 BR NSC M06/M07 Q1018
cycle: 4
