Gdansk-Rebiechowo, Poland (EPGD) 54-23N 018-28E 138M
Feb 15, 2012 - 08:00 PM EST / 2012.02.16 0100 UTC
Wind: from the N (360 degrees) at 8 MPH (7 KT) (direction variable):0
Visibility: 4 mile(s):0
Sky conditions: mostly cloudy
Temperature: 28 F (-2 C)
Windchill: 19 F (-7 C):1
Dew Point: 21 F (-6 C)
Relative Humidity: 74%
Pressure (altimeter): 29.71 in. Hg (1006 hPa)
ob: EPGD 160100Z 36007KT 320V030 7000 BKN022 M02/M06 Q1006 R11/490348
cycle: 1
