Gdansk-Rebiechowo, Poland (EPGD) 54-23N 018-28E 138M
Feb 09, 2012 - 04:00 PM EST / 2012.02.09 2100 UTC
Wind: from the SE (130 degrees) at 3 MPH (3 KT):0
Visibility: greater than 7 mile(s):0
Sky conditions: mostly cloudy
Weather: light snow
Temperature: 14 F (-10 C)
Dew Point: 8 F (-13 C)
Relative Humidity: 78%
Pressure (altimeter): 30.68 in. Hg (1039 hPa)
ob: EPGD 092100Z 13003KT 9999 -SN FEW006 BKN017 M10/M13 Q1039 R11/090095
cycle: 21
