Gdansk-Rebiechowo, Poland (EPGD) 54-23N 018-28E 138M
Dec 18, 2011 - 08:00 AM EST / 2011.12.18 1300 UTC
Wind: from the WSW (240 degrees) at 15 MPH (13 KT) gusting to 26 MPH (23 KT):0
Visibility: greater than 7 mile(s):0
Sky conditions: mostly cloudy
Temperature: 35 F (2 C)
Windchill: 24 F (-4 C):1
Dew Point: 30 F (-1 C)
Relative Humidity: 80%
Pressure (altimeter): 29.29 in. Hg (0992 hPa)
ob: EPGD 181300Z 24013G23KT 9999 FEW007 BKN013 02/M01 Q0992
cycle: 13
