Gdansk-Rebiechowo, Poland (EPGD) 54-23N 018-28E 138M
Jan 31, 2012 - 12:00 PM EST / 2012.01.31 1700 UTC
Wind: Calm:0
Visibility: greater than 7 mile(s):0
Temperature: 14 F (-10 C)
Dew Point: 5 F (-15 C)
Relative Humidity: 66%
Pressure (altimeter): 30.68 in. Hg (1039 hPa)
ob: EPGD 311700Z 00000KT CAVOK M10/M15 Q1039 R11/190095
cycle: 17
