Gdansk-Rebiechowo, Poland (EPGD) 54-23N 018-28E 138M
Dec 13, 2011 - 10:00 PM EST / 2011.12.14 0300 UTC
Wind: from the SW (220 degrees) at 10 MPH (9 KT) (direction variable):0
Visibility: greater than 7 mile(s):0
Sky conditions: mostly cloudy
Temperature: 41 F (5 C)
Dew Point: 37 F (3 C)
Relative Humidity: 86%
Pressure (altimeter): 29.56 in. Hg (1001 hPa)
ob: EPGD 140300Z 22009KT 170V260 9999 BKN011 05/03 Q1001
cycle: 3
