Gdansk-Rebiechowo, Poland (EPGD) 54-23N 018-28E 138M
Feb 06, 2012 - 04:00 PM EST / 2012.02.06 2100 UTC
Wind: from the ESE (110 degrees) at 6 MPH (5 KT):0
Visibility: 3 mile(s):0
Sky conditions: mostly cloudy
Weather: light snow
Temperature: 8 F (-13 C)
Windchill: -2 F (-19 C):1
Dew Point: 3 F (-16 C)
Relative Humidity: 78%
Pressure (altimeter): 30.62 in. Hg (1037 hPa)
ob: EPGD 062100Z 11005KT 6000 -SN BKN005 M13/M16 Q1037 R11/490152
cycle: 21
