Gdansk-Rebiechowo, Poland (EPGD) 54-23N 018-28E 138M
Feb 18, 2012 - 11:00 PM EST / 2012.02.19 0400 UTC
Wind: from the SSW (200 degrees) at 10 MPH (9 KT) (direction variable):0
Visibility: 4 mile(s):0
Sky conditions: mostly cloudy
Weather: light rain
Temperature: 37 F (3 C)
Dew Point: 35 F (2 C)
Relative Humidity: 93%
Pressure (altimeter): 29.62 in. Hg (1003 hPa)
ob: EPGD 190400Z 20009KT 170V230 7000 -RA BKN004 03/02 Q1003 R11/290095
cycle: 4
