Gdansk-Rebiechowo, Poland (EPGD) 54-23N 018-28E 138M
Jan 21, 2012 - 03:00 PM EST / 2012.01.21 2000 UTC
Wind: from the SE (140 degrees) at 15 MPH (13 KT) (direction variable):0
Visibility: less than 1 mile:0
Sky conditions: overcast
Weather: snow
Temperature: 32 F (0 C)
Windchill: 21 F (-6 C):1
Dew Point: 32 F (0 C)
Relative Humidity: 100%
Pressure (altimeter): 29.23 in. Hg (0990 hPa)
ob: EPGD 212000Z 14013KT 110V180 0600 R29/1000N SN OVC003 M00/M00 Q0990 R11/590231
cycle: 20
