Gdansk-Rebiechowo, Poland (EPGD) 54-23N 018-28E 138M
Dec 26, 2011 - 10:00 AM EST / 2011.12.26 1500 UTC
Wind: from the W (270 degrees) at 17 MPH (15 KT):0
Visibility: greater than 7 mile(s):0
Sky conditions: mostly cloudy
Weather: light drizzle
Temperature: 48 F (9 C)
Dew Point: 46 F (8 C)
Relative Humidity: 93%
Pressure (altimeter): 30.27 in. Hg (1025 hPa)
ob: EPGD 261500Z 27015KT 9999 -DZ BKN006 09/08 Q1025
cycle: 15
