Gdansk-Rebiechowo, Poland (EPGD) 54-23N 018-28E 138M
Feb 08, 2012 - 11:00 PM EST / 2012.02.09 0400 UTC
Wind: from the ESE (120 degrees) at 12 MPH (10 KT):0
Visibility: less than 1 mile:0
Sky conditions: mostly cloudy
Weather: light snow; mist
Temperature: 19 F (-7 C)
Windchill: 6 F (-14 C):1
Dew Point: 15 F (-9 C)
Relative Humidity: 85%
Pressure (altimeter): 30.42 in. Hg (1030 hPa)
ob: EPGD 090400Z 12010KT 1600 -SN BR BKN009 M07/M09 Q1030 R11/490242
cycle: 4
