Gdansk-Rebiechowo, Poland (EPGD) 54-23N 018-28E 138M
Feb 07, 2012 - 01:00 AM EST / 2012.02.07 0600 UTC
Wind: from the ENE (060 degrees) at 10 MPH (9 KT) (direction variable):0
Visibility: 3 mile(s):0
Sky conditions: mostly cloudy
Weather: light snow; mist
Temperature: 15 F (-9 C)
Windchill: 3 F (-16 C):1
Dew Point: 12 F (-11 C)
Relative Humidity: 85%
Pressure (altimeter): 30.65 in. Hg (1038 hPa)
ob: EPGD 070600Z 06009KT 020V090 5000 -SN BR BKN009 M09/M11 Q1038 R11/490142
cycle: 6
