Gdansk-Rebiechowo, Poland (EPGD) 54-23N 018-28E 138M
Feb 02, 2012 - 08:00 PM EST / 2012.02.03 0100 UTC
Wind: Variable at 1 MPH (1 KT):0
Visibility: 1 mile(s):0
Weather: mist
Temperature: -9 F (-23 C)
Dew Point: -14 F (-26 C)
Relative Humidity: 76%
Pressure (altimeter): 30.53 in. Hg (1034 hPa)
ob: EPGD 030100Z VRB01KT 3000 BR NSC M23/M26 Q1034 R11/190095
cycle: 1
