Gdansk-Rebiechowo, Poland (EPGD) 54-23N 018-28E 138M
Dec 23, 2011 - 06:00 PM EST / 2011.12.23 2300 UTC
Wind: from the WSW (240 degrees) at 7 MPH (6 KT) (direction variable):0
Visibility: 1 mile(s):0
Sky conditions: mostly cloudy
Weather: mist
Temperature: 35 F (2 C)
Windchill: 28 F (-2 C):1
Dew Point: 35 F (2 C)
Relative Humidity: 100%
Pressure (altimeter): 29.83 in. Hg (1010 hPa)
ob: EPGD 232300Z 24006KT 200V260 1700 BR BKN002 02/02 Q1010
cycle: 23
