Gdansk-Rebiechowo, Poland (EPGD) 54-23N 018-28E 138M
Dec 31, 2011 - 04:00 PM EST / 2011.12.31 2100 UTC
Wind: from the WSW (250 degrees) at 7 MPH (6 KT) (direction variable):0
Visibility: 2 mile(s):0
Sky conditions: mostly cloudy
Weather: mist
Temperature: 30 F (-1 C)
Windchill: 23 F (-5 C):1
Dew Point: 28 F (-2 C)
Relative Humidity: 92%
Pressure (altimeter): 29.91 in. Hg (1013 hPa)
ob: EPGD 312100Z 25006KT 220V280 4000 BR BKN003 M01/M02 Q1013
cycle: 21
