Gdansk-Rebiechowo, Poland (EPGD) 54-23N 018-28E 138M
Dec 14, 2011 - 06:00 PM EST / 2011.12.14 2300 UTC
Wind: from the SW (220 degrees) at 10 MPH (9 KT) (direction variable):0
Visibility: greater than 7 mile(s):0
Sky conditions: mostly cloudy
Weather: rain showers; Towering cumulus clouds observed
Temperature: 42 F (6 C)
Dew Point: 39 F (4 C)
Relative Humidity: 86%
Pressure (altimeter): 29.47 in. Hg (0998 hPa)
ob: EPGD 142300Z 22009KT 180V280 9999 SHRA SCT009 BKN011TCU 06/04 Q0998
cycle: 23
