Gdansk-Rebiechowo, Poland (EPGD) 54-23N 018-28E 138M
Jan 27, 2012 - 11:00 AM EST / 2012.01.27 1600 UTC
Wind: from the ESE (110 degrees) at 10 MPH (9 KT):0
Visibility: 4 mile(s):0
Temperature: 12 F (-11 C)
Windchill: 0 F (-18 C):1
Dew Point: 6 F (-14 C)
Relative Humidity: 78%
Pressure (altimeter): 30.50 in. Hg (1033 hPa)
ob: EPGD 271600Z 11009KT 8000 NSC M11/M14 Q1033 R11/190095
cycle: 16
