Gdansk-Rebiechowo, Poland (EPGD) 54-23N 018-28E 138M
Dec 16, 2011 - 06:00 PM EST / 2011.12.16 2300 UTC
Wind: from the SE (130 degrees) at 14 MPH (12 KT):0
Visibility: 2 mile(s):0
Sky conditions: mostly cloudy
Weather: light rain; mist
Temperature: 35 F (2 C)
Windchill: 26 F (-3 C):1
Dew Point: 33 F (1 C)
Relative Humidity: 93%
Pressure (altimeter): 28.67 in. Hg (0971 hPa)
ob: EPGD 162300Z 13012KT 4000 -RA BR BKN002 02/01 Q0971 R11/690095
cycle: 23
