Gdansk-Rebiechowo, Poland (EPGD) 54-23N 018-28E 138M
Jan 13, 2012 - 10:00 PM EST / 2012.01.14 0300 UTC
Wind: from the NW (320 degrees) at 23 MPH (20 KT):0
Visibility: 4 mile(s):0
Sky conditions: mostly cloudy
Weather: light snow; low drifting snow
Temperature: 32 F (0 C)
Windchill: 19 F (-7 C):1
Dew Point: 23 F (-5 C)
Relative Humidity: 69%
Pressure (altimeter): 29.65 in. Hg (1004 hPa)
ob: EPGD 140300Z 32020KT 8000 -SN DRSN FEW009 BKN022 00/M05 Q1004 R11/590195
cycle: 3
