Gdansk-Rebiechowo, Poland (EPGD) 54-23N 018-28E 138M
Dec 27, 2011 - 01:00 PM EST / 2011.12.27 1800 UTC
Wind: from the W (280 degrees) at 17 MPH (15 KT):0
Visibility: greater than 7 mile(s):0
Sky conditions: mostly cloudy
Temperature: 41 F (5 C)
Dew Point: 37 F (3 C)
Relative Humidity: 86%
Pressure (altimeter): 30.33 in. Hg (1027 hPa)
ob: EPGD 271800Z 28015KT 9999 BKN017 05/03 Q1027
cycle: 18
