Gdansk-Rebiechowo, Poland (EPGD) 54-23N 018-28E 138M
Jan 03, 2012 - 07:00 PM EST / 2012.01.04 0000 UTC
Wind: from the SW (220 degrees) at 16 MPH (14 KT) gusting to 31 MPH (27 KT) (direction variable):0
Visibility: greater than 7 mile(s):0
Sky conditions: mostly cloudy
Temperature: 42 F (6 C)
Dew Point: 37 F (3 C)
Relative Humidity: 81%
Pressure (altimeter): 29.38 in. Hg (0995 hPa)
ob: EPGD 040000Z 22014G27KT 180V260 9999 BKN017 06/03 Q0995
cycle: 0
