Gdansk-Rebiechowo, Poland (EPGD) 54-23N 018-28E 138M
Jan 06, 2012 - 04:00 AM EST / 2012.01.06 0900 UTC
Wind: from the N (350 degrees) at 16 MPH (14 KT) gusting to 29 MPH (25 KT):0
Visibility: 4 mile(s):0
Sky conditions: mostly cloudy
Weather: light rain showers
Temperature: 39 F (4 C)
Dew Point: 35 F (2 C)
Relative Humidity: 86%
Pressure (altimeter): 29.29 in. Hg (0992 hPa)
ob: EPGD 060900Z 35014G25KT 8000 -SHRA BKN009 04/02 Q0992
cycle: 9
