Gdansk-Rebiechowo, Poland (EPGD) 54-23N 018-28E 138M
Dec 14, 2011 - 07:00 AM EST / 2011.12.14 1200 UTC
Wind: from the S (170 degrees) at 6 MPH (5 KT) (direction variable):0
Visibility: greater than 7 mile(s):0
Temperature: 44 F (7 C)
Dew Point: 35 F (2 C)
Relative Humidity: 70%
Pressure (altimeter): 29.59 in. Hg (1002 hPa)
ob: EPGD 141200Z 17005KT 130V210 CAVOK 07/02 Q1002
cycle: 12
