Gdansk-Rebiechowo, Poland (EPGD) 54-23N 018-28E 138M
Dec 22, 2011 - 05:00 AM EST / 2011.12.22 1000 UTC
Wind: Variable at 2 MPH (2 KT):0
Visibility: 3 mile(s):0
Weather: mist
Temperature: 30 F (-1 C)
Dew Point: 24 F (-4 C)
Relative Humidity: 80%
Pressure (altimeter): 30.12 in. Hg (1020 hPa)
ob: EPGD 221000Z VRB02KT 5000 BR NSC M01/M04 Q1020
cycle: 10
