Gdansk-Rebiechowo, Poland (EPGD) 54-23N 018-28E 138M
Dec 26, 2011 - 04:00 PM EST / 2011.12.26 2100 UTC
Wind: from the W (260 degrees) at 20 MPH (17 KT):0
Visibility: greater than 7 mile(s):0
Sky conditions: mostly cloudy
Temperature: 50 F (10 C)
Dew Point: 44 F (7 C)
Relative Humidity: 81%
Pressure (altimeter): 30.24 in. Hg (1024 hPa)
ob: EPGD 262100Z 26017KT 9999 BKN017 10/07 Q1024
cycle: 21
