Gdansk-Rebiechowo, Poland (EPGD) 54-23N 018-28E 138M
Jan 19, 2012 - 06:00 AM EST / 2012.01.19 1100 UTC
Wind: from the WSW (250 degrees) at 9 MPH (8 KT) (direction variable):0
Visibility: greater than 7 mile(s):0
Sky conditions: mostly cloudy
Temperature: 37 F (3 C)
Dew Point: 32 F (0 C)
Relative Humidity: 80%
Pressure (altimeter): 29.71 in. Hg (1006 hPa)
ob: EPGD 191100Z 25008KT 220V280 9999 BKN015 03/00 Q1006 R11/290095
cycle: 11
