Gdansk-Rebiechowo, Poland (EPGD) 54-23N 018-28E 138M
Jan 08, 2012 - 03:00 PM EST / 2012.01.08 2000 UTC
Wind: from the WNW (300 degrees) at 10 MPH (9 KT):0
Visibility: greater than 7 mile(s):0
Sky conditions: mostly cloudy
Temperature: 35 F (2 C)
Windchill: 26 F (-3 C):1
Dew Point: 33 F (1 C)
Relative Humidity: 93%
Pressure (altimeter): 29.85 in. Hg (1011 hPa)
ob: EPGD 082000Z 30009KT 9999 BKN003 02/01 Q1011
cycle: 20
