Gdansk-Rebiechowo, Poland (EPGD) 54-23N 018-28E 138M
Jan 10, 2012 - 12:00 PM EST / 2012.01.10 1700 UTC
Wind: from the W (260 degrees) at 5 MPH (4 KT) (direction variable):0
Visibility: 1 mile(s):0
Sky conditions: mostly cloudy
Weather: mist
Temperature: 33 F (1 C)
Windchill: 28 F (-2 C):1
Dew Point: 32 F (0 C)
Relative Humidity: 93%
Pressure (altimeter): 30.24 in. Hg (1024 hPa)
ob: EPGD 101700Z 26004KT 220V300 2500 BR BKN006 01/00 Q1024 R11/290060
cycle: 17
