Gdansk-Rebiechowo, Poland (EPGD) 54-23N 018-28E 138M
Dec 24, 2011 - 06:00 PM EST / 2011.12.24 2300 UTC
Wind: from the WNW (290 degrees) at 16 MPH (14 KT):0
Visibility: greater than 7 mile(s):0
Sky conditions: mostly cloudy
Temperature: 37 F (3 C)
Dew Point: 33 F (1 C)
Relative Humidity: 86%
Pressure (altimeter): 30.00 in. Hg (1016 hPa)
ob: EPGD 242300Z 29014KT 9999 BKN013 03/01 Q1016
cycle: 23
