Gdansk-Rebiechowo, Poland (EPGD) 54-23N 018-28E 138M
Dec 17, 2011 - 04:00 AM EST / 2011.12.17 0900 UTC
Wind: from the SW (220 degrees) at 7 MPH (6 KT) (direction variable):0
Visibility: greater than 7 mile(s):0
Sky conditions: mostly cloudy
Temperature: 33 F (1 C)
Windchill: 26 F (-3 C):1
Dew Point: 30 F (-1 C)
Relative Humidity: 86%
Pressure (altimeter): 28.76 in. Hg (0974 hPa)
ob: EPGD 170900Z 22006KT 170V270 9999 BKN011 01/M01 Q0974 R11/290064
cycle: 9
