Gdansk-Rebiechowo, Poland (EPGD) 54-23N 018-28E 138M
Dec 19, 2011 - 06:00 AM EST / 2011.12.19 1100 UTC
Wind: from the SW (220 degrees) at 15 MPH (13 KT) gusting to 29 MPH (25 KT) (direction variable):0
Visibility: greater than 7 mile(s):0
Sky conditions: mostly cloudy
Temperature: 37 F (3 C)
Dew Point: 30 F (-1 C)
Relative Humidity: 74%
Pressure (altimeter): 29.74 in. Hg (1007 hPa)
ob: EPGD 191100Z 22013G25KT 190V260 9999 BKN017 03/M01 Q1007 R11/290062
cycle: 11
