Gdansk-Rebiechowo, Poland (EPGD) 54-23N 018-28E 138M
Jan 18, 2012 - 02:00 PM EST / 2012.01.18 1900 UTC
Wind: from the SW (220 degrees) at 8 MPH (7 KT) (direction variable):0
Visibility: greater than 7 mile(s):0
Sky conditions: mostly cloudy
Temperature: 32 F (0 C)
Windchill: 24 F (-4 C):1
Dew Point: 28 F (-2 C)
Relative Humidity: 86%
Pressure (altimeter): 29.97 in. Hg (1015 hPa)
ob: EPGD 181900Z 22007KT 180V250 9999 BKN011 00/M02 Q1015
cycle: 19
