Gdansk-Rebiechowo, Poland (EPGD) 54-23N 018-28E 138M
Feb 14, 2012 - 09:00 AM EST / 2012.02.14 1400 UTC
Wind: from the SW (220 degrees) at 8 MPH (7 KT) (direction variable):0
Visibility: greater than 7 mile(s):0
Sky conditions: mostly clear
Temperature: 30 F (-1 C)
Windchill: 23 F (-5 C):1
Dew Point: 21 F (-6 C)
Relative Humidity: 68%
Pressure (altimeter): 29.80 in. Hg (1009 hPa)
ob: EPGD 141400Z 22007KT 190V260 9999 FEW021 M01/M06 Q1009
cycle: 14
