Gdansk-Rebiechowo, Poland (EPGD) 54-23N 018-28E 138M
Dec 25, 2011 - 05:00 PM EST / 2011.12.25 2200 UTC
Wind: from the SW (230 degrees) at 14 MPH (12 KT) (direction variable):0
Visibility: greater than 7 mile(s):0
Sky conditions: mostly cloudy
Temperature: 42 F (6 C)
Dew Point: 39 F (4 C)
Relative Humidity: 86%
Pressure (altimeter): 30.12 in. Hg (1020 hPa)
ob: EPGD 252200Z 23012KT 190V260 9999 BKN006 06/04 Q1020
cycle: 22
