Gdansk-Rebiechowo, Poland (EPGD) 54-23N 018-28E 138M
Dec 28, 2011 - 03:00 AM EST / 2011.12.28 0800 UTC
Wind: from the WSW (240 degrees) at 9 MPH (8 KT) (direction variable):0
Visibility: 4 mile(s):0
Sky conditions: mostly cloudy
Temperature: 35 F (2 C)
Windchill: 28 F (-2 C):1
Dew Point: 33 F (1 C)
Relative Humidity: 93%
Pressure (altimeter): 30.33 in. Hg (1027 hPa)
ob: EPGD 280800Z 24008KT 210V270 8000 BKN004 02/01 Q1027
cycle: 8
