Gdansk-Rebiechowo, Poland (EPGD) 54-23N 018-28E 138M
Feb 04, 2012 - 12:00 PM EST / 2012.02.04 1700 UTC
Wind: from the ESE (110 degrees) at 8 MPH (7 KT):0
Visibility: 1 mile(s):0
Sky conditions: mostly cloudy
Weather: light snow; mist
Temperature: 5 F (-15 C)
Windchill: -7 F (-22 C):2
Dew Point: 1 F (-17 C)
Relative Humidity: 84%
Pressure (altimeter): 30.59 in. Hg (1036 hPa)
ob: EPGD 041700Z 11007KT 2000 -SN BR FEW009 BKN012 M15/M17 Q1036 R11/490136
cycle: 17
