Gdansk-Rebiechowo, Poland (EPGD) 54-23N 018-28E 138M
Jan 22, 2012 - 01:00 AM EST / 2012.01.22 0600 UTC
Wind: from the SSW (210 degrees) at 6 MPH (5 KT) (direction variable):0
Visibility: greater than 7 mile(s):0
Sky conditions: mostly cloudy
Temperature: 33 F (1 C)
Windchill: 26 F (-3 C):1
Dew Point: 33 F (1 C)
Relative Humidity: 100%
Pressure (altimeter): 29.21 in. Hg (0989 hPa)
ob: EPGD 220600Z 21005KT 170V240 9999 SCT005 BKN009 01/01 Q0989 R11/290066
cycle: 6
