Gdansk-Rebiechowo, Poland (EPGD) 54-23N 018-28E 138M
Jan 02, 2012 - 11:00 PM EST / 2012.01.03 0400 UTC
Wind: from the W (260 degrees) at 9 MPH (8 KT):0
Visibility: greater than 7 mile(s):0
Sky conditions: partly cloudy
Temperature: 41 F (5 C)
Dew Point: 35 F (2 C)
Relative Humidity: 80%
Pressure (altimeter): 29.85 in. Hg (1011 hPa)
ob: EPGD 030400Z 26008KT 9999 SCT029 05/02 Q1011
cycle: 4
