Gdansk-Rebiechowo, Poland (EPGD) 54-23N 018-28E 138M
Dec 16, 2011 - 09:00 PM EST / 2011.12.17 0200 UTC
Wind: from the S (190 degrees) at 12 MPH (10 KT) (direction variable):0
Visibility: 3 mile(s):0
Sky conditions: mostly cloudy
Weather: mist
Temperature: 39 F (4 C)
Dew Point: 32 F (0 C)
Relative Humidity: 75%
Pressure (altimeter): 28.67 in. Hg (0971 hPa)
ob: EPGD 170200Z 19010KT 150V220 5000 BR SCT015 BKN040 04/00 Q0971 R11/290064
cycle: 2
