Gdansk-Rebiechowo, Poland (EPGD) 54-23N 018-28E 138M
Dec 21, 2011 - 01:00 PM EST / 2011.12.21 1800 UTC
Wind: Calm:0
Visibility: 1 mile(s):0
Weather: mist
Temperature: 21 F (-6 C)
Dew Point: 19 F (-7 C)
Relative Humidity: 92%
Pressure (altimeter): 29.91 in. Hg (1013 hPa)
ob: EPGD 211800Z 00000KT 2200 BR NSC M06/M07 Q1013 R11/190095
cycle: 18
