Gdansk-Rebiechowo, Poland (EPGD) 54-23N 018-28E 138M
Dec 27, 2011 - 04:00 AM EST / 2011.12.27 0900 UTC
Wind: from the W (270 degrees) at 20 MPH (17 KT) gusting to 39 MPH (34 KT):0
Visibility: greater than 7 mile(s):0
Sky conditions: mostly cloudy
Weather: light drizzle
Temperature: 50 F (10 C)
Dew Point: 44 F (7 C)
Relative Humidity: 81%
Pressure (altimeter): 30.18 in. Hg (1022 hPa)
ob: EPGD 270900Z 27017G34KT 9999 -DZ FEW009 BKN014 10/07 Q1022
cycle: 9
