Gdansk-Rebiechowo, Poland (EPGD) 54-23N 018-28E 138M
Jan 31, 2012 - 11:00 AM EST / 2012.01.31 1600 UTC
Wind: from the ENE (060 degrees) at 2 MPH (2 KT):0
Visibility: greater than 7 mile(s):0
Temperature: 17 F (-8 C)
Dew Point: 8 F (-13 C)
Relative Humidity: 67%
Pressure (altimeter): 30.71 in. Hg (1040 hPa)
ob: EPGD 311600Z 06002KT CAVOK M08/M13 Q1040 R11/190095
cycle: 16
