Gdansk-Rebiechowo, Poland (EPGD) 54-23N 018-28E 138M
Dec 16, 2011 - 08:00 PM EST / 2011.12.17 0100 UTC
Wind: from the SE (140 degrees) at 10 MPH (9 KT) (direction variable):0
Visibility: 2 mile(s):0
Sky conditions: mostly cloudy
Weather: mist
Temperature: 39 F (4 C)
Dew Point: 37 F (3 C)
Relative Humidity: 93%
Pressure (altimeter): 28.64 in. Hg (0970 hPa)
ob: EPGD 170100Z 14009KT 110V180 4000 BR BKN004 04/03 Q0970 R11/290064
cycle: 1
