Gdansk-Rebiechowo, Poland (EPGD) 54-23N 018-28E 138M
Jan 15, 2012 - 08:00 AM EST / 2012.01.15 1300 UTC
Wind: from the N (350 degrees) at 10 MPH (9 KT) (direction variable):0
Visibility: greater than 7 mile(s):0
Sky conditions: mostly cloudy
Temperature: 32 F (0 C)
Windchill: 23 F (-5 C):1
Dew Point: 26 F (-3 C)
Relative Humidity: 80%
Pressure (altimeter): 30.06 in. Hg (1018 hPa)
ob: EPGD 151300Z 35009KT 320V020 9999 FEW013 BKN017 00/M03 Q1018 R11/590142
cycle: 13
