Gdansk-Rebiechowo, Poland (EPGD) 54-23N 018-28E 138M
Dec 14, 2011 - 10:00 PM EST / 2011.12.15 0300 UTC
Wind: from the SW (230 degrees) at 9 MPH (8 KT) (direction variable):0
Visibility: greater than 7 mile(s):0
Sky conditions: mostly cloudy
Weather: light rain showers
Temperature: 39 F (4 C)
Dew Point: 37 F (3 C)
Relative Humidity: 93%
Pressure (altimeter): 29.56 in. Hg (1001 hPa)
ob: EPGD 150300Z 23008KT 190V280 9999 -SHRA SCT009 BKN013 04/03 Q1001
cycle: 3
