Gdansk-Rebiechowo, Poland (EPGD) 54-23N 018-28E 138M
Dec 23, 2011 - 12:00 PM EST / 2011.12.23 1700 UTC
Wind: from the SSW (210 degrees) at 6 MPH (5 KT):0
Visibility: 1 mile(s):0
Sky conditions: mostly cloudy
Weather: mist
Temperature: 33 F (1 C)
Windchill: 26 F (-3 C):1
Dew Point: 33 F (1 C)
Relative Humidity: 100%
Pressure (altimeter): 29.91 in. Hg (1013 hPa)
ob: EPGD 231700Z 21005KT 3000 BR BKN005 01/01 Q1013
cycle: 17
