Gdansk-Rebiechowo, Poland (EPGD) 54-23N 018-28E 138M
Jan 29, 2012 - 11:00 PM EST / 2012.01.30 0400 UTC
Wind: from the E (100 degrees) at 7 MPH (6 KT):0
Visibility: greater than 7 mile(s):0
Temperature: 5 F (-15 C)
Windchill: -7 F (-22 C):2
Dew Point: 0 F (-18 C)
Relative Humidity: 77%
Pressure (altimeter): 30.77 in. Hg (1042 hPa)
ob: EPGD 300400Z 10006KT CAVOK M15/M18 Q1042 R11/190095
cycle: 4
