Gdansk-Rebiechowo, Poland (EPGD) 54-23N 018-28E 138M
Dec 26, 2011 - 02:00 AM EST / 2011.12.26 0700 UTC
Wind: from the W (270 degrees) at 16 MPH (14 KT):0
Visibility: 3 mile(s):0
Sky conditions: mostly cloudy
Weather: mist
Temperature: 46 F (8 C)
Dew Point: 44 F (7 C)
Relative Humidity: 93%
Pressure (altimeter): 30.12 in. Hg (1020 hPa)
ob: EPGD 260700Z 27014KT 5000 BR BKN009 08/07 Q1020
cycle: 7
