Gdansk-Rebiechowo, Poland (EPGD) 54-23N 018-28E 138M
Jan 21, 2012 - 07:00 PM EST / 2012.01.22 0000 UTC
Wind: from the SSW (200 degrees) at 6 MPH (5 KT) (direction variable):0
Visibility: 4 mile(s):0
Sky conditions: mostly cloudy
Temperature: 32 F (0 C)
Windchill: 26 F (-3 C):1
Dew Point: 32 F (0 C)
Relative Humidity: 100%
Pressure (altimeter): 29.18 in. Hg (0988 hPa)
ob: EPGD 220000Z 20005KT 150V240 8000 BKN006 00/M00 Q0988 R11/590342
cycle: 0
