Gdansk-Rebiechowo, Poland (EPGD) 54-23N 018-28E 138M
Dec 17, 2011 - 07:00 PM EST / 2011.12.18 0000 UTC
Wind: from the W (270 degrees) at 17 MPH (15 KT):0
Visibility: 4 mile(s):0
Sky conditions: mostly cloudy
Weather: light rain
Temperature: 35 F (2 C)
Windchill: 24 F (-4 C):1
Dew Point: 32 F (0 C)
Relative Humidity: 86%
Pressure (altimeter): 29.15 in. Hg (0987 hPa)
ob: EPGD 180000Z 27015KT 7000 -RA SCT005 BKN011 02/00 Q0987 R11/290064
cycle: 0
