Gdansk-Rebiechowo, Poland (EPGD) 54-23N 018-28E 138M
Jan 26, 2012 - 12:00 PM EST / 2012.01.26 1700 UTC
Wind: from the ESE (110 degrees) at 10 MPH (9 KT):0
Visibility: 3 mile(s):0
Sky conditions: mostly cloudy
Weather: light snow
Temperature: 24 F (-4 C)
Windchill: 14 F (-10 C):1
Dew Point: 23 F (-5 C)
Relative Humidity: 92%
Pressure (altimeter): 30.42 in. Hg (1030 hPa)
ob: EPGD 261700Z 11009KT 5000 -SN BKN007 M04/M05 Q1030 R11/290095
cycle: 17
