Gdansk-Rebiechowo, Poland (EPGD) 54-23N 018-28E 138M
Jan 19, 2012 - 05:00 AM EST / 2012.01.19 1000 UTC
Wind: from the W (260 degrees) at 9 MPH (8 KT) (direction variable):0
Visibility: greater than 7 mile(s):0
Sky conditions: mostly cloudy
Temperature: 37 F (3 C)
Dew Point: 33 F (1 C)
Relative Humidity: 86%
Pressure (altimeter): 29.74 in. Hg (1007 hPa)
ob: EPGD 191000Z 26008KT 230V290 9999 BKN011 03/01 Q1007 R11/290095
cycle: 10
