Gdansk-Rebiechowo, Poland (EPGD) 54-23N 018-28E 138M
Feb 19, 2012 - 04:00 AM EST / 2012.02.19 0900 UTC
Wind: from the SSW (200 degrees) at 8 MPH (7 KT) (direction variable):0
Visibility: 3 mile(s):0
Sky conditions: mostly cloudy
Weather: light rain
Temperature: 37 F (3 C)
Dew Point: 35 F (2 C)
Relative Humidity: 93%
Pressure (altimeter): 29.62 in. Hg (1003 hPa)
ob: EPGD 190900Z 20007KT 160V230 6000 -RA BKN004 03/02 Q1003 R11/290095
cycle: 9
