Gdansk-Rebiechowo, Poland (EPGD) 54-23N 018-28E 138M
Dec 26, 2011 - 06:00 AM EST / 2011.12.26 1100 UTC
Wind: from the W (270 degrees) at 20 MPH (17 KT) gusting to 31 MPH (27 KT):0
Visibility: greater than 7 mile(s):0
Sky conditions: mostly cloudy
Temperature: 48 F (9 C)
Dew Point: 44 F (7 C)
Relative Humidity: 87%
Pressure (altimeter): 30.21 in. Hg (1023 hPa)
ob: EPGD 261100Z 27017G27KT 9999 BKN009 09/07 Q1023
cycle: 11
