Gdansk-Rebiechowo, Poland (EPGD) 54-23N 018-28E 138M
Feb 14, 2012 - 12:00 AM EST / 2012.02.14 0500 UTC
Wind: Variable at 1 MPH (1 KT):0
Visibility: greater than 7 mile(s):0
Temperature: 24 F (-4 C)
Dew Point: 21 F (-6 C)
Relative Humidity: 85%
Pressure (altimeter): 29.94 in. Hg (1014 hPa)
ob: EPGD 140500Z VRB01KT CAVOK M04/M06 Q1014 R11/190095
cycle: 5
