Gdansk-Rebiechowo, Poland (EPGD) 54-23N 018-28E 138M
Feb 06, 2012 - 12:00 AM EST / 2012.02.06 0500 UTC
Wind: Variable at 2 MPH (2 KT):0
Visibility: 1 mile(s):0
Sky conditions: mostly cloudy
Weather: light snow; mist
Temperature: -11 F (-24 C)
Dew Point: -16 F (-27 C)
Relative Humidity: 76%
Pressure (altimeter): 30.68 in. Hg (1039 hPa)
ob: EPGD 060500Z VRB02KT 2500 -SN BR BKN004 M24/M27 Q1039 R11/490152
cycle: 5
