Gdansk-Rebiechowo, Poland (EPGD) 54-23N 018-28E 138M
Jan 03, 2012 - 04:00 PM EST / 2012.01.03 2100 UTC
Wind: from the SSW (200 degrees) at 16 MPH (14 KT) gusting to 30 MPH (26 KT) (direction variable):0
Visibility: 4 mile(s):0
Sky conditions: mostly cloudy
Weather: rain
Temperature: 39 F (4 C)
Dew Point: 35 F (2 C)
Relative Humidity: 86%
Pressure (altimeter): 29.44 in. Hg (0997 hPa)
ob: EPGD 032100Z 20014G26KT 160V230 7000 RA FEW006 BKN011 04/02 Q0997
cycle: 21
