Gdansk-Rebiechowo, Poland (EPGD) 54-23N 018-28E 138M
Jan 29, 2012 - 05:00 AM EST / 2012.01.29 1000 UTC
Wind: from the ESE (120 degrees) at 9 MPH (8 KT):0
Visibility: greater than 7 mile(s):0
Temperature: 12 F (-11 C)
Windchill: 0 F (-18 C):1
Dew Point: 1 F (-17 C)
Relative Humidity: 61%
Pressure (altimeter): 30.77 in. Hg (1042 hPa)
ob: EPGD 291000Z 12008KT CAVOK M11/M17 Q1042 R11/190095
cycle: 10
