Gdansk-Rebiechowo, Poland (EPGD) 54-23N 018-28E 138M
Jan 15, 2012 - 02:00 AM EST / 2012.01.15 0700 UTC
Wind: from the N (350 degrees) at 14 MPH (12 KT):0
Visibility: less than 1 mile:0
Sky conditions: mostly cloudy
Weather: snow showers; Cumulonimbus clouds observed
Temperature: 30 F (-1 C)
Windchill: 19 F (-7 C):1
Dew Point: 28 F (-2 C)
Relative Humidity: 92%
Pressure (altimeter): 30.00 in. Hg (1016 hPa)
ob: EPGD 150700Z 35012KT 1200 SHSN SCT003 BKN008CB M01/M02 Q1016 R11/590526
cycle: 7
