Gdansk-Rebiechowo, Poland (EPGD) 54-23N 018-28E 138M
Feb 02, 2012 - 03:00 PM EST / 2012.02.02 2000 UTC
Wind: from the WSW (240 degrees) at 2 MPH (2 KT):0
Visibility: 1 mile(s):0
Weather: mist
Temperature: -5 F (-21 C)
Dew Point: -11 F (-24 C)
Relative Humidity: 76%
Pressure (altimeter): 30.53 in. Hg (1034 hPa)
ob: EPGD 022000Z 24002KT 2500 BR NSC M21/M24 Q1034 R11/190095
cycle: 20
