Gdansk-Rebiechowo, Poland (EPGD) 54-23N 018-28E 138M
Jan 14, 2012 - 02:00 PM EST / 2012.01.14 1900 UTC
Wind: from the NNW (340 degrees) at 21 MPH (18 KT) gusting to 35 MPH (30 KT):0
Visibility: greater than 7 mile(s):0
Sky conditions: partly cloudy
Temperature: 32 F (0 C)
Windchill: 19 F (-7 C):1
Dew Point: 21 F (-6 C)
Relative Humidity: 63%
Pressure (altimeter): 29.85 in. Hg (1011 hPa)
ob: EPGD 141900Z 34018G30KT 9999 FEW009 SCT030 00/M06 Q1011 R11/590234
cycle: 19
