Gdansk-Rebiechowo, Poland (EPGD) 54-23N 018-28E 138M
Feb 15, 2012 - 06:00 PM EST / 2012.02.15 2300 UTC
Wind: from the N (010 degrees) at 7 MPH (6 KT) (direction variable):0
Visibility: 3 mile(s):0
Sky conditions: mostly cloudy
Temperature: 28 F (-2 C)
Windchill: 21 F (-6 C):1
Dew Point: 21 F (-6 C)
Relative Humidity: 74%
Pressure (altimeter): 29.65 in. Hg (1004 hPa)
ob: EPGD 152300Z 01006KT 330V040 6000 BKN020 M02/M06 Q1004 R11/490348
cycle: 23
