Gdansk-Rebiechowo, Poland (EPGD) 54-23N 018-28E 138M
Feb 15, 2012 - 12:00 PM EST / 2012.02.15 1700 UTC
Wind: from the NNE (020 degrees) at 10 MPH (9 KT):0
Visibility: 1 mile(s):0
Sky conditions: mostly cloudy
Weather: snow; mist
Temperature: 26 F (-3 C)
Windchill: 15 F (-9 C):1
Dew Point: 23 F (-5 C)
Relative Humidity: 86%
Pressure (altimeter): 29.35 in. Hg (0994 hPa)
ob: EPGD 151700Z 02009KT 2200 SN BR SCT005 BKN009 M03/M05 Q0994 R11/490237
cycle: 17
