Gdansk-Rebiechowo, Poland (EPGD) 54-23N 018-28E 138M
Feb 01, 2012 - 03:00 PM EST / 2012.02.01 2000 UTC
Wind: Calm:0
Visibility: 4 mile(s):0
Sky conditions: mostly cloudy
Weather: light snow
Temperature: 10 F (-12 C)
Dew Point: 3 F (-16 C)
Relative Humidity: 72%
Pressure (altimeter): 30.68 in. Hg (1039 hPa)
ob: EPGD 012000Z 00000KT 7000 -SN SCT011 BKN023 M12/M16 Q1039 R11/190095
cycle: 20
