Gdansk-Rebiechowo, Poland (EPGD) 54-23N 018-28E 138M
Jan 08, 2012 - 05:00 AM EST / 2012.01.08 1000 UTC
Wind: from the WSW (240 degrees) at 6 MPH (5 KT) (direction variable):0
Visibility: greater than 7 mile(s):0
Sky conditions: mostly cloudy
Weather: light rain
Temperature: 39 F (4 C)
Dew Point: 37 F (3 C)
Relative Humidity: 93%
Pressure (altimeter): 29.68 in. Hg (1005 hPa)
ob: EPGD 081000Z 24005KT 210V290 9999 -RA BKN013 04/03 Q1005
cycle: 10
