Gdansk-Rebiechowo, Poland (EPGD) 54-23N 018-28E 138M
Jan 28, 2012 - 02:00 PM EST / 2012.01.28 1900 UTC
Wind: from the ESE (120 degrees) at 8 MPH (7 KT):0
Visibility: greater than 7 mile(s):0
Temperature: 10 F (-12 C)
Windchill: -2 F (-19 C):1
Dew Point: 5 F (-15 C)
Relative Humidity: 78%
Pressure (altimeter): 30.59 in. Hg (1036 hPa)
ob: EPGD 281900Z 12007KT CAVOK M12/M15 Q1036 R11/190095
cycle: 19
