Gdansk-Rebiechowo, Poland (EPGD) 54-23N 018-28E 138M
Feb 14, 2012 - 08:00 AM EST / 2012.02.14 1300 UTC
Wind: from the SW (220 degrees) at 7 MPH (6 KT) (direction variable):0
Visibility: greater than 7 mile(s):0
Sky conditions: mostly clear
Temperature: 30 F (-1 C)
Windchill: 23 F (-5 C):1
Dew Point: 21 F (-6 C)
Relative Humidity: 68%
Pressure (altimeter): 29.83 in. Hg (1010 hPa)
ob: EPGD 141300Z 22006KT 180V250 9999 FEW021 M01/M06 Q1010
cycle: 13
