Gdansk-Rebiechowo, Poland (EPGD) 54-23N 018-28E 138M
Jan 21, 2012 - 05:00 PM EST / 2012.01.21 2200 UTC
Wind: from the SSE (160 degrees) at 9 MPH (8 KT) (direction variable):0
Visibility: 1 mile(s):0
Sky conditions: overcast
Weather: light snow
Temperature: 32 F (0 C)
Windchill: 24 F (-4 C):1
Dew Point: 30 F (-1 C)
Relative Humidity: 92%
Pressure (altimeter): 29.18 in. Hg (0988 hPa)
ob: EPGD 212200Z 16008KT 110V190 2200 -SN OVC004 M00/M01 Q0988 R11/590314
cycle: 22
