Gdansk-Rebiechowo, Poland (EPGD) 54-23N 018-28E 138M
Jan 13, 2012 - 11:00 PM EST / 2012.01.14 0400 UTC
Wind: from the NW (320 degrees) at 25 MPH (22 KT):0
Visibility: 3 mile(s):0
Sky conditions: mostly cloudy
Weather: snow; low drifting snow
Temperature: 30 F (-1 C)
Windchill: 15 F (-9 C):1
Dew Point: 24 F (-4 C)
Relative Humidity: 80%
Pressure (altimeter): 29.68 in. Hg (1005 hPa)
ob: EPGD 140400Z 32022KT 6000 SN DRSN FEW009 BKN022 M01/M04 Q1005 R11/590195
cycle: 4
