Gdansk-Rebiechowo, Poland (EPGD) 54-23N 018-28E 138M
Jan 05, 2012 - 06:00 AM EST / 2012.01.05 1100 UTC
Wind: from the SSW (200 degrees) at 12 MPH (10 KT) (direction variable):0
Visibility: 4 mile(s):0
Sky conditions: mostly cloudy
Weather: light snow, rain
Temperature: 35 F (2 C)
Windchill: 26 F (-3 C):1
Dew Point: 33 F (1 C)
Relative Humidity: 93%
Pressure (altimeter): 28.70 in. Hg (0972 hPa)
ob: EPGD 051100Z 20010KT 160V230 7000 -SNRA BKN008 02/01 Q0972
cycle: 11
