Gdansk-Rebiechowo, Poland (EPGD) 54-23N 018-28E 138M
Jan 09, 2012 - 02:00 PM EST / 2012.01.09 1900 UTC
Wind: Variable at 2 MPH (2 KT):0
Visibility: greater than 7 mile(s):0
Sky conditions: mostly cloudy
Temperature: 30 F (-1 C)
Dew Point: 24 F (-4 C)
Relative Humidity: 80%
Pressure (altimeter): 30.09 in. Hg (1019 hPa)
ob: EPGD 091900Z VRB02KT 9999 BKN033 M01/M04 Q1019 R11/290095
cycle: 19
