Gdansk-Rebiechowo, Poland (EPGD) 54-23N 018-28E 138M
Feb 19, 2012 - 11:00 PM EST / 2012.02.20 0400 UTC
Wind: from the W (260 degrees) at 16 MPH (14 KT):0
Visibility: greater than 7 mile(s):0
Sky conditions: mostly cloudy
Temperature: 32 F (0 C)
Windchill: 21 F (-6 C):1
Dew Point: 26 F (-3 C)
Relative Humidity: 80%
Pressure (altimeter): 30.03 in. Hg (1017 hPa)
ob: EPGD 200400Z 26014KT 9999 BKN021 00/M03 Q1017 R11/290095
cycle: 4
