Gdansk-Rebiechowo, Poland (EPGD) 54-23N 018-28E 138M
Feb 19, 2012 - 01:00 PM EST / 2012.02.19 1800 UTC
Wind: from the SW (230 degrees) at 9 MPH (8 KT):0
Visibility: greater than 7 mile(s):0
Sky conditions: mostly cloudy
Temperature: 35 F (2 C)
Windchill: 28 F (-2 C):1
Dew Point: 30 F (-1 C)
Relative Humidity: 80%
Pressure (altimeter): 29.80 in. Hg (1009 hPa)
ob: EPGD 191800Z 23008KT 9999 FEW015 BKN020 02/M01 Q1009 R11/290095
cycle: 18
