Gdansk-Rebiechowo, Poland (EPGD) 54-23N 018-28E 138M
Dec 28, 2011 - 02:00 PM EST / 2011.12.28 1900 UTC
Wind: from the SSW (210 degrees) at 12 MPH (10 KT) gusting to 23 MPH (20 KT) (direction variable):0
Visibility: greater than 7 mile(s):0
Sky conditions: mostly cloudy
Temperature: 42 F (6 C)
Dew Point: 35 F (2 C)
Relative Humidity: 75%
Pressure (altimeter): 29.94 in. Hg (1014 hPa)
ob: EPGD 281900Z 21010G20KT 170V260 9999 BKN017 06/02 Q1014
cycle: 19
