Gdansk-Rebiechowo, Poland (EPGD) 54-23N 018-28E 138M
Dec 14, 2011 - 06:00 AM EST / 2011.12.14 1100 UTC
Wind: from the SSW (210 degrees) at 13 MPH (11 KT) (direction variable):0
Visibility: greater than 7 mile(s):0
Temperature: 44 F (7 C)
Dew Point: 35 F (2 C)
Relative Humidity: 70%
Pressure (altimeter): 29.62 in. Hg (1003 hPa)
ob: EPGD 141100Z 21011KT 160V240 CAVOK 07/02 Q1003
cycle: 11
