Gdansk-Rebiechowo, Poland (EPGD) 54-23N 018-28E 138M
Jan 02, 2012 - 10:00 PM EST / 2012.01.03 0300 UTC
Wind: from the WSW (250 degrees) at 9 MPH (8 KT) (direction variable):0
Visibility: greater than 7 mile(s):0
Sky conditions: mostly clear
Temperature: 41 F (5 C)
Dew Point: 37 F (3 C)
Relative Humidity: 86%
Pressure (altimeter): 29.85 in. Hg (1011 hPa)
ob: EPGD 030300Z 25008KT 220V280 9999 FEW013 05/03 Q1011
cycle: 3
