Gdansk-Rebiechowo, Poland (EPGD) 54-23N 018-28E 138M
Dec 24, 2011 - 02:00 AM EST / 2011.12.24 0700 UTC
Wind: from the SW (230 degrees) at 5 MPH (4 KT) (direction variable):0
Visibility: 3 mile(s):0
Sky conditions: mostly cloudy
Weather: light rain
Temperature: 39 F (4 C)
Dew Point: 39 F (4 C)
Relative Humidity: 100%
Pressure (altimeter): 29.74 in. Hg (1007 hPa)
ob: EPGD 240700Z 23004KT 190V270 6000 -RA BKN004 04/04 Q1007
cycle: 7
