Gdansk-Rebiechowo, Poland (EPGD) 54-23N 018-28E 138M
Jan 06, 2012 - 01:00 AM EST / 2012.01.06 0600 UTC
Wind: from the NNW (340 degrees) at 10 MPH (9 KT):0
Visibility: greater than 7 mile(s):0
Sky conditions: mostly cloudy
Temperature: 39 F (4 C)
Dew Point: 35 F (2 C)
Relative Humidity: 86%
Pressure (altimeter): 29.09 in. Hg (0985 hPa)
ob: EPGD 060600Z 34009KT 9999 SCT004 BKN009 04/02 Q0985
cycle: 6
