Gdansk-Rebiechowo, Poland (EPGD) 54-23N 018-28E 138M
Feb 03, 2012 - 09:00 AM EST / 2012.02.03 1400 UTC
Wind: from the SW (230 degrees) at 6 MPH (5 KT) (direction variable):0
Visibility: greater than 7 mile(s):0
Sky conditions: mostly cloudy
Temperature: 14 F (-10 C)
Windchill: 5 F (-15 C):1
Dew Point: 5 F (-15 C)
Relative Humidity: 66%
Pressure (altimeter): 30.47 in. Hg (1032 hPa)
ob: EPGD 031400Z 23005KT 190V270 9999 BKN024 M10/M15 Q1032
cycle: 14
