Gdansk-Rebiechowo, Poland (EPGD) 54-23N 018-28E 138M
Dec 30, 2011 - 12:00 PM EST / 2011.12.30 1700 UTC
Wind: from the W (280 degrees) at 3 MPH (3 KT):0
Visibility: greater than 7 mile(s):0
Sky conditions: mostly cloudy
Temperature: 35 F (2 C)
Dew Point: 33 F (1 C)
Relative Humidity: 93%
Pressure (altimeter): 29.56 in. Hg (1001 hPa)
ob: EPGD 301700Z 28003KT 9999 FEW007 BKN020 02/01 Q1001
cycle: 17
