Gdansk-Rebiechowo, Poland (EPGD) 54-23N 018-28E 138M
Jan 15, 2012 - 02:00 PM EST / 2012.01.15 1900 UTC
Wind: Variable at 1 MPH (1 KT):0
Visibility: greater than 7 mile(s):0
Sky conditions: mostly cloudy
Temperature: 28 F (-2 C)
Dew Point: 26 F (-3 C)
Relative Humidity: 92%
Pressure (altimeter): 30.12 in. Hg (1020 hPa)
ob: EPGD 151900Z VRB01KT 9999 SCT006 BKN030 M02/M03 Q1020 R11/590142
cycle: 19
