Gdansk-Rebiechowo, Poland (EPGD) 54-23N 018-28E 138M
Dec 27, 2011 - 07:00 AM EST / 2011.12.27 1200 UTC
Wind: from the W (270 degrees) at 20 MPH (17 KT):0
Visibility: 4 mile(s):0
Sky conditions: mostly cloudy
Weather: light rain
Temperature: 46 F (8 C)
Dew Point: 42 F (6 C)
Relative Humidity: 87%
Pressure (altimeter): 30.21 in. Hg (1023 hPa)
ob: EPGD 271200Z 27017KT 7000 -RA FEW009 BKN013 08/06 Q1023
cycle: 12
