Gdansk-Rebiechowo, Poland (EPGD) 54-23N 018-28E 138M
Dec 16, 2011 - 02:00 PM EST / 2011.12.16 1900 UTC
Wind: from the ESE (110 degrees) at 21 MPH (18 KT):0
Visibility: 1 mile(s):0
Sky conditions: mostly cloudy
Weather: snow, rain
Temperature: 33 F (1 C)
Windchill: 21 F (-6 C):1
Dew Point: 32 F (0 C)
Relative Humidity: 93%
Pressure (altimeter): 28.82 in. Hg (0976 hPa)
ob: EPGD 161900Z 11018KT 2500 SNRA FEW004 BKN005 01/M00 Q0976
cycle: 19
