Gdansk-Rebiechowo, Poland (EPGD) 54-23N 018-28E 138M
Feb 08, 2012 - 06:00 AM EST / 2012.02.08 1100 UTC
Wind: Variable at 1 MPH (1 KT):0
Visibility: 3 mile(s):0
Sky conditions: mostly cloudy
Weather: light snow; mist
Temperature: 24 F (-4 C)
Dew Point: 17 F (-8 C)
Relative Humidity: 73%
Pressure (altimeter): 30.68 in. Hg (1039 hPa)
ob: EPGD 081100Z VRB01KT 5000 -SN BR FEW005 BKN011 M04/M08 Q1039 R11/490159
cycle: 11
