Gdansk-Rebiechowo, Poland (EPGD) 54-23N 018-28E 138M
Feb 02, 2012 - 07:00 AM EST / 2012.02.02 1200 UTC
Wind: Calm:0
Visibility: greater than 7 mile(s):0
Temperature: 5 F (-15 C)
Dew Point: -4 F (-20 C)
Relative Humidity: 65%
Pressure (altimeter): 30.56 in. Hg (1035 hPa)
ob: EPGD 021200Z 00000KT CAVOK M15/M20 Q1035 R11/490140
cycle: 12
