Gdansk-Rebiechowo, Poland (EPGD) 54-23N 018-28E 138M
Dec 31, 2011 - 04:00 AM EST / 2011.12.31 0900 UTC
Wind: from the WNW (290 degrees) at 3 MPH (3 KT):0
Visibility: greater than 7 mile(s):0
Temperature: 33 F (1 C)
Dew Point: 30 F (-1 C)
Relative Humidity: 86%
Pressure (altimeter): 29.80 in. Hg (1009 hPa)
ob: EPGD 310900Z 29003KT CAVOK 01/M01 Q1009
cycle: 9
