Gdansk-Rebiechowo, Poland (EPGD) 54-23N 018-28E 138M
Jan 05, 2012 - 06:00 PM EST / 2012.01.05 2300 UTC
Wind: from the S (170 degrees) at 6 MPH (5 KT) (direction variable):0
Visibility: greater than 7 mile(s):0
Sky conditions: mostly cloudy
Temperature: 37 F (3 C)
Dew Point: 33 F (1 C)
Relative Humidity: 86%
Pressure (altimeter): 28.73 in. Hg (0973 hPa)
ob: EPGD 052300Z 17005KT 130V220 9999 BKN013 03/01 Q0973
cycle: 23
