Gdansk-Rebiechowo, Poland (EPGD) 54-23N 018-28E 138M
Jan 27, 2012 - 04:00 AM EST / 2012.01.27 0900 UTC
Wind: from the SE (130 degrees) at 5 MPH (4 KT):0
Visibility: 3 mile(s):0
Weather: mist
Temperature: 12 F (-11 C)
Windchill: 3 F (-16 C):1
Dew Point: 8 F (-13 C)
Relative Humidity: 85%
Pressure (altimeter): 30.47 in. Hg (1032 hPa)
ob: EPGD 270900Z 13004KT 5000 BR NSC M11/M13 Q1032 R11/190095
cycle: 9
