Gdansk-Rebiechowo, Poland (EPGD) 54-23N 018-28E 138M
Dec 15, 2011 - 08:00 PM EST / 2011.12.16 0100 UTC
Wind: from the S (190 degrees) at 7 MPH (6 KT) (direction variable):0
Visibility: greater than 7 mile(s):0
Temperature: 35 F (2 C)
Windchill: 28 F (-2 C):1
Dew Point: 33 F (1 C)
Relative Humidity: 93%
Pressure (altimeter): 29.59 in. Hg (1002 hPa)
ob: EPGD 160100Z 19006KT 140V220 CAVOK 02/01 Q1002
cycle: 1
