Gdansk-Rebiechowo, Poland (EPGD) 54-23N 018-28E 138M
Jan 04, 2012 - 05:00 PM EST / 2012.01.04 2200 UTC
Wind: from the WSW (240 degrees) at 17 MPH (15 KT) gusting to 30 MPH (26 KT) (direction variable):0
Visibility: greater than 7 mile(s):0
Sky conditions: partly cloudy
Temperature: 37 F (3 C)
Dew Point: 30 F (-1 C)
Relative Humidity: 74%
Pressure (altimeter): 29.44 in. Hg (0997 hPa)
ob: EPGD 042200Z 24015G26KT 200V270 9999 FEW020 SCT042 03/M01 Q0997
cycle: 22
