Gdansk-Rebiechowo, Poland (EPGD) 54-23N 018-28E 138M
Jan 02, 2012 - 05:00 PM EST / 2012.01.02 2200 UTC
Wind: from the W (270 degrees) at 10 MPH (9 KT):0
Visibility: greater than 7 mile(s):0
Sky conditions: mostly cloudy
Temperature: 42 F (6 C)
Dew Point: 41 F (5 C)
Relative Humidity: 93%
Pressure (altimeter): 29.74 in. Hg (1007 hPa)
ob: EPGD 022200Z 27009KT 9999 BKN016 06/05 Q1007
cycle: 22
