Gdansk-Rebiechowo, Poland (EPGD) 54-23N 018-28E 138M
Jan 01, 2012 - 02:00 AM EST / 2012.01.01 0700 UTC
Wind: from the SSE (160 degrees) at 6 MPH (5 KT) (direction variable):0
Visibility: greater than 7 mile(s):0
Sky conditions: mostly cloudy
Temperature: 28 F (-2 C)
Windchill: 21 F (-6 C):1
Dew Point: 24 F (-4 C)
Relative Humidity: 86%
Pressure (altimeter): 29.88 in. Hg (1012 hPa)
ob: EPGD 010700Z 16005KT 100V200 9999 BKN021 M02/M04 Q1012
cycle: 7
