Gdansk-Rebiechowo, Poland (EPGD) 54-23N 018-28E 138M
Jan 21, 2012 - 11:00 AM EST / 2012.01.21 1600 UTC
Wind: from the SSE (160 degrees) at 12 MPH (10 KT) (direction variable):0
Visibility: 2 mile(s):0
Sky conditions: mostly cloudy
Weather: light drizzle
Temperature: 33 F (1 C)
Windchill: 24 F (-4 C):1
Dew Point: 30 F (-1 C)
Relative Humidity: 86%
Pressure (altimeter): 29.44 in. Hg (0997 hPa)
ob: EPGD 211600Z 16010KT 100V200 4000 -DZ BKN004 01/M01 Q0997 R11/290095
cycle: 16
