Gdansk-Rebiechowo, Poland (EPGD) 54-23N 018-28E 138M
Dec 28, 2011 - 11:00 PM EST / 2011.12.29 0400 UTC
Wind: from the SW (220 degrees) at 9 MPH (8 KT) (direction variable):0
Visibility: greater than 7 mile(s):0
Sky conditions: mostly cloudy
Weather: light rain
Temperature: 41 F (5 C)
Dew Point: 39 F (4 C)
Relative Humidity: 93%
Pressure (altimeter): 29.80 in. Hg (1009 hPa)
ob: EPGD 290400Z 22008KT 190V250 9999 -RA BKN006 05/04 Q1009
cycle: 4
