Gdansk-Rebiechowo, Poland (EPGD) 54-23N 018-28E 138M
Feb 18, 2012 - 05:00 AM EST / 2012.02.18 1000 UTC
Wind: from the W (260 degrees) at 7 MPH (6 KT) (direction variable):0
Visibility: greater than 7 mile(s):0
Sky conditions: mostly cloudy
Temperature: 33 F (1 C)
Windchill: 26 F (-3 C):1
Dew Point: 30 F (-1 C)
Relative Humidity: 86%
Pressure (altimeter): 29.94 in. Hg (1014 hPa)
ob: EPGD 181000Z 26006KT 210V290 9999 BKN008 01/M01 Q1014 R29/190095
cycle: 10
