Gdansk-Rebiechowo, Poland (EPGD) 54-23N 018-28E 138M
Dec 26, 2011 - 12:00 AM EST / 2011.12.26 0500 UTC
Wind: from the WSW (250 degrees) at 14 MPH (12 KT):0
Visibility: 3 mile(s):0
Sky conditions: mostly cloudy
Weather: light drizzle; mist
Temperature: 46 F (8 C)
Dew Point: 44 F (7 C)
Relative Humidity: 93%
Pressure (altimeter): 30.06 in. Hg (1018 hPa)
ob: EPGD 260500Z 25012KT 5000 -DZ BR BKN006 08/07 Q1018
cycle: 5
