Gdansk-Rebiechowo, Poland (EPGD) 54-23N 018-28E 138M
Jan 16, 2012 - 06:00 PM EST / 2012.01.16 2300 UTC
Wind: Calm:0
Visibility: 1 mile(s):0
Sky conditions: mostly cloudy
Weather: light snow; mist
Temperature: 28 F (-2 C)
Dew Point: 26 F (-3 C)
Relative Humidity: 92%
Pressure (altimeter): 30.09 in. Hg (1019 hPa)
ob: EPGD 162300Z 00000KT 2000 -SN BR FEW009 BKN046 M02/M03 Q1019 R11/190095
cycle: 23
