Gdansk-Rebiechowo, Poland (EPGD) 54-23N 018-28E 138M
Jan 24, 2012 - 05:00 PM EST / 2012.01.24 2200 UTC
Wind: from the WNW (290 degrees) at 8 MPH (7 KT):0
Visibility: greater than 7 mile(s):0
Sky conditions: mostly cloudy
Weather: Towering cumulus clouds observed
Temperature: 30 F (-1 C)
Windchill: 23 F (-5 C):1
Dew Point: 28 F (-2 C)
Relative Humidity: 92%
Pressure (altimeter): 30.09 in. Hg (1019 hPa)
ob: EPGD 242200Z 29007KT 9999 SCT005 BKN014TCU M01/M02 Q1019 RESN R11/290095
cycle: 22
