Gdansk-Rebiechowo, Poland (EPGD) 54-23N 018-28E 138M
Dec 16, 2011 - 02:00 AM EST / 2011.12.16 0700 UTC
Wind: from the S (170 degrees) at 5 MPH (4 KT) (direction variable):0
Visibility: greater than 7 mile(s):0
Temperature: 33 F (1 C)
Windchill: 28 F (-2 C):1
Dew Point: 30 F (-1 C)
Relative Humidity: 86%
Pressure (altimeter): 29.44 in. Hg (0997 hPa)
ob: EPGD 160700Z 17004KT 120V220 CAVOK 01/M01 Q0997
cycle: 7
