Gdansk-Rebiechowo, Poland (EPGD) 54-23N 018-28E 138M
Jan 10, 2012 - 08:00 PM EST / 2012.01.11 0100 UTC
Wind: from the WSW (250 degrees) at 9 MPH (8 KT) (direction variable):0
Visibility: 4 mile(s):0
Sky conditions: mostly cloudy
Temperature: 35 F (2 C)
Windchill: 28 F (-2 C):1
Dew Point: 33 F (1 C)
Relative Humidity: 93%
Pressure (altimeter): 30.24 in. Hg (1024 hPa)
ob: EPGD 110100Z 25008KT 210V270 7000 BKN003 02/01 Q1024 R11/290060
cycle: 1
