Gdansk-Rebiechowo, Poland (EPGD) 54-23N 018-28E 138M
Feb 18, 2012 - 07:00 PM EST / 2012.02.19 0000 UTC
Wind: from the SSW (200 degrees) at 9 MPH (8 KT) (direction variable):0
Visibility: 4 mile(s):0
Sky conditions: mostly cloudy
Weather: light rain
Temperature: 35 F (2 C)
Windchill: 28 F (-2 C):1
Dew Point: 33 F (1 C)
Relative Humidity: 93%
Pressure (altimeter): 29.71 in. Hg (1006 hPa)
ob: EPGD 190000Z 20008KT 170V230 8000 -RA FEW005 BKN007 02/01 Q1006 R11/290095
cycle: 0
