Gdansk-Rebiechowo, Poland (EPGD) 54-23N 018-28E 138M
Jan 24, 2012 - 04:00 PM EST / 2012.01.24 2100 UTC
Wind: from the WNW (290 degrees) at 6 MPH (5 KT):0
Visibility: 4 mile(s):0
Sky conditions: mostly cloudy
Weather: light snow showers
Temperature: 30 F (-1 C)
Windchill: 23 F (-5 C):1
Dew Point: 30 F (-1 C)
Relative Humidity: 100%
Pressure (altimeter): 30.09 in. Hg (1019 hPa)
ob: EPGD 242100Z 29005KT 7000 -SHSN SCT005 BKN014 M01/M01 Q1019 R11/290095
cycle: 21
