Gdansk-Rebiechowo, Poland (EPGD) 54-23N 018-28E 138M
Jan 16, 2012 - 10:00 PM EST / 2012.01.17 0300 UTC
Wind: Calm:0
Visibility: 1 mile(s):0
Sky conditions: mostly cloudy
Weather: mist
Temperature: 28 F (-2 C)
Dew Point: 26 F (-3 C)
Relative Humidity: 92%
Pressure (altimeter): 30.12 in. Hg (1020 hPa)
ob: EPGD 170300Z 00000KT 2600 BR SCT007 BKN015 M02/M03 Q1020 R11/290053
cycle: 3
