Gdansk-Rebiechowo, Poland (EPGD) 54-23N 018-28E 138M
Feb 10, 2012 - 03:00 AM EST / 2012.02.10 0800 UTC
Wind: Variable at 1 MPH (1 KT):0
Visibility: 3 mile(s):0
Sky conditions: mostly cloudy
Temperature: 8 F (-13 C)
Dew Point: 5 F (-15 C)
Relative Humidity: 84%
Pressure (altimeter): 30.71 in. Hg (1040 hPa)
ob: EPGD 100800Z VRB01KT 6000 BKN019 M13/M15 Q1040 R11/090095
cycle: 8
