Gdansk-Rebiechowo, Poland (EPGD) 54-23N 018-28E 138M
Dec 29, 2011 - 06:00 AM EST / 2011.12.29 1100 UTC
Wind: from the WSW (240 degrees) at 17 MPH (15 KT):0
Visibility: greater than 7 mile(s):0
Sky conditions: mostly cloudy
Temperature: 42 F (6 C)
Dew Point: 33 F (1 C)
Relative Humidity: 70%
Pressure (altimeter): 29.68 in. Hg (1005 hPa)
ob: EPGD 291100Z 24015KT 9999 BKN023 06/01 Q1005
cycle: 11
