Gdansk-Rebiechowo, Poland (EPGD) 54-23N 018-28E 138M
Dec 23, 2011 - 04:00 AM EST / 2011.12.23 0900 UTC
Wind: Variable at 2 MPH (2 KT):0
Visibility: 1 mile(s):0
Sky conditions: overcast
Weather: mist
Temperature: 32 F (0 C)
Dew Point: 30 F (-1 C)
Relative Humidity: 92%
Pressure (altimeter): 30.06 in. Hg (1018 hPa)
ob: EPGD 230900Z VRB02KT 3000 BR OVC004 00/M01 Q1018
cycle: 9
