Gdansk-Rebiechowo, Poland (EPGD) 54-23N 018-28E 138M
Jan 06, 2012 - 11:00 AM EST / 2012.01.06 1600 UTC
Wind: from the WNW (300 degrees) at 20 MPH (17 KT):0
Visibility: greater than 7 mile(s):0
Sky conditions: mostly cloudy
Weather: light snow showers
Temperature: 33 F (1 C)
Windchill: 21 F (-6 C):1
Dew Point: 30 F (-1 C)
Relative Humidity: 86%
Pressure (altimeter): 29.65 in. Hg (1004 hPa)
ob: EPGD 061600Z 30017KT 9999 -SHSN FEW006 BKN013 01/M01 Q1004
cycle: 16
