Gdansk-Rebiechowo, Poland (EPGD) 54-23N 018-28E 138M
Dec 18, 2011 - 04:00 AM EST / 2011.12.18 0900 UTC
Wind: from the WSW (240 degrees) at 12 MPH (10 KT) (direction variable):0
Visibility: greater than 7 mile(s):0
Sky conditions: mostly cloudy
Weather: Towering cumulus clouds observed
Temperature: 33 F (1 C)
Windchill: 24 F (-4 C):1
Dew Point: 32 F (0 C)
Relative Humidity: 93%
Pressure (altimeter): 29.26 in. Hg (0991 hPa)
ob: EPGD 180900Z 24010KT 210V290 9999 BKN005TCU 01/M00 Q0991
cycle: 9
