Gdansk-Rebiechowo, Poland (EPGD) 54-23N 018-28E 138M
Dec 14, 2011 - 08:00 AM EST / 2011.12.14 1300 UTC
Wind: from the S (170 degrees) at 7 MPH (6 KT) (direction variable):0
Visibility: greater than 7 mile(s):0
Temperature: 42 F (6 C)
Dew Point: 35 F (2 C)
Relative Humidity: 75%
Pressure (altimeter): 29.56 in. Hg (1001 hPa)
ob: EPGD 141300Z 17006KT 120V210 CAVOK 06/02 Q1001
cycle: 13
