Gdansk-Rebiechowo, Poland (EPGD) 54-23N 018-28E 138M
Dec 21, 2011 - 01:00 AM EST / 2011.12.21 0600 UTC
Wind: from the ESE (110 degrees) at 2 MPH (2 KT):0
Visibility: 1 mile(s):0
Weather: mist
Temperature: 23 F (-5 C)
Dew Point: 21 F (-6 C)
Relative Humidity: 92%
Pressure (altimeter): 29.77 in. Hg (1008 hPa)
ob: EPGD 210600Z 11002KT 2000 BR NSC M05/M06 Q1008 R11/190095
cycle: 6
