Gdansk-Rebiechowo, Poland (EPGD) 54-23N 018-28E 138M
Dec 20, 2011 - 02:00 PM EST / 2011.12.20 1900 UTC
Wind: Variable at 1 MPH (1 KT):0
Visibility: 1 mile(s):0
Sky conditions: mostly cloudy
Weather: mist
Temperature: 32 F (0 C)
Dew Point: 28 F (-2 C)
Relative Humidity: 86%
Pressure (altimeter): 29.85 in. Hg (1011 hPa)
ob: EPGD 201900Z VRB01KT 3000 BR BKN048 M00/M02 Q1011 R11/190095
cycle: 19
