Gdansk-Rebiechowo, Poland (EPGD) 54-23N 018-28E 138M
Jan 31, 2012 - 08:00 AM EST / 2012.01.31 1300 UTC
Wind: from the E (100 degrees) at 7 MPH (6 KT):0
Visibility: greater than 7 mile(s):0
Temperature: 17 F (-8 C)
Windchill: 6 F (-14 C):1
Dew Point: 1 F (-17 C)
Relative Humidity: 48%
Pressure (altimeter): 30.71 in. Hg (1040 hPa)
ob: EPGD 311300Z 10006KT CAVOK M08/M17 Q1040 R11/190095
cycle: 13
