Gdansk-Rebiechowo, Poland (EPGD) 54-23N 018-28E 138M
Dec 14, 2011 - 02:00 PM EST / 2011.12.14 1900 UTC
Wind: from the S (170 degrees) at 9 MPH (8 KT) (direction variable):0
Visibility: greater than 7 mile(s):0
Temperature: 42 F (6 C)
Dew Point: 37 F (3 C)
Relative Humidity: 81%
Pressure (altimeter): 29.44 in. Hg (0997 hPa)
ob: EPGD 141900Z 17008KT 140V220 CAVOK 06/03 Q0997
cycle: 19
