Gdansk-Rebiechowo, Poland (EPGD) 54-23N 018-28E 138M
Jan 25, 2012 - 09:00 PM EST / 2012.01.26 0200 UTC
Wind: Variable at 2 MPH (2 KT):0
Visibility: greater than 7 mile(s):0
Sky conditions: partly cloudy
Weather: light snow showers; Towering cumulus clouds observed
Temperature: 28 F (-2 C)
Dew Point: 26 F (-3 C)
Relative Humidity: 92%
Pressure (altimeter): 30.30 in. Hg (1026 hPa)
ob: EPGD 260200Z VRB02KT 9999 -SHSN SCT006TCU SCT017 M02/M03 Q1026 R11/290095
cycle: 2
