Gdansk-Rebiechowo, Poland (EPGD) 54-23N 018-28E 138M
Dec 22, 2011 - 06:00 PM EST / 2011.12.22 2300 UTC
Wind: from the SW (230 degrees) at 7 MPH (6 KT) (direction variable):0
Visibility: 1 mile(s):0
Sky conditions: overcast
Weather: mist
Temperature: 26 F (-3 C)
Windchill: 17 F (-8 C):1
Dew Point: 26 F (-3 C)
Relative Humidity: 100%
Pressure (altimeter): 30.12 in. Hg (1020 hPa)
ob: EPGD 222300Z 23006KT 190V260 2600 BR OVC003 M03/M03 Q1020
cycle: 23
