Gdansk-Rebiechowo, Poland (EPGD) 54-23N 018-28E 138M
Jan 04, 2012 - 02:00 PM EST / 2012.01.04 1900 UTC
Wind: from the WSW (250 degrees) at 18 MPH (16 KT) gusting to 31 MPH (27 KT):0
Visibility: greater than 7 mile(s):0
Sky conditions: mostly cloudy
Temperature: 39 F (4 C)
Dew Point: 32 F (0 C)
Relative Humidity: 75%
Pressure (altimeter): 29.47 in. Hg (0998 hPa)
ob: EPGD 041900Z 25016G27KT 9999 FEW009 BKN021 04/00 Q0998
cycle: 19
