Gdansk-Rebiechowo, Poland (EPGD) 54-23N 018-28E 138M
Feb 11, 2012 - 05:00 PM EST / 2012.02.11 2200 UTC
Wind: from the W (260 degrees) at 5 MPH (4 KT):0
Visibility: greater than 7 mile(s):0
Sky conditions: mostly cloudy
Temperature: 19 F (-7 C)
Windchill: 12 F (-11 C):1
Dew Point: 17 F (-8 C)
Relative Humidity: 92%
Pressure (altimeter): 30.47 in. Hg (1032 hPa)
ob: EPGD 112200Z 26004KT 9999 FEW017 BKN042 M07/M08 Q1032 R29/490241
cycle: 22
