Gdansk-Rebiechowo, Poland (EPGD) 54-23N 018-28E 138M
Dec 17, 2011 - 11:00 AM EST / 2011.12.17 1600 UTC
Wind: from the W (280 degrees) at 17 MPH (15 KT):0
Visibility: greater than 7 mile(s):0
Sky conditions: mostly cloudy
Temperature: 37 F (3 C)
Dew Point: 33 F (1 C)
Relative Humidity: 86%
Pressure (altimeter): 28.97 in. Hg (0981 hPa)
ob: EPGD 171600Z 28015KT 9999 BKN008 03/01 Q0981 R11/290064
cycle: 16
